{
  "type": "FeatureCollection",
  "generator": "CSV-CNEFE2GeoJSON.lua 1.5.7 - fidelis.assis@gmail.com",
  "source": "IBGE CNEFE + Faces de Logradouros - 2022",
  "date": "2025-02-02T09:05:29-0300",
  "features": [
    {
      "type": "Feature",
      "properties": { 
      "IBGE:COD_UNICO_ENDERECO": "27355448",
      "addr:housenumber": "879",
      "addr:postcode": "48606-500",
      "addr:street": "Avenida Maranhão",
      "addr:suburb": "Paulo Afonso 4",
      "building": "yes"
      },
      "geometry": {
         "type": "Point",
         "coordinates": [-38.2133813,-9.3825819]
      }
    },
    {
      "type": "Feature",
      "properties": { 
      "IBGE:COD_UNICO_ENDERECO": "191717073",
      "addr:housenumber": "1233",
      "addr:postcode": "48606-500",
      "addr:street": "Avenida Maranhão",
      "addr:suburb": "Paulo Afonso 4",
      "building": "yes",
      "fixme": "Verificar coordenadas",
      "note": "Muito afastado da face: 155m 0500-0037P-19-2"
      },
      "geometry": {
         "type": "Point",
         "coordinates": [-38.21827,-9.374235]
      }
    },
    {
      "type": "Feature",
      "properties": { 
      "IBGE:COD_UNICO_ENDERECO": "27355381",
      "addr:housenumber": "25",
      "addr:postcode": "48606-500",
      "addr:street": "Avenida Maranhão",
      "addr:suburb": "Paulo Afonso 4",
      "building": "industrial",
      "man_made": "works",
      "name": "Fábrica de Plcas de Gesso"
      },
      "geometry": {
         "type": "Point",
         "coordinates": [-38.2195532,-9.3752656]
      }
    },
    {
      "type": "Feature",
      "properties": { 
      "IBGE:COD_UNICO_ENDERECO": "27355247",
      "addr:housenumber": "199",
      "addr:postcode": "48607-000",
      "addr:street": "Avenida Marcondes Ferraz",
      "addr:suburb": "Paulo Afonso 4",
      "building": "yes"
      },
      "geometry": {
         "type": "Point",
         "coordinates": [-38.2173017,-9.3897328]
      }
    },
    {
      "type": "Feature",
      "properties": { 
      "IBGE:COD_UNICO_ENDERECO": "27355182",
      "addr:housenumber": "5",
      "addr:postcode": "48607-285",
      "addr:street": "Rua das Acácias",
      "addr:suburb": "Paulo Afonso 4",
      "building": "yes"
      },
      "geometry": {
         "type": "Point",
         "coordinates": [-38.2192285,-9.388865]
      }
    },
    {
      "type": "Feature",
      "properties": { 
      "IBGE:COD_UNICO_ENDERECO": "27355391",
      "addr:housenumber": "33",
      "addr:postcode": "48606-500",
      "addr:suburb": "Paulo Afonso 4",
      "building": "yes"
      },
      "geometry": {
         "type": "Point",
         "coordinates": [-38.2199525,-9.3761233]
      }
    },
    {
      "type": "Feature",
      "properties": { 
      "IBGE:COD_UNICO_ENDERECO": "27355431",
      "addr:housenumber": "190",
      "addr:postcode": "48606-510",
      "addr:street": "Rua Caxias",
      "addr:suburb": "Paulo Afonso 4",
      "building": "yes"
      },
      "geometry": {
         "type": "Point",
         "coordinates": [-38.2143763,-9.382344]
      }
    },
    {
      "type": "Feature",
      "properties": { 
      "IBGE:COD_UNICO_ENDERECO": "27355429",
      "addr:housenumber": "164",
      "addr:postcode": "48606-510",
      "addr:street": "Rua Caxias",
      "addr:suburb": "Paulo Afonso 4",
      "building": "construction"
      },
      "geometry": {
         "type": "Point",
         "coordinates": [-38.2142915,-9.3826687]
      }
    },
    {
      "type": "Feature",
      "properties": { 
      "IBGE:COD_UNICO_ENDERECO": "27355262",
      "addr:housenumber": "16",
      "addr:postcode": "48606-500",
      "addr:street": "Avenida Maranhão",
      "addr:suburb": "Paulo Afonso 4",
      "building": "yes",
      "name": "Jne Construtora e Locação de Equipamento"
      },
      "geometry": {
         "type": "Point",
         "coordinates": [-38.2099796,-9.3887308]
      }
    },
    {
      "type": "Feature",
      "properties": { 
      "IBGE:COD_UNICO_ENDERECO": "27355453",
      "addr:housenumber": "22",
      "addr:postcode": "48606-520",
      "addr:street": "Rua Arari",
      "addr:suburb": "Paulo Afonso 4",
      "building": "yes"
      },
      "geometry": {
         "type": "Point",
         "coordinates": [-38.2136062,-9.3826462]
      }
    },
    {
      "type": "Feature",
      "properties": { 
      "IBGE:COD_UNICO_ENDERECO": "27355427",
      "addr:housenumber": "134",
      "addr:postcode": "48606-510",
      "addr:street": "Rua Caxias",
      "addr:suburb": "Paulo Afonso 4",
      "building": "yes"
      },
      "geometry": {
         "type": "Point",
         "coordinates": [-38.2141743,-9.3827322]
      }
    },
    {
      "type": "Feature",
      "properties": { 
      "IBGE:COD_UNICO_ENDERECO": "27355153",
      "addr:housenumber": "1",
      "addr:postcode": "48607-285",
      "addr:street": "Rua das Acácias",
      "addr:suburb": "Paulo Afonso 4",
      "building": "yes"
      },
      "geometry": {
         "type": "Point",
         "coordinates": [-38.2194677,-9.3886307]
      }
    },
    {
      "type": "Feature",
      "properties": { 
      "IBGE:COD_UNICO_ENDERECO": "27355289",
      "addr:housenumber": "26",
      "addr:postcode": "48607-245",
      "addr:street": "Rua da Consolação",
      "addr:suburb": "Paulo Afonso 4",
      "building": "yes"
      },
      "geometry": {
         "type": "Point",
         "coordinates": [-38.214289,-9.383367]
      }
    },
    {
      "type": "Feature",
      "properties": { 
      "IBGE:COD_UNICO_ENDERECO": "191716524",
      "addr:housenumber": "3",
      "addr:postcode": "48607-285",
      "addr:street": "Rua das Acácias",
      "addr:suburb": "Paulo Afonso 4",
      "building": "yes"
      },
      "geometry": {
         "type": "Point",
         "coordinates": [-38.2194506,-9.3886334]
      }
    },
    {
      "type": "Feature",
      "properties": { 
      "IBGE:COD_UNICO_ENDERECO": "27355481",
      "addr:housenumber": "7",
      "addr:postcode": "48606-500",
      "addr:street": "Avenida Maranhão",
      "addr:suburb": "Paulo Afonso 4",
      "building": "yes",
      "fixme": "Verificar coordenadas",
      "name": "Recanto Solidário",
      "note": "Muito afastado da face: 108m 0500-0037P-19-2"
      },
      "geometry": {
         "type": "Point",
         "coordinates": [-38.212647,-9.380718]
      }
    },
    {
      "type": "Feature",
      "properties": { 
      "IBGE:COD_UNICO_ENDERECO": "27355498",
      "addr:housenumber": "1225",
      "addr:postcode": "48606-500",
      "addr:street": "Avenida Maranhão",
      "addr:suburb": "Paulo Afonso 4",
      "addr:unit": "Casa F",
      "building": "yes",
      "fixme": "Verificar coordenadas",
      "note": "Muito afastado da face: 118m 0500-0037P-19-2"
      },
      "geometry": {
         "type": "Point",
         "coordinates": [-38.21915,-9.37402]
      }
    },
    {
      "type": "Feature",
      "properties": { 
      "IBGE:COD_UNICO_ENDERECO": "27355370",
      "addr:housenumber": "37",
      "addr:postcode": "48606-500",
      "addr:suburb": "Paulo Afonso 4",
      "building": "yes",
      "name": "Reparação Automotiva Alternativa Autoser"
      },
      "geometry": {
         "type": "Point",
         "coordinates": [-38.2239284,-9.3758599]
      }
    },
    {
      "type": "Feature",
      "properties": { 
      "IBGE:COD_UNICO_ENDERECO": "27355170",
      "addr:housenumber": "145",
      "addr:postcode": "48607-150",
      "addr:street": "Rua Recife",
      "addr:suburb": "Paulo Afonso 4",
      "building": "yes"
      },
      "geometry": {
         "type": "Point",
         "coordinates": [-38.2187219,-9.3874831]
      }
    },
    {
      "type": "Feature",
      "properties": { 
      "IBGE:COD_UNICO_ENDERECO": "27355110",
      "addr:housenumber": "25",
      "addr:postcode": "48607-275",
      "addr:street": "Rua Crato",
      "addr:suburb": "Paulo Afonso 4",
      "building": "yes"
      },
      "geometry": {
         "type": "Point",
         "coordinates": [-38.2206202,-9.3867839]
      }
    },
    {
      "type": "Feature",
      "properties": { 
      "IBGE:COD_UNICO_ENDERECO": "27421451",
      "addr:housenumber": "63",
      "addr:postcode": "48607-410",
      "addr:street": "Rua Sergipe",
      "addr:suburb": "Paulo Afonso 4",
      "building": "yes"
      },
      "geometry": {
         "type": "Point",
         "coordinates": [-38.223194,-9.3859727]
      }
    },
    {
      "type": "Feature",
      "properties": { 
      "IBGE:COD_UNICO_ENDERECO": "27355438",
      "addr:housenumber": "991",
      "addr:postcode": "48606-500",
      "addr:street": "Avenida Maranhão",
      "addr:suburb": "Paulo Afonso 4",
      "building": "yes"
      },
      "geometry": {
         "type": "Point",
         "coordinates": [-38.2139884,-9.3818463]
      }
    },
    {
      "type": "Feature",
      "properties": { 
      "IBGE:COD_UNICO_ENDERECO": "27355285",
      "addr:housenumber": "122",
      "addr:postcode": "48607-245",
      "addr:street": "Rua da Consolação",
      "addr:suburb": "Paulo Afonso 4",
      "building": "yes"
      },
      "geometry": {
         "type": "Point",
         "coordinates": [-38.2143267,-9.3833876]
      }
    },
    {
      "type": "Feature",
      "properties": { 
      "IBGE:COD_UNICO_ENDERECO": "191716489",
      "addr:housenumber": "115",
      "addr:postcode": "48607-250",
      "addr:street": "Rua da União",
      "addr:suburb": "Paulo Afonso 4",
      "building": "yes"
      },
      "geometry": {
         "type": "Point",
         "coordinates": [-38.2219461,-9.3861373]
      }
    },
    {
      "type": "Feature",
      "properties": { 
      "IBGE:COD_UNICO_ENDERECO": "27355407",
      "addr:housenumber": "2005",
      "addr:postcode": "48606-500",
      "addr:street": "Avenida Maranhão",
      "addr:suburb": "Paulo Afonso 4",
      "building": "yes",
      "name": "Materiais de Eventos Mw Eventos"
      },
      "geometry": {
         "type": "Point",
         "coordinates": [-38.2250044,-9.3756205]
      }
    },
    {
      "type": "Feature",
      "properties": { 
      "IBGE:COD_UNICO_ENDERECO": "27355147;27355152",
      "addr:housenumber": "8",
      "addr:postcode": "48607-285",
      "addr:street": "Rua das Acácias",
      "addr:suburb": "Paulo Afonso 4",
      "building": "yes"
      },
      "geometry": {
         "type": "Point",
         "coordinates": [-38.219461,-9.3886666]
      }
    },
    {
      "type": "Feature",
      "properties": { 
      "IBGE:COD_UNICO_ENDERECO": "27355451",
      "addr:housenumber": "38",
      "addr:postcode": "48606-510",
      "addr:street": "Rua Caxias",
      "addr:suburb": "Paulo Afonso 4",
      "addr:unit": "Fundos",
      "building": "yes"
      },
      "geometry": {
         "type": "Point",
         "coordinates": [-38.2133986,-9.3826861]
      }
    },
    {
      "type": "Feature",
      "properties": { 
      "IBGE:COD_UNICO_ENDERECO": "27355268",
      "addr:housenumber": "57",
      "addr:postcode": "48606-500",
      "addr:suburb": "Paulo Afonso 4",
      "building": "yes"
      },
      "geometry": {
         "type": "Point",
         "coordinates": [-38.219771,-9.3765852]
      }
    },
    {
      "type": "Feature",
      "properties": { 
      "IBGE:COD_UNICO_ENDERECO": "27355441",
      "addr:housenumber": "951",
      "addr:postcode": "48606-500",
      "addr:street": "Avenida Maranhão",
      "addr:suburb": "Paulo Afonso 4",
      "building": "yes"
      },
      "geometry": {
         "type": "Point",
         "coordinates": [-38.2137911,-9.3820853]
      }
    },
    {
      "type": "Feature",
      "properties": { 
      "IBGE:COD_UNICO_ENDERECO": "27355217",
      "addr:housenumber": "93",
      "addr:postcode": "48607-270",
      "addr:street": "Rua Pesqueira",
      "addr:suburb": "Paulo Afonso 4",
      "building": "yes"
      },
      "geometry": {
         "type": "Point",
         "coordinates": [-38.2191135,-9.3892742]
      }
    },
    {
      "type": "Feature",
      "properties": { 
      "IBGE:COD_UNICO_ENDERECO": "27355115",
      "addr:housenumber": "218",
      "addr:postcode": "48607-290",
      "addr:street": "Rua Fortaleza",
      "addr:suburb": "Paulo Afonso 4",
      "building": "yes"
      },
      "geometry": {
         "type": "Point",
         "coordinates": [-38.2203966,-9.3883828]
      }
    },
    {
      "type": "Feature",
      "properties": { 
      "IBGE:COD_UNICO_ENDERECO": "27421450",
      "addr:housenumber": "83",
      "addr:postcode": "48607-410",
      "addr:street": "Rua Sergipe",
      "addr:suburb": "Paulo Afonso 4",
      "building": "yes"
      },
      "geometry": {
         "type": "Point",
         "coordinates": [-38.2233499,-9.3860672]
      }
    },
    {
      "type": "Feature",
      "properties": { 
      "IBGE:COD_UNICO_ENDERECO": "27355190",
      "addr:housenumber": "7",
      "addr:postcode": "48607-262",
      "addr:street": "Rua Garanhuns",
      "addr:suburb": "Paulo Afonso 4",
      "building": "yes"
      },
      "geometry": {
         "type": "Point",
         "coordinates": [-38.2186559,-9.3886966]
      }
    },
    {
      "type": "Feature",
      "properties": { 
      "IBGE:COD_UNICO_ENDERECO": "27355426",
      "addr:housenumber": "130",
      "addr:postcode": "48606-510",
      "addr:street": "Rua Caxias",
      "addr:suburb": "Paulo Afonso 4",
      "building": "yes"
      },
      "geometry": {
         "type": "Point",
         "coordinates": [-38.2140875,-9.3828537]
      }
    },
    {
      "type": "Feature",
      "properties": { 
      "IBGE:COD_UNICO_ENDERECO": "191717049",
      "addr:housenumber": "83",
      "addr:postcode": "48606-500",
      "addr:street": "Avenida Maranhão",
      "addr:suburb": "Paulo Afonso 4",
      "building": "construction",
      "fixme": "Verificar coordenadas",
      "note": "Muito afastado da face: 156m 0500-0037P-19-2"
      },
      "geometry": {
         "type": "Point",
         "coordinates": [-38.217871,-9.374642]
      }
    },
    {
      "type": "Feature",
      "properties": { 
      "IBGE:COD_UNICO_ENDERECO": "27355134",
      "addr:housenumber": "118",
      "addr:postcode": "48607-275",
      "addr:street": "Rua Crato",
      "addr:suburb": "Paulo Afonso 4",
      "building": "yes"
      },
      "geometry": {
         "type": "Point",
         "coordinates": [-38.2210907,-9.3863114]
      }
    },
    {
      "type": "Feature",
      "properties": { 
      "IBGE:COD_UNICO_ENDERECO": "27355483",
      "addr:housenumber": "8 A",
      "addr:postcode": "48606-500",
      "addr:street": "Avenida Maranhão",
      "addr:suburb": "Paulo Afonso 4",
      "building": "yes"
      },
      "geometry": {
         "type": "Point",
         "coordinates": [-38.2136318,-9.3812509]
      }
    },
    {
      "type": "Feature",
      "properties": { 
      "IBGE:COD_UNICO_ENDERECO": "27355202",
      "addr:housenumber": "11",
      "addr:postcode": "48607-270",
      "addr:street": "Rua Pesqueira",
      "addr:suburb": "Paulo Afonso 4",
      "building": "yes"
      },
      "geometry": {
         "type": "Point",
         "coordinates": [-38.2182991,-9.3892203]
      }
    },
    {
      "type": "Feature",
      "properties": { 
      "IBGE:COD_UNICO_ENDERECO": "191716653",
      "addr:housenumber": "55",
      "addr:postcode": "48607-000",
      "addr:street": "Avenida Marcondes Ferraz",
      "addr:suburb": "Paulo Afonso 4",
      "building": "construction"
      },
      "geometry": {
         "type": "Point",
         "coordinates": [-38.2167882,-9.3897037]
      }
    },
    {
      "type": "Feature",
      "properties": { 
      "IBGE:COD_UNICO_ENDERECO": "27355158-27355159",
      "addr:housenumber": "41",
      "addr:postcode": "48607-285",
      "addr:street": "Rua das Acácias",
      "addr:suburb": "Paulo Afonso 4",
      "building": "yes"
      },
      "geometry": {
         "type": "Point",
         "coordinates": [-38.2194138,-9.3889644]
      }
    },
    {
      "type": "Feature",
      "properties": { 
      "IBGE:COD_UNICO_ENDERECO": "27355430",
      "addr:housenumber": "186",
      "addr:postcode": "48606-510",
      "addr:street": "Rua Caxias",
      "addr:suburb": "Paulo Afonso 4",
      "building": "yes"
      },
      "geometry": {
         "type": "Point",
         "coordinates": [-38.2143745,-9.3823188]
      }
    },
    {
      "type": "Feature",
      "properties": { 
      "IBGE:COD_UNICO_ENDERECO": "27355129",
      "addr:housenumber": "170",
      "addr:postcode": "48607-275",
      "addr:street": "Rua Crato",
      "addr:suburb": "Paulo Afonso 4",
      "building": "yes"
      },
      "geometry": {
         "type": "Point",
         "coordinates": [-38.2217207,-9.3863416]
      }
    },
    {
      "type": "Feature",
      "properties": { 
      "IBGE:COD_UNICO_ENDERECO": "191716606;191716608",
      "addr:housenumber": "21",
      "addr:postcode": "48607-270",
      "addr:street": "Rua Pesqueira",
      "addr:suburb": "Paulo Afonso 4",
      "building": "garage",
      "description": "CNEFE 2022 Garagem"
      },
      "geometry": {
         "type": "Point",
         "coordinates": [-38.2187279,-9.3894153]
      }
    },
    {
      "type": "Feature",
      "properties": { 
      "IBGE:COD_UNICO_ENDERECO": "27355256",
      "addr:housenumber": "667",
      "addr:postcode": "48606-500",
      "addr:street": "Avenida Maranhão",
      "addr:suburb": "Paulo Afonso 4",
      "building": "yes",
      "name": "Serviço de Transportes da Chesf",
      "office": "transport"
      },
      "geometry": {
         "type": "Point",
         "coordinates": [-38.2123575,-9.3838505]
      }
    },
    {
      "type": "Feature",
      "properties": { 
      "IBGE:COD_UNICO_ENDERECO": "27355372",
      "addr:housenumber": "2280",
      "addr:postcode": "48606-500",
      "addr:street": "Avenida Maranhão",
      "addr:suburb": "Paulo Afonso 4",
      "building": "industrial",
      "man_made": "works",
      "name": "Fábrica de Placas de Sinalização Seriart"
      },
      "geometry": {
         "type": "Point",
         "coordinates": [-38.2232923,-9.3751583]
      }
    },
    {
      "type": "Feature",
      "properties": { 
      "IBGE:COD_UNICO_ENDERECO": "191716499",
      "addr:housenumber": "202",
      "addr:postcode": "48607-290",
      "addr:street": "Rua Fortaleza",
      "addr:suburb": "Paulo Afonso 4",
      "building": "yes"
      },
      "geometry": {
         "type": "Point",
         "coordinates": [-38.219708,-9.3888024]
      }
    },
    {
      "type": "Feature",
      "properties": { 
      "IBGE:COD_UNICO_ENDERECO": "27355175",
      "addr:housenumber": "146",
      "addr:postcode": "48607-150",
      "addr:street": "Rua Recife",
      "addr:suburb": "Paulo Afonso 4",
      "building": "yes"
      },
      "geometry": {
         "type": "Point",
         "coordinates": [-38.2186316,-9.3876459]
      }
    },
    {
      "type": "Feature",
      "properties": { 
      "IBGE:COD_UNICO_ENDERECO": "27355436",
      "addr:housenumber": "995",
      "addr:postcode": "48606-500",
      "addr:street": "Avenida Maranhão",
      "addr:suburb": "Paulo Afonso 4",
      "building": "construction"
      },
      "geometry": {
         "type": "Point",
         "coordinates": [-38.2141049,-9.3817051]
      }
    },
    {
      "type": "Feature",
      "properties": { 
      "IBGE:COD_UNICO_ENDERECO": "27421454",
      "addr:housenumber": "24",
      "addr:postcode": "48607-330",
      "addr:street": "Rua Alagoas",
      "addr:suburb": "Paulo Afonso 4",
      "building": "yes"
      },
      "geometry": {
         "type": "Point",
         "coordinates": [-38.2226436,-9.3861609]
      }
    },
    {
      "type": "Feature",
      "properties": { 
      "IBGE:COD_UNICO_ENDERECO": "27355383",
      "addr:housenumber": "1721",
      "addr:postcode": "48606-500",
      "addr:street": "Avenida Maranhão",
      "addr:suburb": "Paulo Afonso 4",
      "building": "yes",
      "fixme": "Verificar coordenadas",
      "name": "Boot Flex Brasil",
      "note": "Fora da área de projeção da face 0500-0037P-11-2"
      },
      "geometry": {
         "type": "Point",
         "coordinates": [-38.224404,-9.375328]
      }
    },
    {
      "type": "Feature",
      "properties": { 
      "IBGE:COD_UNICO_ENDERECO": "27355227",
      "addr:housenumber": "266",
      "addr:postcode": "48607-150",
      "addr:street": "Rua Recife",
      "addr:suburb": "Paulo Afonso 4",
      "building": "yes"
      },
      "geometry": {
         "type": "Point",
         "coordinates": [-38.2176079,-9.3878972]
      }
    },
    {
      "type": "Feature",
      "properties": { 
      "IBGE:COD_UNICO_ENDERECO": "27355487",
      "addr:housenumber": "71",
      "addr:postcode": "48606-500",
      "addr:street": "Avenida Maranhão",
      "addr:suburb": "Paulo Afonso 4",
      "building": "yes",
      "name": "Ilha do Coqueiro"
      },
      "geometry": {
         "type": "Point",
         "coordinates": [-38.2177485,-9.3768711]
      }
    },
    {
      "type": "Feature",
      "properties": { 
      "IBGE:COD_UNICO_ENDERECO": "27355237",
      "addr:housenumber": "594",
      "addr:postcode": "48607-150",
      "addr:street": "Rua Recife",
      "addr:suburb": "Paulo Afonso 4",
      "building": "yes"
      },
      "geometry": {
         "type": "Point",
         "coordinates": [-38.2152064,-9.3893145]
      }
    },
    {
      "type": "Feature",
      "properties": { 
      "IBGE:COD_UNICO_ENDERECO": "191716518",
      "addr:housenumber": "159",
      "addr:postcode": "48607-285",
      "addr:street": "Rua das Acácias",
      "addr:suburb": "Paulo Afonso 4",
      "addr:unit": "Anexo B",
      "building": "yes",
      "healthcare": "yes",
      "name": "Anima Saúde Mental e Auto Conhecimento"
      },
      "geometry": {
         "type": "Point",
         "coordinates": [-38.2196871,-9.3879771]
      }
    },
    {
      "type": "Feature",
      "properties": { 
      "IBGE:COD_UNICO_ENDERECO": "191716497",
      "addr:housenumber": "106",
      "addr:postcode": "48607-290",
      "addr:street": "Rua Fortaleza",
      "addr:suburb": "Paulo Afonso 4",
      "building": "yes"
      },
      "geometry": {
         "type": "Point",
         "coordinates": [-38.220343,-9.3873575]
      }
    },
    {
      "type": "Feature",
      "properties": { 
      "IBGE:COD_UNICO_ENDERECO": "27355224",
      "addr:housenumber": "86",
      "addr:postcode": "48607-300",
      "addr:street": "Rua Angelim",
      "addr:suburb": "Paulo Afonso 4",
      "building": "yes"
      },
      "geometry": {
         "type": "Point",
         "coordinates": [-38.2181506,-9.388476]
      }
    },
    {
      "type": "Feature",
      "properties": { 
      "IBGE:COD_UNICO_ENDERECO": "27355425",
      "addr:housenumber": "100",
      "addr:postcode": "48606-510",
      "addr:street": "Rua Caxias",
      "addr:suburb": "Paulo Afonso 4",
      "building": "yes"
      },
      "geometry": {
         "type": "Point",
         "coordinates": [-38.2138808,-9.3828822]
      }
    },
    {
      "type": "Feature",
      "properties": { 
      "IBGE:COD_UNICO_ENDERECO": "27355446",
      "addr:housenumber": "899",
      "addr:postcode": "48606-500",
      "addr:street": "Avenida Maranhão",
      "addr:suburb": "Paulo Afonso 4",
      "building": "construction"
      },
      "geometry": {
         "type": "Point",
         "coordinates": [-38.2134642,-9.3824814]
      }
    },
    {
      "type": "Feature",
      "properties": { 
      "IBGE:COD_UNICO_ENDERECO": "27355096",
      "addr:housenumber": "908",
      "addr:postcode": "48607-235",
      "addr:street": "Avenida da Amizade",
      "addr:suburb": "Paulo Afonso 4",
      "building": "yes"
      },
      "geometry": {
         "type": "Point",
         "coordinates": [-38.2215526,-9.3874866]
      }
    },
    {
      "type": "Feature",
      "properties": { 
      "IBGE:COD_UNICO_ENDERECO": "27355464",
      "addr:housenumber": "126",
      "addr:postcode": "48606-520",
      "addr:street": "Rua Arari",
      "addr:suburb": "Paulo Afonso 4",
      "building": "yes"
      },
      "geometry": {
         "type": "Point",
         "coordinates": [-38.2142325,-9.3818786]
      }
    },
    {
      "type": "Feature",
      "properties": { 
      "IBGE:COD_UNICO_ENDERECO": "27355463",
      "addr:housenumber": "122",
      "addr:postcode": "48606-520",
      "addr:street": "Rua Arari",
      "addr:suburb": "Paulo Afonso 4",
      "building": "yes"
      },
      "geometry": {
         "type": "Point",
         "coordinates": [-38.2141669,-9.3819209]
      }
    },
    {
      "type": "Feature",
      "properties": { 
      "IBGE:COD_UNICO_ENDERECO": "191717108",
      "addr:housenumber": "1205",
      "addr:postcode": "48606-500",
      "addr:street": "Avenida Maranhão",
      "addr:suburb": "Paulo Afonso 4",
      "building": "yes",
      "fixme": "Verificar coordenadas",
      "note": "Muito afastado da face: 84m 0500-0037P-19-2"
      },
      "geometry": {
         "type": "Point",
         "coordinates": [-38.219679,-9.374108]
      }
    },
    {
      "type": "Feature",
      "properties": { 
      "IBGE:COD_UNICO_ENDERECO": "27355181",
      "addr:housenumber": "158",
      "addr:postcode": "48607-285",
      "addr:street": "Rua das Acácias",
      "addr:suburb": "Paulo Afonso 4",
      "addr:unit": "Fundos",
      "building": "yes"
      },
      "geometry": {
         "type": "Point",
         "coordinates": [-38.2191646,-9.3889216]
      }
    },
    {
      "type": "Feature",
      "properties": { 
      "IBGE:COD_UNICO_ENDERECO": "27355255",
      "addr:housenumber": "389",
      "addr:postcode": "48607-000",
      "addr:street": "Avenida Marcondes Ferraz",
      "addr:suburb": "Paulo Afonso 4",
      "building": "yes"
      },
      "geometry": {
         "type": "Point",
         "coordinates": [-38.2155265,-9.3896324]
      }
    },
    {
      "type": "Feature",
      "properties": { 
      "IBGE:COD_UNICO_ENDERECO": "27355272",
      "addr:housenumber": "299 Frente",
      "addr:postcode": "48606-510",
      "addr:street": "Rua Caxias",
      "addr:suburb": "Paulo Afonso 4",
      "building": "yes"
      },
      "geometry": {
         "type": "Point",
         "coordinates": [-38.2143372,-9.3814284]
      }
    },
    {
      "type": "Feature",
      "properties": { 
      "IBGE:COD_UNICO_ENDERECO": "27355479",
      "addr:housenumber": "14 A",
      "addr:postcode": "48607-245",
      "addr:street": "Rua da Consolação",
      "addr:suburb": "Paulo Afonso 4",
      "building": "yes"
      },
      "geometry": {
         "type": "Point",
         "coordinates": [-38.2105249,-9.3809813]
      }
    },
    {
      "type": "Feature",
      "properties": { 
      "IBGE:COD_UNICO_ENDERECO": "27355390",
      "addr:housenumber": "32",
      "addr:postcode": "48606-500",
      "addr:suburb": "Paulo Afonso 4",
      "disused:building": "industrial",
      "disused:man_made": "works",
      "old_name": "Fábrica de Plásticos Fechada"
      },
      "geometry": {
         "type": "Point",
         "coordinates": [-38.2197174,-9.376365]
      }
    },
    {
      "type": "Feature",
      "properties": { 
      "IBGE:COD_UNICO_ENDERECO": "27355476",
      "addr:housenumber": "14 A",
      "addr:postcode": "48607-245",
      "addr:street": "Rua da Consolação",
      "addr:suburb": "Paulo Afonso 4",
      "building": "yes",
      "name": "Indústria de Defumados Desejos"
      },
      "geometry": {
         "type": "Point",
         "coordinates": [-38.2102877,-9.381081]
      }
    },
    {
      "type": "Feature",
      "properties": { 
      "IBGE:COD_UNICO_ENDERECO": "27355258",
      "addr:housenumber": "267",
      "addr:postcode": "48606-500",
      "addr:street": "Avenida Maranhão",
      "addr:suburb": "Paulo Afonso 4",
      "building": "yes",
      "name": "Fundação Nacional de Saúde"
      },
      "geometry": {
         "type": "Point",
         "coordinates": [-38.2102033,-9.3869226]
      }
    },
    {
      "type": "Feature",
      "properties": { 
      "IBGE:COD_UNICO_ENDERECO": "191717045",
      "addr:housenumber": "1150",
      "addr:postcode": "48606-500",
      "addr:street": "Avenida Maranhão",
      "addr:suburb": "Paulo Afonso 4",
      "building": "yes",
      "fixme": "Verificar coordenadas",
      "note": "Muito afastado da face: 121m 0500-0037P-19-2"
      },
      "geometry": {
         "type": "Point",
         "coordinates": [-38.218126,-9.374827]
      }
    },
    {
      "type": "Feature",
      "properties": { 
      "IBGE:COD_UNICO_ENDERECO": "27355156",
      "addr:housenumber": "12",
      "addr:postcode": "48607-285",
      "addr:street": "Rua das Acácias",
      "addr:suburb": "Paulo Afonso 4",
      "building": "yes"
      },
      "geometry": {
         "type": "Point",
         "coordinates": [-38.2194024,-9.3890363]
      }
    },
    {
      "type": "Feature",
      "properties": { 
      "IBGE:COD_UNICO_ENDERECO": "27355385",
      "addr:housenumber": "2225 E",
      "addr:postcode": "48606-500",
      "addr:street": "Avenida Maranhão",
      "addr:suburb": "Paulo Afonso 4",
      "building": "yes"
      },
      "geometry": {
         "type": "Point",
         "coordinates": [-38.2221493,-9.3750042]
      }
    },
    {
      "type": "Feature",
      "properties": { 
      "IBGE:COD_UNICO_ENDERECO": "27355408",
      "addr:housenumber": "8",
      "addr:postcode": "48606-500",
      "addr:suburb": "Paulo Afonso 4",
      "addr:unit": "Fundos",
      "building": "yes",
      "craft": "carpenter",
      "name": "Marcenaria Carvalho"
      },
      "geometry": {
         "type": "Point",
         "coordinates": [-38.2245081,-9.3762783]
      }
    },
    {
      "type": "Feature",
      "properties": { 
      "IBGE:COD_UNICO_ENDERECO": "191716445",
      "addr:housenumber": "932",
      "addr:postcode": "48607-235",
      "addr:street": "Avenida da Amizade",
      "addr:suburb": "Paulo Afonso 4",
      "addr:unit": "Casa",
      "building": "yes"
      },
      "geometry": {
         "type": "Point",
         "coordinates": [-38.2216807,-9.3872913]
      }
    },
    {
      "type": "Feature",
      "properties": { 
      "IBGE:COD_UNICO_ENDERECO": "191717077",
      "addr:housenumber": "1231",
      "addr:postcode": "48606-500",
      "addr:street": "Avenida Maranhão",
      "addr:suburb": "Paulo Afonso 4",
      "building": "yes",
      "fixme": "Verificar coordenadas",
      "note": "Muito afastado da face: 159m 0500-0037P-19-2"
      },
      "geometry": {
         "type": "Point",
         "coordinates": [-38.218268,-9.374192]
      }
    },
    {
      "type": "Feature",
      "properties": { 
      "IBGE:COD_UNICO_ENDERECO": "27355127",
      "addr:housenumber": "1028",
      "addr:postcode": "48607-235",
      "addr:street": "Avenida da Amizade",
      "addr:suburb": "Paulo Afonso 4",
      "addr:unit": "Fundos",
      "building": "yes"
      },
      "geometry": {
         "type": "Point",
         "coordinates": [-38.2221466,-9.3863904]
      }
    },
    {
      "type": "Feature",
      "properties": { 
      "IBGE:COD_UNICO_ENDERECO": "27355462",
      "addr:housenumber": "118",
      "addr:postcode": "48606-520",
      "addr:street": "Rua Arari",
      "addr:suburb": "Paulo Afonso 4",
      "building": "yes"
      },
      "geometry": {
         "type": "Point",
         "coordinates": [-38.214166,-9.3819219]
      }
    },
    {
      "type": "Feature",
      "properties": { 
      "IBGE:COD_UNICO_ENDERECO": "27355222",
      "addr:housenumber": "10",
      "addr:postcode": "48607-270",
      "addr:street": "Rua Pesqueira",
      "addr:suburb": "Paulo Afonso 4",
      "building": "yes"
      },
      "geometry": {
         "type": "Point",
         "coordinates": [-38.2183014,-9.3893779]
      }
    },
    {
      "type": "Feature",
      "properties": { 
      "IBGE:COD_UNICO_ENDERECO": "27355475",
      "addr:housenumber": "25",
      "addr:postcode": "48607-245",
      "addr:street": "Rua da Consolação",
      "addr:suburb": "Paulo Afonso 4",
      "building": "yes"
      },
      "geometry": {
         "type": "Point",
         "coordinates": [-38.2103676,-9.3811285]
      }
    },
    {
      "type": "Feature",
      "properties": { 
      "IBGE:COD_UNICO_ENDERECO": "191716464",
      "addr:housenumber": "25",
      "addr:postcode": "48607-275",
      "addr:street": "Rua Crato",
      "addr:suburb": "Paulo Afonso 4",
      "addr:unit": "Casa A",
      "building": "yes"
      },
      "geometry": {
         "type": "Point",
         "coordinates": [-38.220620155834,-9.3867840616562]
      }
    },
    {
      "type": "Feature",
      "properties": { 
      "IBGE:COD_UNICO_ENDERECO": "27355266",
      "addr:housenumber": "54",
      "addr:postcode": "48606-500",
      "addr:suburb": "Paulo Afonso 4",
      "building": "yes",
      "name": "Escritório da Pré-Moldado Senhor do Bonfi",
      "office": "yes"
      },
      "geometry": {
         "type": "Point",
         "coordinates": [-38.2196646,-9.3766949]
      }
    },
    {
      "type": "Feature",
      "properties": { 
      "IBGE:COD_UNICO_ENDERECO": "27421457",
      "addr:housenumber": "92",
      "addr:postcode": "48607-330",
      "addr:street": "Rua Alagoas",
      "addr:suburb": "Paulo Afonso 4",
      "building": "yes"
      },
      "geometry": {
         "type": "Point",
         "coordinates": [-38.223194,-9.3864721]
      }
    },
    {
      "type": "Feature",
      "properties": { 
      "IBGE:COD_UNICO_ENDERECO": "27355103",
      "addr:housenumber": "992",
      "addr:postcode": "48607-235",
      "addr:street": "Avenida da Amizade",
      "addr:suburb": "Paulo Afonso 4",
      "building": "yes"
      },
      "geometry": {
         "type": "Point",
         "coordinates": [-38.221929,-9.3868921]
      }
    },
    {
      "type": "Feature",
      "properties": { 
      "IBGE:COD_UNICO_ENDERECO": "27355399",
      "addr:housenumber": "7",
      "addr:postcode": "48606-500",
      "addr:suburb": "Paulo Afonso 4",
      "building": "yes",
      "name": "Oficina Automotiva Stopcar do Peba",
      "shop": "car_repair"
      },
      "geometry": {
         "type": "Point",
         "coordinates": [-38.2248416,-9.3767315]
      }
    },
    {
      "type": "Feature",
      "properties": { 
      "IBGE:COD_UNICO_ENDERECO": "27355389",
      "addr:housenumber": "12",
      "addr:postcode": "48606-500",
      "addr:suburb": "Paulo Afonso 4",
      "disused:building": "yes",
      "disused:shop": "gas",
      "old_name": "Venda de Botijão de Gás Fechada"
      },
      "geometry": {
         "type": "Point",
         "coordinates": [-38.2210445,-9.3757594]
      }
    },
    {
      "type": "Feature",
      "properties": { 
      "IBGE:COD_UNICO_ENDERECO": "27355162",
      "addr:housenumber": "53",
      "addr:postcode": "48607-285",
      "addr:street": "Rua das Acácias",
      "addr:suburb": "Paulo Afonso 4",
      "building": "yes"
      },
      "geometry": {
         "type": "Point",
         "coordinates": [-38.2193492,-9.3892454]
      }
    },
    {
      "type": "Feature",
      "properties": { 
      "IBGE:COD_UNICO_ENDERECO": "27355373",
      "addr:housenumber": "3",
      "addr:postcode": "48606-500",
      "addr:street": "Avenida Maranhão",
      "addr:suburb": "Paulo Afonso 4",
      "building": "yes",
      "name": "Imagem Produções Eventos"
      },
      "geometry": {
         "type": "Point",
         "coordinates": [-38.223014,-9.3751223]
      }
    },
    {
      "type": "Feature",
      "properties": { 
      "IBGE:COD_UNICO_ENDERECO": "27355230",
      "addr:housenumber": "356",
      "addr:postcode": "48607-150",
      "addr:street": "Rua Recife",
      "addr:suburb": "Paulo Afonso 4",
      "building": "yes"
      },
      "geometry": {
         "type": "Point",
         "coordinates": [-38.216867,-9.3880848]
      }
    },
    {
      "type": "Feature",
      "properties": { 
      "IBGE:COD_UNICO_ENDERECO": "191716456",
      "addr:housenumber": "146",
      "addr:postcode": "48607-275",
      "addr:street": "Rua Crato",
      "addr:suburb": "Paulo Afonso 4",
      "addr:unit": "Casa 5",
      "building": "construction"
      },
      "geometry": {
         "type": "Point",
         "coordinates": [-38.2216939,-9.3864577]
      }
    },
    {
      "type": "Feature",
      "properties": { 
      "IBGE:COD_UNICO_ENDERECO": "27355180",
      "addr:housenumber": "40",
      "addr:postcode": "48607-285",
      "addr:street": "Rua das Acácias",
      "addr:suburb": "Paulo Afonso 4",
      "building": "yes"
      },
      "geometry": {
         "type": "Point",
         "coordinates": [-38.219213,-9.3889673]
      }
    },
    {
      "type": "Feature",
      "properties": { 
      "IBGE:COD_UNICO_ENDERECO": "27355155",
      "addr:housenumber": "13",
      "addr:postcode": "48607-285",
      "addr:street": "Rua das Acácias",
      "addr:suburb": "Paulo Afonso 4",
      "building": "yes"
      },
      "geometry": {
         "type": "Point",
         "coordinates": [-38.2194473,-9.3887543]
      }
    },
    {
      "type": "Feature",
      "properties": { 
      "IBGE:COD_UNICO_ENDERECO": "27355200",
      "addr:housenumber": "18",
      "addr:postcode": "48607-262",
      "addr:street": "Rua Garanhuns",
      "addr:suburb": "Paulo Afonso 4",
      "building": "yes"
      },
      "geometry": {
         "type": "Point",
         "coordinates": [-38.2183742,-9.3886851]
      }
    },
    {
      "type": "Feature",
      "properties": { 
      "IBGE:COD_UNICO_ENDERECO": "27421455",
      "addr:housenumber": "52",
      "addr:postcode": "48607-330",
      "addr:street": "Rua Alagoas",
      "addr:suburb": "Paulo Afonso 4",
      "building": "yes"
      },
      "geometry": {
         "type": "Point",
         "coordinates": [-38.2229016,-9.3862975]
      }
    },
    {
      "type": "Feature",
      "properties": { 
      "IBGE:COD_UNICO_ENDERECO": "223252460",
      "addr:housenumber": "102",
      "addr:postcode": "48607-330",
      "addr:street": "Rua Alagoas",
      "addr:suburb": "Paulo Afonso 4",
      "building": "construction"
      },
      "geometry": {
         "type": "Point",
         "coordinates": [-38.223351,-9.3865659]
      }
    },
    {
      "type": "Feature",
      "properties": { 
      "IBGE:COD_UNICO_ENDERECO": "27355286",
      "addr:housenumber": "106",
      "addr:postcode": "48607-245",
      "addr:street": "Rua da Consolação",
      "addr:suburb": "Paulo Afonso 4",
      "building": "yes"
      },
      "geometry": {
         "type": "Point",
         "coordinates": [-38.2144329,-9.3834454]
      }
    },
    {
      "type": "Feature",
      "properties": { 
      "IBGE:COD_UNICO_ENDERECO": "27355192",
      "addr:housenumber": "15",
      "addr:postcode": "48607-262",
      "addr:street": "Rua Garanhuns",
      "addr:suburb": "Paulo Afonso 4",
      "building": "yes"
      },
      "geometry": {
         "type": "Point",
         "coordinates": [-38.2185122,-9.3886908]
      }
    },
    {
      "type": "Feature",
      "properties": { 
      "IBGE:COD_UNICO_ENDERECO": "27355248",
      "addr:housenumber": "173",
      "addr:postcode": "48607-000",
      "addr:street": "Avenida Marcondes Ferraz",
      "addr:suburb": "Paulo Afonso 4",
      "building": "yes"
      },
      "geometry": {
         "type": "Point",
         "coordinates": [-38.2174518,-9.3897412]
      }
    },
    {
      "type": "Feature",
      "properties": { 
      "IBGE:COD_UNICO_ENDERECO": "27355117",
      "addr:housenumber": "201",
      "addr:postcode": "48607-290",
      "addr:street": "Rua Fortaleza",
      "addr:suburb": "Paulo Afonso 4",
      "building": "yes"
      },
      "geometry": {
         "type": "Point",
         "coordinates": [-38.219846,-9.3889098]
      }
    },
    {
      "type": "Feature",
      "properties": { 
      "IBGE:COD_UNICO_ENDERECO": "27355138",
      "addr:housenumber": "109",
      "addr:postcode": "48607-290",
      "addr:street": "Rua Fortaleza",
      "addr:suburb": "Paulo Afonso 4",
      "building": "yes"
      },
      "geometry": {
         "type": "Point",
         "coordinates": [-38.2203193,-9.3872274]
      }
    },
    {
      "type": "Feature",
      "properties": { 
      "IBGE:COD_UNICO_ENDERECO": "191717096",
      "addr:housenumber": "1225",
      "addr:postcode": "48606-500",
      "addr:street": "Avenida Maranhão",
      "addr:suburb": "Paulo Afonso 4",
      "addr:unit": "Casa 2",
      "building": "yes",
      "fixme": "Verificar coordenadas",
      "note": "Muito afastado da face: 118m 0500-0037P-19-2"
      },
      "geometry": {
         "type": "Point",
         "coordinates": [-38.219142300171,-9.3740215613881]
      }
    },
    {
      "type": "Feature",
      "properties": { 
      "IBGE:COD_UNICO_ENDERECO": "27355275",
      "addr:housenumber": "239",
      "addr:postcode": "48606-510",
      "addr:street": "Rua Caxias",
      "addr:suburb": "Paulo Afonso 4",
      "building": "yes"
      },
      "geometry": {
         "type": "Point",
         "coordinates": [-38.2145788,-9.3820425]
      }
    },
    {
      "type": "Feature",
      "properties": { 
      "IBGE:COD_UNICO_ENDERECO": "27355449",
      "addr:housenumber": "875",
      "addr:postcode": "48606-500",
      "addr:street": "Avenida Maranhão",
      "addr:suburb": "Paulo Afonso 4",
      "building": "yes"
      },
      "geometry": {
         "type": "Point",
         "coordinates": [-38.2132897,-9.3826503]
      }
    },
    {
      "type": "Feature",
      "properties": { 
      "IBGE:COD_UNICO_ENDERECO": "191716941",
      "addr:housenumber": "905",
      "addr:postcode": "48606-500",
      "addr:suburb": "Paulo Afonso 4",
      "addr:unit": "Loja",
      "building": "yes",
      "name": "PA Pré-Moldados"
      },
      "geometry": {
         "type": "Point",
         "coordinates": [-38.2245346,-9.3763517]
      }
    },
    {
      "type": "Feature",
      "properties": { 
      "IBGE:COD_UNICO_ENDERECO": "27355250",
      "addr:housenumber": "113",
      "addr:postcode": "48607-000",
      "addr:street": "Avenida Marcondes Ferraz",
      "addr:suburb": "Paulo Afonso 4",
      "building": "yes"
      },
      "geometry": {
         "type": "Point",
         "coordinates": [-38.2179566,-9.3897698]
      }
    },
    {
      "type": "Feature",
      "properties": { 
      "IBGE:COD_UNICO_ENDERECO": "27355150",
      "addr:housenumber": "6",
      "addr:postcode": "48607-285",
      "addr:street": "Rua das Acácias",
      "addr:suburb": "Paulo Afonso 4",
      "building": "yes"
      },
      "geometry": {
         "type": "Point",
         "coordinates": [-38.2195513,-9.388412]
      }
    },
    {
      "type": "Feature",
      "properties": { 
      "IBGE:COD_UNICO_ENDERECO": "27355095",
      "addr:housenumber": "894",
      "addr:postcode": "48607-235",
      "addr:street": "Avenida da Amizade",
      "addr:suburb": "Paulo Afonso 4",
      "building": "construction"
      },
      "geometry": {
         "type": "Point",
         "coordinates": [-38.2215102,-9.387554]
      }
    },
    {
      "type": "Feature",
      "properties": { 
      "IBGE:COD_UNICO_ENDERECO": "27355172",
      "addr:housenumber": "24",
      "addr:postcode": "48607-150",
      "addr:street": "Rua Recife",
      "addr:suburb": "Paulo Afonso 4",
      "building": "yes"
      },
      "geometry": {
         "type": "Point",
         "coordinates": [-38.2193335,-9.3884804]
      }
    },
    {
      "type": "Feature",
      "properties": { 
      "IBGE:COD_UNICO_ENDERECO": "191717006",
      "addr:housenumber": "98",
      "addr:postcode": "48606-520",
      "addr:street": "Rua Arari",
      "addr:suburb": "Paulo Afonso 4",
      "addr:unit": "Casa A",
      "building": "yes"
      },
      "geometry": {
         "type": "Point",
         "coordinates": [-38.2140406,-9.3820695]
      }
    },
    {
      "type": "Feature",
      "properties": { 
      "IBGE:COD_UNICO_ENDERECO": "27355141",
      "addr:housenumber": "187",
      "addr:postcode": "48607-285",
      "addr:street": "Rua das Acácias",
      "addr:suburb": "Paulo Afonso 4",
      "building": "yes"
      },
      "geometry": {
         "type": "Point",
         "coordinates": [-38.219711,-9.3876923]
      }
    },
    {
      "type": "Feature",
      "properties": { 
      "IBGE:COD_UNICO_ENDERECO": "27355208;27355211",
      "addr:housenumber": "5",
      "addr:postcode": "48607-270",
      "addr:street": "Rua Pesqueira",
      "addr:suburb": "Paulo Afonso 4",
      "building": "yes"
      },
      "geometry": {
         "type": "Point",
         "coordinates": [-38.21871,-9.3892475]
      }
    },
    {
      "type": "Feature",
      "properties": { 
      "IBGE:COD_UNICO_ENDERECO": "27355262",
      "addr:housenumber": "16",
      "addr:postcode": "48606-500",
      "addr:street": "Avenida Maranhão",
      "addr:suburb": "Paulo Afonso 4",
      "building": "yes"
      },
      "geometry": {
         "type": "Point",
         "coordinates": [-38.209981345962,-9.3887357000032]
      }
    },
    {
      "type": "Feature",
      "properties": { 
      "IBGE:COD_UNICO_ENDERECO": "27355176",
      "addr:housenumber": "111",
      "addr:postcode": "48607-300",
      "addr:street": "Rua Angelim",
      "addr:suburb": "Paulo Afonso 4",
      "building": "yes"
      },
      "geometry": {
         "type": "Point",
         "coordinates": [-38.2183047,-9.3882429]
      }
    },
    {
      "type": "Feature",
      "properties": { 
      "IBGE:COD_UNICO_ENDERECO": "191716963",
      "addr:housenumber": "69",
      "addr:postcode": "48606-520",
      "addr:street": "Rua Arari",
      "addr:suburb": "Paulo Afonso 4",
      "addr:unit": "Casa A",
      "building": "construction"
      },
      "geometry": {
         "type": "Point",
         "coordinates": [-38.2139962,-9.3823588]
      }
    },
    {
      "type": "Feature",
      "properties": { 
      "IBGE:COD_UNICO_ENDERECO": "27355232",
      "addr:housenumber": "428",
      "addr:postcode": "48607-150",
      "addr:street": "Rua Recife",
      "addr:suburb": "Paulo Afonso 4",
      "building": "yes"
      },
      "geometry": {
         "type": "Point",
         "coordinates": [-38.2161386,-9.3882144]
      }
    },
    {
      "type": "Feature",
      "properties": { 
      "IBGE:COD_UNICO_ENDERECO": "27355118",
      "addr:housenumber": "199",
      "addr:postcode": "48607-290",
      "addr:street": "Rua Fortaleza",
      "addr:suburb": "Paulo Afonso 4",
      "addr:unit": "Casa A",
      "building": "yes"
      },
      "geometry": {
         "type": "Point",
         "coordinates": [-38.2197211,-9.3891329]
      }
    },
    {
      "type": "Feature",
      "properties": { 
      "IBGE:COD_UNICO_ENDERECO": "27355277",
      "addr:housenumber": "195",
      "addr:postcode": "48606-510",
      "addr:street": "Rua Caxias",
      "addr:suburb": "Paulo Afonso 4",
      "building": "yes"
      },
      "geometry": {
         "type": "Point",
         "coordinates": [-38.2145418,-9.3823616]
      }
    },
    {
      "type": "Feature",
      "properties": { 
      "IBGE:COD_UNICO_ENDERECO": "27355206;27355215",
      "addr:housenumber": "7",
      "addr:postcode": "48607-270",
      "addr:street": "Rua Pesqueira",
      "addr:suburb": "Paulo Afonso 4",
      "building": "yes"
      },
      "geometry": {
         "type": "Point",
         "coordinates": [-38.2186787,-9.3892454]
      }
    },
    {
      "type": "Feature",
      "properties": { 
      "IBGE:COD_UNICO_ENDERECO": "27355197",
      "addr:housenumber": "14",
      "addr:postcode": "48607-262",
      "addr:street": "Rua Garanhuns",
      "addr:suburb": "Paulo Afonso 4",
      "building": "yes"
      },
      "geometry": {
         "type": "Point",
         "coordinates": [-38.218492,-9.3886899]
      }
    },
    {
      "type": "Feature",
      "properties": { 
      "IBGE:COD_UNICO_ENDERECO": "27355421",
      "addr:housenumber": "69",
      "addr:postcode": "48606-520",
      "addr:street": "Rua Arari",
      "addr:suburb": "Paulo Afonso 4",
      "building": "yes"
      },
      "geometry": {
         "type": "Point",
         "coordinates": [-38.2140025,-9.3823513]
      }
    },
    {
      "type": "Feature",
      "properties": { 
      "IBGE:COD_UNICO_ENDERECO": "27355486",
      "addr:housenumber": "1158",
      "addr:postcode": "48606-500",
      "addr:street": "Avenida Maranhão",
      "addr:suburb": "Paulo Afonso 4",
      "building": "yes",
      "name": "Fundação de Amparo A Criança e Adolescente"
      },
      "geometry": {
         "type": "Point",
         "coordinates": [-38.2146786,-9.3806009]
      }
    },
    {
      "type": "Feature",
      "properties": { 
      "IBGE:COD_UNICO_ENDERECO": "191716452",
      "addr:housenumber": "146",
      "addr:postcode": "48607-275",
      "addr:street": "Rua Crato",
      "addr:suburb": "Paulo Afonso 4",
      "addr:unit": "Casa 7",
      "building": "yes"
      },
      "geometry": {
         "type": "Point",
         "coordinates": [-38.221697407482,-9.3864584951224]
      }
    },
    {
      "type": "Feature",
      "properties": { 
      "IBGE:COD_UNICO_ENDERECO": "27355169",
      "addr:housenumber": "26",
      "addr:postcode": "48607-150",
      "addr:street": "Praça Doze de Agosto",
      "addr:suburb": "Paulo Afonso 4",
      "building": "yes"
      },
      "geometry": {
         "type": "Point",
         "coordinates": [-38.2191002,-9.3871305]
      }
    },
    {
      "type": "Feature",
      "properties": { 
      "IBGE:COD_UNICO_ENDERECO": "27355167",
      "addr:housenumber": "5 Lado",
      "addr:postcode": "48607-270",
      "addr:street": "Rua Pesqueira",
      "addr:suburb": "Paulo Afonso 4",
      "building": "yes",
      "fixme": "Verificar coordenadas",
      "note": "Fora da área de projeção da face 0500-0037P-4-4"
      },
      "geometry": {
         "type": "Point",
         "coordinates": [-38.219598,-9.389228]
      }
    },
    {
      "type": "Feature",
      "properties": { 
      "IBGE:COD_UNICO_ENDERECO": "191716891",
      "addr:housenumber": "29",
      "addr:postcode": "48606-500",
      "addr:suburb": "Paulo Afonso 4",
      "building": "yes"
      },
      "geometry": {
         "type": "Point",
         "coordinates": [-38.2220904,-9.3758845]
      }
    },
    {
      "type": "Feature",
      "properties": { 
      "IBGE:COD_UNICO_ENDERECO": "27355260",
      "addr:housenumber": "79",
      "addr:postcode": "48606-500",
      "addr:street": "Avenida Maranhão",
      "addr:suburb": "Paulo Afonso 4",
      "building": "yes",
      "government": "environment",
      "name": "Ibama Escritório Regional de Paulo Afons",
      "office": "government"
      },
      "geometry": {
         "type": "Point",
         "coordinates": [-38.2099932,-9.388396]
      }
    },
    {
      "type": "Feature",
      "properties": { 
      "IBGE:COD_UNICO_ENDERECO": "27355281",
      "addr:housenumber": "129",
      "addr:postcode": "48606-510",
      "addr:street": "Rua Caxias",
      "addr:suburb": "Paulo Afonso 4",
      "building": "yes"
      },
      "geometry": {
         "type": "Point",
         "coordinates": [-38.2141892,-9.382939]
      }
    },
    {
      "type": "Feature",
      "properties": { 
      "IBGE:COD_UNICO_ENDERECO": "27355195",
      "addr:housenumber": "12",
      "addr:postcode": "48607-262",
      "addr:street": "Rua Garanhuns",
      "addr:suburb": "Paulo Afonso 4",
      "building": "yes"
      },
      "geometry": {
         "type": "Point",
         "coordinates": [-38.2185652,-9.3886929]
      }
    },
    {
      "type": "Feature",
      "properties": { 
      "IBGE:COD_UNICO_ENDERECO": "27355375",
      "addr:housenumber": "2225 A",
      "addr:postcode": "48606-500",
      "addr:street": "Avenida Maranhão",
      "addr:suburb": "Paulo Afonso 4",
      "building": "yes"
      },
      "geometry": {
         "type": "Point",
         "coordinates": [-38.2221464,-9.3750037]
      }
    },
    {
      "type": "Feature",
      "properties": { 
      "IBGE:COD_UNICO_ENDERECO": "27355119-27355120",
      "addr:housenumber": "23",
      "addr:postcode": "48607-290",
      "addr:street": "Rua Fortaleza",
      "addr:suburb": "Paulo Afonso 4",
      "building": "yes"
      },
      "geometry": {
         "type": "Point",
         "coordinates": [-38.2196425,-9.3893422]
      }
    },
    {
      "type": "Feature",
      "properties": { 
      "IBGE:COD_UNICO_ENDERECO": "27355245",
      "addr:housenumber": "255",
      "addr:postcode": "48607-000",
      "addr:street": "Avenida Marcondes Ferraz",
      "addr:suburb": "Paulo Afonso 4",
      "building": "yes"
      },
      "geometry": {
         "type": "Point",
         "coordinates": [-38.2167127,-9.3896995]
      }
    },
    {
      "type": "Feature",
      "properties": { 
      "IBGE:COD_UNICO_ENDERECO": "191716479",
      "addr:housenumber": "199",
      "addr:postcode": "48607-290",
      "addr:street": "Rua Fortaleza",
      "addr:suburb": "Paulo Afonso 4",
      "addr:unit": "Casa B",
      "building": "yes"
      },
      "geometry": {
         "type": "Point",
         "coordinates": [-38.219725887066,-9.389125522981]
      }
    },
    {
      "type": "Feature",
      "properties": { 
      "IBGE:COD_UNICO_ENDERECO": "27355489",
      "addr:housenumber": "24",
      "addr:postcode": "48606-500",
      "addr:street": "Avenida Maranhão",
      "addr:suburb": "Paulo Afonso 4",
      "building": "yes",
      "name": "Piscicultura Aat International"
      },
      "geometry": {
         "type": "Point",
         "coordinates": [-38.2186384,-9.3758424]
      }
    },
    {
      "type": "Feature",
      "properties": { 
      "IBGE:COD_UNICO_ENDERECO": "191716527",
      "addr:housenumber": "2",
      "addr:postcode": "48607-285",
      "addr:street": "Rua das Acácias",
      "addr:suburb": "Paulo Afonso 4",
      "building": "yes"
      },
      "geometry": {
         "type": "Point",
         "coordinates": [-38.2194654,-9.3886389]
      }
    },
    {
      "type": "Feature",
      "properties": { 
      "IBGE:COD_UNICO_ENDERECO": "27355249",
      "addr:housenumber": "145",
      "addr:postcode": "48607-000",
      "addr:street": "Avenida Marcondes Ferraz",
      "addr:suburb": "Paulo Afonso 4",
      "building": "yes"
      },
      "geometry": {
         "type": "Point",
         "coordinates": [-38.2177583,-9.3897586]
      }
    },
    {
      "type": "Feature",
      "properties": { 
      "IBGE:COD_UNICO_ENDERECO": "27355374",
      "addr:housenumber": "2275",
      "addr:postcode": "48606-500",
      "addr:street": "Avenida Maranhão",
      "addr:suburb": "Paulo Afonso 4",
      "building": "yes",
      "name": "Contato Vistorias Automotivas"
      },
      "geometry": {
         "type": "Point",
         "coordinates": [-38.2229207,-9.3751103]
      }
    },
    {
      "type": "Feature",
      "properties": { 
      "IBGE:COD_UNICO_ENDERECO": "27355241",
      "addr:housenumber": "345",
      "addr:postcode": "48607-000",
      "addr:street": "Avenida Marcondes Ferraz",
      "addr:suburb": "Paulo Afonso 4",
      "building": "yes"
      },
      "geometry": {
         "type": "Point",
         "coordinates": [-38.2157531,-9.3896452]
      }
    },
    {
      "type": "Feature",
      "properties": { 
      "IBGE:COD_UNICO_ENDERECO": "27355234",
      "addr:housenumber": "464",
      "addr:postcode": "48607-150",
      "addr:street": "Rua Recife",
      "addr:suburb": "Paulo Afonso 4",
      "building": "yes"
      },
      "geometry": {
         "type": "Point",
         "coordinates": [-38.2158397,-9.3884256]
      }
    },
    {
      "type": "Feature",
      "properties": { 
      "IBGE:COD_UNICO_ENDERECO": "27355439",
      "addr:housenumber": "973",
      "addr:postcode": "48606-500",
      "addr:street": "Avenida Maranhão",
      "addr:suburb": "Paulo Afonso 4",
      "building": "yes"
      },
      "geometry": {
         "type": "Point",
         "coordinates": [-38.2139328,-9.3819136]
      }
    },
    {
      "type": "Feature",
      "properties": { 
      "IBGE:COD_UNICO_ENDERECO": "27355254",
      "addr:housenumber": "379",
      "addr:postcode": "48607-000",
      "addr:street": "Avenida Marcondes Ferraz",
      "addr:suburb": "Paulo Afonso 4",
      "building": "yes"
      },
      "geometry": {
         "type": "Point",
         "coordinates": [-38.2155882,-9.3896359]
      }
    },
    {
      "type": "Feature",
      "properties": { 
      "IBGE:COD_UNICO_ENDERECO": "27355400",
      "addr:housenumber": "8",
      "addr:postcode": "48606-500",
      "addr:suburb": "Paulo Afonso 4",
      "building": "construction"
      },
      "geometry": {
         "type": "Point",
         "coordinates": [-38.2245443,-9.3765901]
      }
    },
    {
      "type": "Feature",
      "properties": { 
      "IBGE:COD_UNICO_ENDERECO": "27355450",
      "addr:housenumber": "38",
      "addr:postcode": "48606-510",
      "addr:street": "Rua Caxias",
      "addr:suburb": "Paulo Afonso 4",
      "building": "yes"
      },
      "geometry": {
         "type": "Point",
         "coordinates": [-38.2133864,-9.3827094]
      }
    },
    {
      "type": "Feature",
      "properties": { 
      "IBGE:COD_UNICO_ENDERECO": "27355482",
      "addr:housenumber": "6",
      "addr:postcode": "48606-500",
      "addr:street": "Avenida Maranhão",
      "addr:suburb": "Paulo Afonso 4",
      "building": "yes"
      },
      "geometry": {
         "type": "Point",
         "coordinates": [-38.2134306,-9.3813153]
      }
    },
    {
      "type": "Feature",
      "properties": { 
      "IBGE:COD_UNICO_ENDERECO": "27355398",
      "addr:housenumber": "6",
      "addr:postcode": "48606-500",
      "addr:suburb": "Paulo Afonso 4",
      "building": "yes",
      "name": "Primo Embalagens"
      },
      "geometry": {
         "type": "Point",
         "coordinates": [-38.2251324,-9.3768698]
      }
    },
    {
      "type": "Feature",
      "properties": { 
      "IBGE:COD_UNICO_ENDERECO": "191716594",
      "addr:housenumber": "20",
      "addr:postcode": "48607-270",
      "addr:street": "Rua Pesqueira",
      "addr:suburb": "Paulo Afonso 4",
      "building": "yes"
      },
      "geometry": {
         "type": "Point",
         "coordinates": [-38.2188846,-9.3894291]
      }
    },
    {
      "type": "Feature",
      "properties": { 
      "IBGE:COD_UNICO_ENDERECO": "27355239",
      "addr:housenumber": "356",
      "addr:postcode": "48607-150",
      "addr:street": "Rua Recife",
      "addr:suburb": "Paulo Afonso 4",
      "addr:unit": "Fundos",
      "building": "yes"
      },
      "geometry": {
         "type": "Point",
         "coordinates": [-38.2168691,-9.3881387]
      }
    },
    {
      "type": "Feature",
      "properties": { 
      "IBGE:COD_UNICO_ENDERECO": "27355273",
      "addr:housenumber": "299",
      "addr:postcode": "48606-510",
      "addr:street": "Rua Caxias",
      "addr:suburb": "Paulo Afonso 4",
      "addr:unit": "Fundos",
      "building": "yes"
      },
      "geometry": {
         "type": "Point",
         "coordinates": [-38.2143323,-9.3814167]
      }
    },
    {
      "type": "Feature",
      "properties": { 
      "IBGE:COD_UNICO_ENDERECO": "27355404",
      "addr:housenumber": "17",
      "addr:postcode": "48606-500",
      "addr:suburb": "Paulo Afonso 4",
      "building": "industrial",
      "man_made": "works",
      "name": "Fábrica de Placas de Gesso Vitória"
      },
      "geometry": {
         "type": "Point",
         "coordinates": [-38.224773,-9.3775465]
      }
    },
    {
      "type": "Feature",
      "properties": { 
      "IBGE:COD_UNICO_ENDERECO": "27355131",
      "addr:housenumber": "24",
      "addr:postcode": "48607-275",
      "addr:street": "Rua Crato",
      "addr:suburb": "Paulo Afonso 4",
      "building": "yes"
      },
      "geometry": {
         "type": "Point",
         "coordinates": [-38.2203798,-9.3867326]
      }
    },
    {
      "type": "Feature",
      "properties": { 
      "IBGE:COD_UNICO_ENDERECO": "27355371",
      "addr:housenumber": "2415",
      "addr:postcode": "48606-500",
      "addr:street": "Avenida Maranhão",
      "addr:suburb": "Paulo Afonso 4",
      "building": "yes",
      "name": "Fábrica Brilimpe"
      },
      "geometry": {
         "type": "Point",
         "coordinates": [-38.2237254,-9.3752183]
      }
    },
    {
      "type": "Feature",
      "properties": { 
      "IBGE:COD_UNICO_ENDERECO": "27355140",
      "addr:housenumber": "215",
      "addr:postcode": "48607-285",
      "addr:street": "Rua das Acácias",
      "addr:suburb": "Paulo Afonso 4",
      "building": "yes"
      },
      "geometry": {
         "type": "Point",
         "coordinates": [-38.2197122,-9.3874961]
      }
    },
    {
      "type": "Feature",
      "properties": { 
      "IBGE:COD_UNICO_ENDERECO": "27355442",
      "addr:housenumber": "947",
      "addr:postcode": "48606-500",
      "addr:street": "Avenida Maranhão",
      "addr:suburb": "Paulo Afonso 4",
      "building": "construction"
      },
      "geometry": {
         "type": "Point",
         "coordinates": [-38.2137593,-9.3821239]
      }
    },
    {
      "type": "Feature",
      "properties": { 
      "IBGE:COD_UNICO_ENDERECO": "27355394",
      "addr:housenumber": "7",
      "addr:postcode": "48606-500",
      "addr:suburb": "Paulo Afonso 4",
      "building": "yes",
      "craft": "carpenter",
      "name": "Versátil Marcenaria"
      },
      "geometry": {
         "type": "Point",
         "coordinates": [-38.2232941,-9.3760285]
      }
    },
    {
      "type": "Feature",
      "properties": { 
      "IBGE:COD_UNICO_ENDERECO": "27355265",
      "addr:housenumber": "53",
      "addr:postcode": "48606-500",
      "addr:suburb": "Paulo Afonso 4",
      "building": "yes",
      "name": "Cuturaria e Reforma"
      },
      "geometry": {
         "type": "Point",
         "coordinates": [-38.2200977,-9.3762484]
      }
    },
    {
      "type": "Feature",
      "properties": { 
      "IBGE:COD_UNICO_ENDERECO": "27355106",
      "addr:housenumber": "145",
      "addr:postcode": "48607-275",
      "addr:street": "Rua Crato",
      "addr:suburb": "Paulo Afonso 4",
      "building": "yes"
      },
      "geometry": {
         "type": "Point",
         "coordinates": [-38.2215188,-9.3863791]
      }
    },
    {
      "type": "Feature",
      "properties": { 
      "IBGE:COD_UNICO_ENDERECO": "27355174",
      "addr:housenumber": "106",
      "addr:postcode": "48607-150",
      "addr:street": "Rua Recife",
      "addr:suburb": "Paulo Afonso 4",
      "building": "yes"
      },
      "geometry": {
         "type": "Point",
         "coordinates": [-38.2189751,-9.3878417]
      }
    },
    {
      "type": "Feature",
      "properties": { 
      "IBGE:COD_UNICO_ENDERECO": "27355221",
      "addr:housenumber": "31",
      "addr:postcode": "48607-210",
      "addr:street": "Rua Engenheiro Marchetti",
      "addr:suburb": "Paulo Afonso 4",
      "building": "yes"
      },
      "geometry": {
         "type": "Point",
         "coordinates": [-38.2191243,-9.3897188]
      }
    },
    {
      "type": "Feature",
      "properties": { 
      "IBGE:COD_UNICO_ENDERECO": "27355161",
      "addr:housenumber": "16",
      "addr:postcode": "48607-285",
      "addr:street": "Rua das Acácias",
      "addr:suburb": "Paulo Afonso 4",
      "building": "yes"
      },
      "geometry": {
         "type": "Point",
         "coordinates": [-38.2194161,-9.3889501]
      }
    },
    {
      "type": "Feature",
      "properties": { 
      "IBGE:COD_UNICO_ENDERECO": "27355111",
      "addr:housenumber": "110",
      "addr:postcode": "48607-290",
      "addr:street": "Rua Fortaleza",
      "addr:suburb": "Paulo Afonso 4",
      "building": "yes"
      },
      "geometry": {
         "type": "Point",
         "coordinates": [-38.2205493,-9.3873164]
      }
    },
    {
      "type": "Feature",
      "properties": { 
      "IBGE:COD_UNICO_ENDERECO": "27355280",
      "addr:housenumber": "145",
      "addr:postcode": "48606-510",
      "addr:street": "Rua Caxias",
      "addr:suburb": "Paulo Afonso 4",
      "building": "yes"
      },
      "geometry": {
         "type": "Point",
         "coordinates": [-38.2142542,-9.3828876]
      }
    },
    {
      "type": "Feature",
      "properties": { 
      "IBGE:COD_UNICO_ENDERECO": "27355486",
      "addr:housenumber": "1158",
      "addr:postcode": "48606-500",
      "addr:street": "Avenida Maranhão",
      "addr:suburb": "Paulo Afonso 4",
      "building": "yes",
      "name": "Fundame Fundação de Assistencis Acriança e O Adolescente"
      },
      "geometry": {
         "type": "Point",
         "coordinates": [-38.21467035996,-9.3805972955181]
      }
    },
    {
      "type": "Feature",
      "properties": { 
      "IBGE:COD_UNICO_ENDERECO": "191717103",
      "addr:housenumber": "1201",
      "addr:postcode": "48606-500",
      "addr:street": "Avenida Maranhão",
      "addr:suburb": "Paulo Afonso 4",
      "building": "construction",
      "fixme": "Verificar coordenadas",
      "note": "Muito afastado da face: 53m 0500-0037P-19-2"
      },
      "geometry": {
         "type": "Point",
         "coordinates": [-38.219819,-9.374358]
      }
    },
    {
      "type": "Feature",
      "properties": { 
      "IBGE:COD_UNICO_ENDERECO": "27355107",
      "addr:housenumber": "119",
      "addr:postcode": "48607-275",
      "addr:street": "Rua Crato",
      "addr:suburb": "Paulo Afonso 4",
      "building": "yes"
      },
      "geometry": {
         "type": "Point",
         "coordinates": [-38.2211131,-9.3864945]
      }
    },
    {
      "type": "Feature",
      "properties": { 
      "IBGE:COD_UNICO_ENDERECO": "27355116",
      "addr:housenumber": "240",
      "addr:postcode": "48607-290",
      "addr:street": "Rua Fortaleza",
      "addr:suburb": "Paulo Afonso 4",
      "building": "yes"
      },
      "geometry": {
         "type": "Point",
         "coordinates": [-38.220323,-9.3884931]
      }
    },
    {
      "type": "Feature",
      "properties": { 
      "IBGE:COD_UNICO_ENDERECO": "191716937",
      "addr:housenumber": "905",
      "addr:postcode": "48606-500",
      "addr:suburb": "Paulo Afonso 4",
      "building": "yes"
      },
      "geometry": {
         "type": "Point",
         "coordinates": [-38.224548342282,-9.3763495579953]
      }
    },
    {
      "type": "Feature",
      "properties": { 
      "IBGE:COD_UNICO_ENDERECO": "27355428",
      "addr:housenumber": "160",
      "addr:postcode": "48606-510",
      "addr:street": "Rua Caxias",
      "addr:suburb": "Paulo Afonso 4",
      "building": "yes"
      },
      "geometry": {
         "type": "Point",
         "coordinates": [-38.2142733,-9.3825795]
      }
    },
    {
      "type": "Feature",
      "properties": { 
      "IBGE:COD_UNICO_ENDERECO": "27355220",
      "addr:housenumber": "23",
      "addr:postcode": "48607-210",
      "addr:street": "Rua Engenheiro Marchetti",
      "addr:suburb": "Paulo Afonso 4",
      "building": "yes"
      },
      "geometry": {
         "type": "Point",
         "coordinates": [-38.2191291,-9.3896632]
      }
    },
    {
      "type": "Feature",
      "properties": { 
      "IBGE:COD_UNICO_ENDERECO": "27355125",
      "addr:housenumber": "1047",
      "addr:postcode": "48607-235",
      "addr:street": "Avenida da Amizade",
      "addr:suburb": "Paulo Afonso 4",
      "building": "yes"
      },
      "geometry": {
         "type": "Point",
         "coordinates": [-38.2222809,-9.3862999]
      }
    },
    {
      "type": "Feature",
      "properties": { 
      "IBGE:COD_UNICO_ENDERECO": "27355139",
      "addr:housenumber": "243",
      "addr:postcode": "48607-285",
      "addr:street": "Rua das Acácias",
      "addr:suburb": "Paulo Afonso 4",
      "building": "yes"
      },
      "geometry": {
         "type": "Point",
         "coordinates": [-38.2197058,-9.3871587]
      }
    },
    {
      "type": "Feature",
      "properties": { 
      "IBGE:COD_UNICO_ENDERECO": "27355268",
      "addr:housenumber": "57",
      "addr:postcode": "48606-500",
      "addr:suburb": "Paulo Afonso 4",
      "building": "yes",
      "craft": "metal_construction",
      "name": "Serralheria Paulo Afonso"
      },
      "geometry": {
         "type": "Point",
         "coordinates": [-38.219766466938,-9.3766002276867]
      }
    },
    {
      "type": "Feature",
      "properties": { 
      "IBGE:COD_UNICO_ENDERECO": "27355168",
      "addr:housenumber": "10",
      "addr:postcode": "48607-150",
      "addr:street": "Praça Doze de Agosto",
      "addr:suburb": "Paulo Afonso 4",
      "building": "yes"
      },
      "geometry": {
         "type": "Point",
         "coordinates": [-38.219405,-9.3870149]
      }
    },
    {
      "type": "Feature",
      "properties": { 
      "IBGE:COD_UNICO_ENDERECO": "191716893",
      "addr:housenumber": "18",
      "addr:postcode": "48606-500",
      "addr:suburb": "Paulo Afonso 4",
      "building": "yes",
      "name": "Polifix Sá"
      },
      "geometry": {
         "type": "Point",
         "coordinates": [-38.2195266,-9.3765611]
      }
    },
    {
      "type": "Feature",
      "properties": { 
      "IBGE:COD_UNICO_ENDERECO": "191716442",
      "addr:housenumber": "932",
      "addr:postcode": "48607-235",
      "addr:street": "Avenida da Amizade",
      "addr:suburb": "Paulo Afonso 4",
      "building": "yes"
      },
      "geometry": {
         "type": "Point",
         "coordinates": [-38.2216849,-9.3872849]
      }
    },
    {
      "type": "Feature",
      "properties": { 
      "IBGE:COD_UNICO_ENDERECO": "191717055",
      "addr:housenumber": "1230",
      "addr:postcode": "48606-500",
      "addr:street": "Avenida Maranhão",
      "addr:suburb": "Paulo Afonso 4",
      "building": "construction",
      "fixme": "Verificar coordenadas",
      "note": "Muito afastado da face: 93m 0500-0037P-19-2"
      },
      "geometry": {
         "type": "Point",
         "coordinates": [-38.218324,-9.37498]
      }
    },
    {
      "type": "Feature",
      "properties": { 
      "IBGE:COD_UNICO_ENDERECO": "191716571",
      "addr:housenumber": "9",
      "addr:postcode": "48607-285",
      "addr:street": "Rua das Acácias",
      "addr:suburb": "Paulo Afonso 4",
      "addr:unit": "Casa 9 A",
      "building": "yes"
      },
      "geometry": {
         "type": "Point",
         "coordinates": [-38.2192131,-9.3889664]
      }
    },
    {
      "type": "Feature",
      "properties": { 
      "IBGE:COD_UNICO_ENDERECO": "27355164",
      "addr:housenumber": "243",
      "addr:postcode": "48607-285",
      "addr:street": "Rua das Acácias",
      "addr:suburb": "Paulo Afonso 4",
      "addr:unit": "Fundos",
      "building": "yes"
      },
      "geometry": {
         "type": "Point",
         "coordinates": [-38.2197604,-9.3871577]
      }
    },
    {
      "type": "Feature",
      "properties": { 
      "IBGE:COD_UNICO_ENDERECO": "191716597;191716600",
      "addr:housenumber": "18",
      "addr:postcode": "48607-270",
      "addr:street": "Rua Pesqueira",
      "addr:suburb": "Paulo Afonso 4",
      "building": "garage",
      "description": "CNEFE 2022 Garagem"
      },
      "geometry": {
         "type": "Point",
         "coordinates": [-38.2188449,-9.3894256]
      }
    },
    {
      "type": "Feature",
      "properties": { 
      "IBGE:COD_UNICO_ENDERECO": "27355097;191716419;191716422;191716425;191716427;191716429;191716431;191716433;191716435;191716440",
      "addr:flats": "101-204",
      "addr:housenumber": "920",
      "addr:postcode": "48607-235",
      "addr:street": "Avenida da Amizade",
      "addr:suburb": "Paulo Afonso 4",
      "building": "yes",
      "building:flats": "8",
      "building:levels": "2"
      },
      "geometry": {
         "type": "Point",
         "coordinates": [-38.2216424,-9.3873495]
      }
    },
    {
      "type": "Feature",
      "properties": { 
      "IBGE:COD_UNICO_ENDERECO": "27355143",
      "addr:housenumber": "133 Frente",
      "addr:postcode": "48607-285",
      "addr:street": "Rua das Acácias",
      "addr:suburb": "Paulo Afonso 4",
      "building": "yes"
      },
      "geometry": {
         "type": "Point",
         "coordinates": [-38.2196293,-9.388233]
      }
    },
    {
      "type": "Feature",
      "properties": { 
      "IBGE:COD_UNICO_ENDERECO": "27355203",
      "addr:housenumber": "12",
      "addr:postcode": "48607-270",
      "addr:street": "Rua Pesqueira",
      "addr:suburb": "Paulo Afonso 4",
      "building": "yes"
      },
      "geometry": {
         "type": "Point",
         "coordinates": [-38.2182107,-9.3892144]
      }
    },
    {
      "type": "Feature",
      "properties": { 
      "IBGE:COD_UNICO_ENDERECO": "27355100",
      "addr:housenumber": "962",
      "addr:postcode": "48607-235",
      "addr:street": "Avenida da Amizade",
      "addr:suburb": "Paulo Afonso 4",
      "building": "yes"
      },
      "geometry": {
         "type": "Point",
         "coordinates": [-38.2217854,-9.3871319]
      }
    },
    {
      "type": "Feature",
      "properties": { 
      "IBGE:COD_UNICO_ENDERECO": "27355201",
      "addr:housenumber": "20",
      "addr:postcode": "48607-262",
      "addr:street": "Rua Garanhuns",
      "addr:suburb": "Paulo Afonso 4",
      "building": "yes"
      },
      "geometry": {
         "type": "Point",
         "coordinates": [-38.2182735,-9.3886491]
      }
    },
    {
      "type": "Feature",
      "properties": { 
      "IBGE:COD_UNICO_ENDERECO": "27355121",
      "addr:housenumber": "22",
      "addr:postcode": "48607-290",
      "addr:street": "Rua Fortaleza",
      "addr:suburb": "Paulo Afonso 4",
      "building": "yes"
      },
      "geometry": {
         "type": "Point",
         "coordinates": [-38.2196999,-9.3891918]
      }
    },
    {
      "type": "Feature",
      "properties": { 
      "IBGE:COD_UNICO_ENDERECO": "27355160",
      "addr:housenumber": "41 Térreo",
      "addr:postcode": "48607-285",
      "addr:street": "Rua das Acácias",
      "addr:suburb": "Paulo Afonso 4",
      "building": "yes"
      },
      "geometry": {
         "type": "Point",
         "coordinates": [-38.219414,-9.3889636]
      }
    },
    {
      "type": "Feature",
      "properties": { 
      "IBGE:COD_UNICO_ENDERECO": "191716437",
      "addr:housenumber": "920 Andar Térreo",
      "addr:postcode": "48607-235",
      "addr:street": "Avenida da Amizade",
      "addr:suburb": "Paulo Afonso 4",
      "building": "yes",
      "fixme": "Verificar coordenadas",
      "healthcare": "yes",
      "name": "Clismed",
      "note": "Muito afastado da face: 57m 0500-0037P-1-1"
      },
      "geometry": {
         "type": "Point",
         "coordinates": [-38.221204,-9.387177]
      }
    },
    {
      "type": "Feature",
      "properties": { 
      "IBGE:COD_UNICO_ENDERECO": "191717062",
      "addr:housenumber": "13",
      "addr:postcode": "48606-500",
      "addr:street": "Avenida Maranhão",
      "addr:suburb": "Paulo Afonso 4",
      "building": "construction",
      "fixme": "Verificar coordenadas",
      "note": "Muito afastado da face: 74m 0500-0037P-19-2"
      },
      "geometry": {
         "type": "Point",
         "coordinates": [-38.218861,-9.374708]
      }
    },
    {
      "type": "Feature",
      "properties": { 
      "IBGE:COD_UNICO_ENDERECO": "27355188",
      "addr:housenumber": "5",
      "addr:postcode": "48607-262",
      "addr:street": "Rua Garanhuns",
      "addr:suburb": "Paulo Afonso 4",
      "building": "yes"
      },
      "geometry": {
         "type": "Point",
         "coordinates": [-38.2188418,-9.3887099]
      }
    },
    {
      "type": "Feature",
      "properties": { 
      "IBGE:COD_UNICO_ENDERECO": "27355387",
      "addr:housenumber": "2225 C",
      "addr:postcode": "48606-500",
      "addr:street": "Avenida Maranhão",
      "addr:suburb": "Paulo Afonso 4",
      "building": "yes"
      },
      "geometry": {
         "type": "Point",
         "coordinates": [-38.2221563,-9.3750053]
      }
    },
    {
      "type": "Feature",
      "properties": { 
      "IBGE:COD_UNICO_ENDERECO": "27355194",
      "addr:housenumber": "10",
      "addr:postcode": "48607-262",
      "addr:street": "Rua Garanhuns",
      "addr:suburb": "Paulo Afonso 4",
      "building": "yes"
      },
      "geometry": {
         "type": "Point",
         "coordinates": [-38.2187169,-9.3887003]
      }
    },
    {
      "type": "Feature",
      "properties": { 
      "IBGE:COD_UNICO_ENDERECO": "27355226",
      "addr:housenumber": "232",
      "addr:postcode": "48607-150",
      "addr:street": "Rua Recife",
      "addr:suburb": "Paulo Afonso 4",
      "building": "yes"
      },
      "geometry": {
         "type": "Point",
         "coordinates": [-38.2179336,-9.3877347]
      }
    },
    {
      "type": "Feature",
      "properties": { 
      "IBGE:COD_UNICO_ENDERECO": "27355186",
      "addr:housenumber": "2",
      "addr:postcode": "48607-262",
      "addr:street": "Rua Garanhuns",
      "addr:suburb": "Paulo Afonso 4",
      "building": "yes"
      },
      "geometry": {
         "type": "Point",
         "coordinates": [-38.2190474,-9.388724]
      }
    },
    {
      "type": "Feature",
      "properties": { 
      "IBGE:COD_UNICO_ENDERECO": "27355199",
      "addr:housenumber": "16 Térreo",
      "addr:postcode": "48607-262",
      "addr:street": "Rua Garanhuns",
      "addr:suburb": "Paulo Afonso 4",
      "building": "yes"
      },
      "geometry": {
         "type": "Point",
         "coordinates": [-38.2184317,-9.3886875]
      }
    },
    {
      "type": "Feature",
      "properties": { 
      "IBGE:COD_UNICO_ENDERECO": "27355178;191716559",
      "addr:housenumber": "63",
      "addr:postcode": "48607-262",
      "addr:street": "Rua Garanhuns",
      "addr:suburb": "Paulo Afonso 4",
      "building": "yes"
      },
      "geometry": {
         "type": "Point",
         "coordinates": [-38.2187694,-9.3885498]
      }
    },
    {
      "type": "Feature",
      "properties": { 
      "IBGE:COD_UNICO_ENDERECO": "27355196",
      "addr:housenumber": "13",
      "addr:postcode": "48607-262",
      "addr:street": "Rua Garanhuns",
      "addr:suburb": "Paulo Afonso 4",
      "building": "yes"
      },
      "geometry": {
         "type": "Point",
         "coordinates": [-38.2185218,-9.3886911]
      }
    },
    {
      "type": "Feature",
      "properties": { 
      "IBGE:COD_UNICO_ENDERECO": "27355223",
      "addr:housenumber": "1",
      "addr:postcode": "48607-270",
      "addr:street": "Rua Pesqueira",
      "addr:suburb": "Paulo Afonso 4",
      "addr:unit": "Garagem 100",
      "building": "yes"
      },
      "geometry": {
         "type": "Point",
         "coordinates": [-38.2181407,-9.3893631]
      }
    },
    {
      "type": "Feature",
      "properties": { 
      "IBGE:COD_UNICO_ENDERECO": "27355157;191716521",
      "addr:housenumber": "5",
      "addr:postcode": "48607-285",
      "addr:street": "Rua das Acácias",
      "addr:suburb": "Paulo Afonso 4",
      "building": "yes"
      },
      "geometry": {
         "type": "Point",
         "coordinates": [-38.2194599,-9.3886745]
      }
    },
    {
      "type": "Feature",
      "properties": { 
      "IBGE:COD_UNICO_ENDERECO": "191716563",
      "addr:housenumber": "87",
      "addr:postcode": "48607-262",
      "addr:street": "Rua Garanhuns",
      "addr:suburb": "Paulo Afonso 4",
      "building": "yes",
      "name": "Paiacan Team"
      },
      "geometry": {
         "type": "Point",
         "coordinates": [-38.21856,-9.3885385]
      }
    },
    {
      "type": "Feature",
      "properties": { 
      "IBGE:COD_UNICO_ENDERECO": "27355435",
      "addr:housenumber": "1015",
      "addr:postcode": "48606-500",
      "addr:street": "Avenida Maranhão",
      "addr:suburb": "Paulo Afonso 4",
      "building": "yes"
      },
      "geometry": {
         "type": "Point",
         "coordinates": [-38.2141582,-9.3816404]
      }
    },
    {
      "type": "Feature",
      "properties": { 
      "IBGE:COD_UNICO_ENDERECO": "27355187",
      "addr:housenumber": "4",
      "addr:postcode": "48607-262",
      "addr:street": "Rua Garanhuns",
      "addr:suburb": "Paulo Afonso 4",
      "building": "yes"
      },
      "geometry": {
         "type": "Point",
         "coordinates": [-38.2188842,-9.3887132]
      }
    },
    {
      "type": "Feature",
      "properties": { 
      "IBGE:COD_UNICO_ENDERECO": "27355191",
      "addr:housenumber": "11",
      "addr:postcode": "48607-262",
      "addr:street": "Rua Garanhuns",
      "addr:suburb": "Paulo Afonso 4",
      "building": "yes"
      },
      "geometry": {
         "type": "Point",
         "coordinates": [-38.2186262,-9.3886954]
      }
    },
    {
      "type": "Feature",
      "properties": { 
      "IBGE:COD_UNICO_ENDERECO": "27355189",
      "addr:housenumber": "6",
      "addr:postcode": "48607-262",
      "addr:street": "Rua Garanhuns",
      "addr:suburb": "Paulo Afonso 4",
      "building": "yes"
      },
      "geometry": {
         "type": "Point",
         "coordinates": [-38.2187734,-9.3887046]
      }
    },
    {
      "type": "Feature",
      "properties": { 
      "IBGE:COD_UNICO_ENDERECO": "191716591",
      "addr:housenumber": "20",
      "addr:postcode": "48607-210",
      "addr:street": "Rua Engenheiro Marchetti",
      "addr:suburb": "Paulo Afonso 4",
      "amenity": "car_wash",
      "building": "yes",
      "description": "CNEFE 2022 Lava a jato"
      },
      "geometry": {
         "type": "Point",
         "coordinates": [-38.2191428,-9.3895046]
      }
    },
    {
      "type": "Feature",
      "properties": { 
      "IBGE:COD_UNICO_ENDERECO": "27355403",
      "addr:housenumber": "16",
      "addr:postcode": "48606-500",
      "addr:suburb": "Paulo Afonso 4",
      "building": "construction"
      },
      "geometry": {
         "type": "Point",
         "coordinates": [-38.2247661,-9.3775463]
      }
    },
    {
      "type": "Feature",
      "properties": { 
      "IBGE:COD_UNICO_ENDERECO": "191717066",
      "addr:housenumber": "14",
      "addr:postcode": "48606-500",
      "addr:street": "Avenida Maranhão",
      "addr:suburb": "Paulo Afonso 4",
      "building": "yes",
      "fixme": "Verificar coordenadas",
      "note": "Muito afastado da face: 88m 0500-0037P-19-2"
      },
      "geometry": {
         "type": "Point",
         "coordinates": [-38.218776,-9.374613]
      }
    },
    {
      "type": "Feature",
      "properties": { 
      "IBGE:COD_UNICO_ENDERECO": "27355231",
      "addr:housenumber": "390",
      "addr:postcode": "48607-150",
      "addr:street": "Rua Recife",
      "addr:suburb": "Paulo Afonso 4",
      "building": "yes"
      },
      "geometry": {
         "type": "Point",
         "coordinates": [-38.2164285,-9.3881036]
      }
    },
    {
      "type": "Feature",
      "properties": { 
      "IBGE:COD_UNICO_ENDERECO": "27355454",
      "addr:housenumber": "26",
      "addr:postcode": "48606-520",
      "addr:street": "Rua Arari",
      "addr:suburb": "Paulo Afonso 4",
      "building": "yes"
      },
      "geometry": {
         "type": "Point",
         "coordinates": [-38.2136086,-9.3826354]
      }
    },
    {
      "type": "Feature",
      "properties": { 
      "IBGE:COD_UNICO_ENDERECO": "27355420",
      "addr:housenumber": "39",
      "addr:postcode": "48606-520",
      "addr:street": "Rua Arari",
      "addr:suburb": "Paulo Afonso 4",
      "building": "yes"
      },
      "geometry": {
         "type": "Point",
         "coordinates": [-38.2138038,-9.3825868]
      }
    },
    {
      "type": "Feature",
      "properties": { 
      "IBGE:COD_UNICO_ENDERECO": "27355214",
      "addr:housenumber": "161",
      "addr:postcode": "48607-270",
      "addr:street": "Rua Pesqueira",
      "addr:suburb": "Paulo Afonso 4",
      "addr:unit": "Casa 8",
      "building": "yes"
      },
      "geometry": {
         "type": "Point",
         "coordinates": [-38.2186878,-9.389246]
      }
    },
    {
      "type": "Feature",
      "properties": { 
      "IBGE:COD_UNICO_ENDERECO": "27355288;27355290-27355291",
      "addr:housenumber": "18",
      "addr:postcode": "48607-245",
      "addr:street": "Rua da Consolação",
      "addr:suburb": "Paulo Afonso 4",
      "building": "yes"
      },
      "geometry": {
         "type": "Point",
         "coordinates": [-38.2168188,-9.384697]
      }
    },
    {
      "type": "Feature",
      "properties": { 
      "IBGE:COD_UNICO_ENDERECO": "27355406",
      "addr:housenumber": "2001",
      "addr:postcode": "48606-500",
      "addr:street": "Avenida Maranhão",
      "addr:suburb": "Paulo Afonso 4",
      "building": "yes",
      "name": "Indústria de Estofados AC"
      },
      "geometry": {
         "type": "Point",
         "coordinates": [-38.2254358,-9.3758781]
      }
    },
    {
      "type": "Feature",
      "properties": { 
      "IBGE:COD_UNICO_ENDERECO": "191717087",
      "addr:housenumber": "1225",
      "addr:postcode": "48606-500",
      "addr:street": "Avenida Maranhão",
      "addr:suburb": "Paulo Afonso 4",
      "addr:unit": "Casa 10",
      "building": "yes",
      "fixme": "Verificar coordenadas",
      "note": "Muito afastado da face: 127m 0500-0037P-19-2"
      },
      "geometry": {
         "type": "Point",
         "coordinates": [-38.218856,-9.374103]
      }
    },
    {
      "type": "Feature",
      "properties": { 
      "IBGE:COD_UNICO_ENDERECO": "27355444",
      "addr:housenumber": "923",
      "addr:postcode": "48606-500",
      "addr:street": "Avenida Maranhão",
      "addr:suburb": "Paulo Afonso 4",
      "building": "yes"
      },
      "geometry": {
         "type": "Point",
         "coordinates": [-38.2136342,-9.3822754]
      }
    },
    {
      "type": "Feature",
      "properties": { 
      "IBGE:COD_UNICO_ENDERECO": "27355422",
      "addr:housenumber": "65",
      "addr:postcode": "48606-520",
      "addr:street": "Rua Arari",
      "addr:suburb": "Paulo Afonso 4",
      "building": "yes"
      },
      "geometry": {
         "type": "Point",
         "coordinates": [-38.2139372,-9.3824287]
      }
    },
    {
      "type": "Feature",
      "properties": { 
      "IBGE:COD_UNICO_ENDERECO": "27355423",
      "addr:housenumber": "43",
      "addr:postcode": "48606-520",
      "addr:street": "Rua Arari",
      "addr:suburb": "Paulo Afonso 4",
      "building": "yes"
      },
      "geometry": {
         "type": "Point",
         "coordinates": [-38.2138314,-9.382554]
      }
    },
    {
      "type": "Feature",
      "properties": { 
      "IBGE:COD_UNICO_ENDERECO": "27355459",
      "addr:housenumber": "94",
      "addr:postcode": "48606-520",
      "addr:street": "Rua Arari",
      "addr:suburb": "Paulo Afonso 4",
      "building": "construction"
      },
      "geometry": {
         "type": "Point",
         "coordinates": [-38.2140058,-9.3821103]
      }
    },
    {
      "type": "Feature",
      "properties": { 
      "IBGE:COD_UNICO_ENDERECO": "27355378",
      "addr:housenumber": "2125 A",
      "addr:postcode": "48606-500",
      "addr:street": "Avenida Maranhão",
      "addr:suburb": "Paulo Afonso 4",
      "building": "yes",
      "craft": "sun_protection",
      "fixme": "Confirmar nome;Verificar coordenadas",
      "name": "Indústria e Comércio de Toldos",
      "note": "Fora da área de projeção da face 0500-0037P-11-2",
      "shop": "yes"
      },
      "geometry": {
         "type": "Point",
         "coordinates": [-38.22463,-9.375379]
      }
    },
    {
      "type": "Feature",
      "properties": { 
      "IBGE:COD_UNICO_ENDERECO": "27355456",
      "addr:housenumber": "50",
      "addr:postcode": "48606-520",
      "addr:street": "Rua Arari",
      "addr:suburb": "Paulo Afonso 4",
      "building": "yes"
      },
      "geometry": {
         "type": "Point",
         "coordinates": [-38.213749,-9.3824123]
      }
    },
    {
      "type": "Feature",
      "properties": { 
      "IBGE:COD_UNICO_ENDERECO": "27355460",
      "addr:housenumber": "98",
      "addr:postcode": "48606-520",
      "addr:street": "Rua Arari",
      "addr:suburb": "Paulo Afonso 4",
      "building": "yes"
      },
      "geometry": {
         "type": "Point",
         "coordinates": [-38.2139867,-9.3821327]
      }
    },
    {
      "type": "Feature",
      "properties": { 
      "IBGE:COD_UNICO_ENDERECO": "191716541",
      "addr:housenumber": "145",
      "addr:postcode": "48607-150",
      "addr:street": "Rua Recife",
      "addr:suburb": "Paulo Afonso 4",
      "addr:unit": "Anexo",
      "amenity": "restaurant",
      "building": "yes",
      "cuisine": "pizza",
      "name": "Bela Massa Pizzaria"
      },
      "geometry": {
         "type": "Point",
         "coordinates": [-38.218724501792,-9.3874799994432]
      }
    },
    {
      "type": "Feature",
      "properties": { 
      "IBGE:COD_UNICO_ENDERECO": "191716458",
      "addr:housenumber": "95",
      "addr:postcode": "48607-275",
      "addr:street": "Rua Crato",
      "addr:suburb": "Paulo Afonso 4",
      "building": "yes"
      },
      "geometry": {
         "type": "Point",
         "coordinates": [-38.2209133,-9.3866118]
      }
    },
    {
      "type": "Feature",
      "properties": { 
      "IBGE:COD_UNICO_ENDERECO": "191716454",
      "addr:housenumber": "146",
      "addr:postcode": "48607-275",
      "addr:street": "Rua Crato",
      "addr:suburb": "Paulo Afonso 4",
      "addr:unit": "Casa 4",
      "building": "yes"
      },
      "geometry": {
         "type": "Point",
         "coordinates": [-38.221679279073,-9.3864656347967]
      }
    },
    {
      "type": "Feature",
      "properties": { 
      "IBGE:COD_UNICO_ENDERECO": "27355132",
      "addr:housenumber": "56",
      "addr:postcode": "48607-275",
      "addr:street": "Rua Crato",
      "addr:suburb": "Paulo Afonso 4",
      "building": "yes"
      },
      "geometry": {
         "type": "Point",
         "coordinates": [-38.2206165,-9.3865924]
      }
    },
    {
      "type": "Feature",
      "properties": { 
      "IBGE:COD_UNICO_ENDERECO": "27355165",
      "addr:housenumber": "3",
      "addr:postcode": "48607-270",
      "addr:street": "Rua Pesqueira",
      "addr:suburb": "Paulo Afonso 4",
      "building": "yes"
      },
      "geometry": {
         "type": "Point",
         "coordinates": [-38.2194405,-9.3892648]
      }
    },
    {
      "type": "Feature",
      "properties": { 
      "IBGE:COD_UNICO_ENDERECO": "27355379",
      "addr:housenumber": "20",
      "addr:postcode": "48606-500",
      "addr:street": "Avenida Maranhão",
      "addr:suburb": "Paulo Afonso 4",
      "building": "yes",
      "name": "Fábrica Móveis Planejado",
      "shop": "furniture"
      },
      "geometry": {
         "type": "Point",
         "coordinates": [-38.2192928,-9.3754758]
      }
    },
    {
      "type": "Feature",
      "properties": { 
      "IBGE:COD_UNICO_ENDERECO": "27355395",
      "addr:housenumber": "8",
      "addr:postcode": "48606-500",
      "addr:suburb": "Paulo Afonso 4",
      "building": "yes",
      "healthcare": "yes",
      "name": "Clínica de Exames Médicos e Psicotestes"
      },
      "geometry": {
         "type": "Point",
         "coordinates": [-38.2257273,-9.3771528]
      }
    },
    {
      "type": "Feature",
      "properties": { 
      "IBGE:COD_UNICO_ENDERECO": "27355133",
      "addr:housenumber": "88",
      "addr:postcode": "48607-275",
      "addr:street": "Rua Crato",
      "addr:suburb": "Paulo Afonso 4",
      "building": "yes"
      },
      "geometry": {
         "type": "Point",
         "coordinates": [-38.2208434,-9.3864579]
      }
    },
    {
      "type": "Feature",
      "properties": { 
      "IBGE:COD_UNICO_ENDERECO": "27355434",
      "addr:housenumber": "1019",
      "addr:postcode": "48606-500",
      "addr:street": "Avenida Maranhão",
      "addr:suburb": "Paulo Afonso 4",
      "building": "yes"
      },
      "geometry": {
         "type": "Point",
         "coordinates": [-38.2141835,-9.3815813]
      }
    },
    {
      "type": "Feature",
      "properties": { 
      "IBGE:COD_UNICO_ENDERECO": "27355475",
      "addr:housenumber": "25",
      "addr:postcode": "48607-245",
      "addr:street": "Rua da Consolação",
      "addr:suburb": "Paulo Afonso 4",
      "building": "yes",
      "name": "Produção e Reprodução de Codornas Cordol"
      },
      "geometry": {
         "type": "Point",
         "coordinates": [-38.210367731621,-9.3811366963619]
      }
    },
    {
      "type": "Feature",
      "properties": { 
      "IBGE:COD_UNICO_ENDERECO": "27355108-27355109",
      "addr:housenumber": "89",
      "addr:postcode": "48607-275",
      "addr:street": "Rua Crato",
      "addr:suburb": "Paulo Afonso 4",
      "building": "construction"
      },
      "geometry": {
         "type": "Point",
         "coordinates": [-38.2216811,-9.3864472]
      }
    },
    {
      "type": "Feature",
      "properties": { 
      "IBGE:COD_UNICO_ENDERECO": "27355251",
      "addr:housenumber": "75",
      "addr:postcode": "48607-000",
      "addr:street": "Avenida Marcondes Ferraz",
      "addr:suburb": "Paulo Afonso 4",
      "building": "yes"
      },
      "geometry": {
         "type": "Point",
         "coordinates": [-38.2183336,-9.3897911]
      }
    },
    {
      "type": "Feature",
      "properties": { 
      "IBGE:COD_UNICO_ENDERECO": "27355455",
      "addr:housenumber": "46",
      "addr:postcode": "48606-520",
      "addr:street": "Rua Arari",
      "addr:suburb": "Paulo Afonso 4",
      "building": "construction"
      },
      "geometry": {
         "type": "Point",
         "coordinates": [-38.2137082,-9.3824603]
      }
    },
    {
      "type": "Feature",
      "properties": { 
      "IBGE:COD_UNICO_ENDERECO": "27355278",
      "addr:housenumber": "183",
      "addr:postcode": "48606-510",
      "addr:street": "Rua Caxias",
      "addr:suburb": "Paulo Afonso 4",
      "building": "yes"
      },
      "geometry": {
         "type": "Point",
         "coordinates": [-38.2144881,-9.3825083]
      }
    },
    {
      "type": "Feature",
      "properties": { 
      "IBGE:COD_UNICO_ENDERECO": "27355218",
      "addr:housenumber": "1",
      "addr:postcode": "48607-270",
      "addr:street": "Rua Pesqueira",
      "addr:suburb": "Paulo Afonso 4",
      "building": "yes"
      },
      "geometry": {
         "type": "Point",
         "coordinates": [-38.2187155,-9.3892479]
      }
    },
    {
      "type": "Feature",
      "properties": { 
      "IBGE:COD_UNICO_ENDERECO": "27355144",
      "addr:housenumber": "133",
      "addr:postcode": "48607-285",
      "addr:street": "Rua das Acácias",
      "addr:suburb": "Paulo Afonso 4",
      "addr:unit": "Fundos",
      "building": "yes"
      },
      "geometry": {
         "type": "Point",
         "coordinates": [-38.2196812,-9.3882501]
      }
    },
    {
      "type": "Feature",
      "properties": { 
      "IBGE:COD_UNICO_ENDERECO": "191716698",
      "addr:housenumber": "139",
      "addr:postcode": "48606-510",
      "addr:street": "Rua Caxias",
      "addr:suburb": "Paulo Afonso 4",
      "addr:unit": "Casa A",
      "building": "yes"
      },
      "geometry": {
         "type": "Point",
         "coordinates": [-38.2145687,-9.3819409]
      }
    },
    {
      "type": "Feature",
      "properties": { 
      "IBGE:COD_UNICO_ENDERECO": "27355209;27355216",
      "addr:housenumber": "4",
      "addr:postcode": "48607-270",
      "addr:street": "Rua Pesqueira",
      "addr:suburb": "Paulo Afonso 4",
      "building": "yes"
      },
      "geometry": {
         "type": "Point",
         "coordinates": [-38.2185242,-9.3892352]
      }
    },
    {
      "type": "Feature",
      "properties": { 
      "IBGE:COD_UNICO_ENDERECO": "27355173",
      "addr:housenumber": "66",
      "addr:postcode": "48607-150",
      "addr:street": "Rua Recife",
      "addr:suburb": "Paulo Afonso 4",
      "building": "construction"
      },
      "geometry": {
         "type": "Point",
         "coordinates": [-38.2191807,-9.3880672]
      }
    },
    {
      "type": "Feature",
      "properties": { 
      "IBGE:COD_UNICO_ENDERECO": "27355212",
      "addr:housenumber": "8",
      "addr:postcode": "48607-270",
      "addr:street": "Rua Pesqueira",
      "addr:suburb": "Paulo Afonso 4",
      "building": "yes"
      },
      "geometry": {
         "type": "Point",
         "coordinates": [-38.218821,-9.3892548]
      }
    },
    {
      "type": "Feature",
      "properties": { 
      "IBGE:COD_UNICO_ENDERECO": "191717059",
      "addr:housenumber": "3",
      "addr:postcode": "48606-500",
      "addr:street": "Avenida Maranhão",
      "addr:suburb": "Paulo Afonso 4",
      "building": "yes",
      "fixme": "Verificar coordenadas",
      "note": "Muito afastado da face: 41m 0500-0037P-19-2"
      },
      "geometry": {
         "type": "Point",
         "coordinates": [-38.219033,-9.374934]
      }
    },
    {
      "type": "Feature",
      "properties": { 
      "IBGE:COD_UNICO_ENDERECO": "27355219",
      "addr:housenumber": "10",
      "addr:postcode": "48607-270",
      "addr:street": "Rua Pesqueira",
      "addr:suburb": "Paulo Afonso 4",
      "building": "yes"
      },
      "geometry": {
         "type": "Point",
         "coordinates": [-38.2191766,-9.3893114]
      }
    },
    {
      "type": "Feature",
      "properties": { 
      "IBGE:COD_UNICO_ENDERECO": "27355128",
      "addr:housenumber": "1043",
      "addr:postcode": "48607-235",
      "addr:street": "Avenida da Amizade",
      "addr:suburb": "Paulo Afonso 4",
      "building": "yes"
      },
      "geometry": {
         "type": "Point",
         "coordinates": [-38.2222308,-9.3863513]
      }
    },
    {
      "type": "Feature",
      "properties": { 
      "IBGE:COD_UNICO_ENDERECO": "27355166",
      "addr:housenumber": "2",
      "addr:postcode": "48607-270",
      "addr:street": "Rua Pesqueira",
      "addr:suburb": "Paulo Afonso 4",
      "building": "yes"
      },
      "geometry": {
         "type": "Point",
         "coordinates": [-38.2194676,-9.3892843]
      }
    },
    {
      "type": "Feature",
      "properties": { 
      "IBGE:COD_UNICO_ENDERECO": "27355136",
      "addr:housenumber": "165",
      "addr:postcode": "48607-290",
      "addr:street": "Rua Fortaleza",
      "addr:suburb": "Paulo Afonso 4",
      "building": "yes"
      },
      "geometry": {
         "type": "Point",
         "coordinates": [-38.2203439,-9.3877703]
      }
    },
    {
      "type": "Feature",
      "properties": { 
      "IBGE:COD_UNICO_ENDERECO": "27355213",
      "addr:housenumber": "161",
      "addr:postcode": "48607-270",
      "addr:street": "Rua Pesqueira",
      "addr:suburb": "Paulo Afonso 4",
      "building": "yes"
      },
      "geometry": {
         "type": "Point",
         "coordinates": [-38.2186096,-9.3892408]
      }
    },
    {
      "type": "Feature",
      "properties": { 
      "IBGE:COD_UNICO_ENDERECO": "191716491",
      "addr:housenumber": "118",
      "addr:postcode": "48607-250",
      "addr:street": "Rua da União",
      "addr:suburb": "Paulo Afonso 4",
      "building": "yes",
      "fixme": "Verificar coordenadas",
      "note": "Muito afastado da face: 44m 0500-0037P-3-2"
      },
      "geometry": {
         "type": "Point",
         "coordinates": [-38.221009,-9.386308]
      }
    },
    {
      "type": "Feature",
      "properties": { 
      "IBGE:COD_UNICO_ENDERECO": "27355225",
      "addr:housenumber": "110",
      "addr:postcode": "48607-300",
      "addr:street": "Rua Angelim",
      "addr:suburb": "Paulo Afonso 4",
      "building": "yes"
      },
      "geometry": {
         "type": "Point",
         "coordinates": [-38.2181507,-9.388335]
      }
    },
    {
      "type": "Feature",
      "properties": { 
      "IBGE:COD_UNICO_ENDERECO": "27355440",
      "addr:housenumber": "969",
      "addr:postcode": "48606-500",
      "addr:street": "Avenida Maranhão",
      "addr:suburb": "Paulo Afonso 4",
      "building": "yes"
      },
      "geometry": {
         "type": "Point",
         "coordinates": [-38.213922,-9.3819267]
      }
    },
    {
      "type": "Feature",
      "properties": { 
      "IBGE:COD_UNICO_ENDERECO": "27355271",
      "addr:housenumber": "299",
      "addr:postcode": "48606-510",
      "addr:street": "Rua Caxias",
      "addr:suburb": "Paulo Afonso 4",
      "building": "yes"
      },
      "geometry": {
         "type": "Point",
         "coordinates": [-38.214322094469,-9.381418945612]
      }
    },
    {
      "type": "Feature",
      "properties": { 
      "IBGE:COD_UNICO_ENDERECO": "191716604",
      "addr:housenumber": "20",
      "addr:postcode": "48607-270",
      "addr:street": "Rua Pesqueira",
      "addr:suburb": "Paulo Afonso 4",
      "building": "garage",
      "description": "CNEFE 2022 Garagem"
      },
      "geometry": {
         "type": "Point",
         "coordinates": [-38.2187799,-9.3894199]
      }
    },
    {
      "type": "Feature",
      "properties": { 
      "IBGE:COD_UNICO_ENDERECO": "191716602",
      "addr:housenumber": "3",
      "addr:postcode": "48607-270",
      "addr:street": "Rua Pesqueira",
      "addr:suburb": "Paulo Afonso 4",
      "building": "garage",
      "description": "CNEFE 2022 Garagem"
      },
      "geometry": {
         "type": "Point",
         "coordinates": [-38.2188,-9.3894217]
      }
    },
    {
      "type": "Feature",
      "properties": { 
      "IBGE:COD_UNICO_ENDERECO": "27355207",
      "addr:housenumber": "6",
      "addr:postcode": "48607-270",
      "addr:street": "Rua Pesqueira",
      "addr:suburb": "Paulo Afonso 4",
      "building": "yes"
      },
      "geometry": {
         "type": "Point",
         "coordinates": [-38.2184888,-9.3892328]
      }
    },
    {
      "type": "Feature",
      "properties": { 
      "IBGE:COD_UNICO_ENDERECO": "27355114",
      "addr:housenumber": "198",
      "addr:postcode": "48607-290",
      "addr:street": "Rua Fortaleza",
      "addr:suburb": "Paulo Afonso 4",
      "building": "yes"
      },
      "geometry": {
         "type": "Point",
         "coordinates": [-38.2204876,-9.3881821]
      }
    },
    {
      "type": "Feature",
      "properties": { 
      "IBGE:COD_UNICO_ENDERECO": "27355204;27355210",
      "addr:housenumber": "3",
      "addr:postcode": "48607-270",
      "addr:street": "Rua Pesqueira",
      "addr:suburb": "Paulo Afonso 4",
      "building": "yes"
      },
      "geometry": {
         "type": "Point",
         "coordinates": [-38.2187733,-9.3892517]
      }
    },
    {
      "type": "Feature",
      "properties": { 
      "IBGE:COD_UNICO_ENDERECO": "27355261",
      "addr:housenumber": "79 Lado",
      "addr:postcode": "48606-500",
      "addr:street": "Avenida Maranhão",
      "addr:suburb": "Paulo Afonso 4",
      "amenity": "police",
      "building": "yes",
      "name": "Polícia Civil 18 Coorpin"
      },
      "geometry": {
         "type": "Point",
         "coordinates": [-38.210009813296,-9.388398868701]
      }
    },
    {
      "type": "Feature",
      "properties": { 
      "IBGE:COD_UNICO_ENDERECO": "27355177",
      "addr:housenumber": "87",
      "addr:postcode": "48607-300",
      "addr:street": "Rua Angelim",
      "addr:suburb": "Paulo Afonso 4",
      "building": "yes"
      },
      "geometry": {
         "type": "Point",
         "coordinates": [-38.2183023,-9.3885399]
      }
    },
    {
      "type": "Feature",
      "properties": { 
      "IBGE:COD_UNICO_ENDERECO": "27355228",
      "addr:housenumber": "298",
      "addr:postcode": "48607-150",
      "addr:street": "Rua Recife",
      "addr:suburb": "Paulo Afonso 4",
      "building": "yes"
      },
      "geometry": {
         "type": "Point",
         "coordinates": [-38.2172104,-9.3880508]
      }
    },
    {
      "type": "Feature",
      "properties": { 
      "IBGE:COD_UNICO_ENDERECO": "27355123",
      "addr:housenumber": "50",
      "addr:postcode": "48607-210",
      "addr:street": "Rua Engenheiro Marchetti",
      "addr:suburb": "Paulo Afonso 4",
      "building": "yes",
      "name": "Clebe Paulo Afonso"
      },
      "geometry": {
         "type": "Point",
         "coordinates": [-38.2192907,-9.3899761]
      }
    },
    {
      "type": "Feature",
      "properties": { 
      "IBGE:COD_UNICO_ENDERECO": "27355148;27355154",
      "addr:housenumber": "7",
      "addr:postcode": "48607-285",
      "addr:street": "Rua das Acácias",
      "addr:suburb": "Paulo Afonso 4",
      "building": "yes"
      },
      "geometry": {
         "type": "Point",
         "coordinates": [-38.2194582,-9.3886843]
      }
    },
    {
      "type": "Feature",
      "properties": { 
      "IBGE:COD_UNICO_ENDERECO": "27355490-27355497;191717090;191717100",
      "addr:housenumber": "1225",
      "addr:postcode": "48606-500",
      "addr:street": "Avenida Maranhão",
      "addr:suburb": "Paulo Afonso 4",
      "building": "construction",
      "fixme": "Verificar coordenadas",
      "note": "Muito afastado da face: 45m 0500-0037P-19-2"
      },
      "geometry": {
         "type": "Point",
         "coordinates": [-38.2189922,-9.3749257]
      }
    },
    {
      "type": "Feature",
      "properties": { 
      "IBGE:COD_UNICO_ENDERECO": "27355183",
      "addr:housenumber": "6",
      "addr:postcode": "48607-285",
      "addr:street": "Rua das Acácias",
      "addr:suburb": "Paulo Afonso 4",
      "building": "yes"
      },
      "geometry": {
         "type": "Point",
         "coordinates": [-38.219246,-9.3887807]
      }
    },
    {
      "type": "Feature",
      "properties": { 
      "IBGE:COD_UNICO_ENDERECO": "27355243",
      "addr:housenumber": "311",
      "addr:postcode": "48607-000",
      "addr:street": "Avenida Marcondes Ferraz",
      "addr:suburb": "Paulo Afonso 4",
      "building": "yes"
      },
      "geometry": {
         "type": "Point",
         "coordinates": [-38.2162576,-9.3896738]
      }
    },
    {
      "type": "Feature",
      "properties": { 
      "IBGE:COD_UNICO_ENDERECO": "27355235",
      "addr:housenumber": "500",
      "addr:postcode": "48607-150",
      "addr:street": "Rua Recife",
      "addr:suburb": "Paulo Afonso 4",
      "building": "construction"
      },
      "geometry": {
         "type": "Point",
         "coordinates": [-38.2156755,-9.3885496]
      }
    },
    {
      "type": "Feature",
      "properties": { 
      "IBGE:COD_UNICO_ENDERECO": "191717081",
      "addr:housenumber": "7",
      "addr:postcode": "48606-500",
      "addr:street": "Avenida Maranhão",
      "addr:suburb": "Paulo Afonso 4",
      "building": "yes",
      "fixme": "Verificar coordenadas",
      "note": "Muito afastado da face: 113m 0500-0037P-19-2"
      },
      "geometry": {
         "type": "Point",
         "coordinates": [-38.218676,-9.374401]
      }
    },
    {
      "type": "Feature",
      "properties": { 
      "IBGE:COD_UNICO_ENDERECO": "27355445",
      "addr:housenumber": "903",
      "addr:postcode": "48606-500",
      "addr:street": "Avenida Maranhão",
      "addr:suburb": "Paulo Afonso 4",
      "building": "yes"
      },
      "geometry": {
         "type": "Point",
         "coordinates": [-38.2135122,-9.3824233]
      }
    },
    {
      "type": "Feature",
      "properties": { 
      "IBGE:COD_UNICO_ENDERECO": "191716609-191716610",
      "addr:housenumber": "22",
      "addr:postcode": "48607-270",
      "addr:street": "Rua Pesqueira",
      "addr:suburb": "Paulo Afonso 4",
      "building": "garage",
      "description": "CNEFE 2022 Garagem"
      },
      "geometry": {
         "type": "Point",
         "coordinates": [-38.2186732,-9.3894105]
      }
    },
    {
      "type": "Feature",
      "properties": { 
      "IBGE:COD_UNICO_ENDERECO": "27421452",
      "addr:housenumber": "43",
      "addr:postcode": "48607-410",
      "addr:street": "Rua Sergipe",
      "addr:suburb": "Paulo Afonso 4",
      "building": "yes"
      },
      "geometry": {
         "type": "Point",
         "coordinates": [-38.2230061,-9.3858589]
      }
    },
    {
      "type": "Feature",
      "properties": { 
      "IBGE:COD_UNICO_ENDERECO": "191717093",
      "addr:housenumber": "1225",
      "addr:postcode": "48606-500",
      "addr:street": "Avenida Maranhão",
      "addr:suburb": "Paulo Afonso 4",
      "addr:unit": "Casa 1",
      "building": "yes",
      "fixme": "Verificar coordenadas",
      "note": "Muito afastado da face: 118m 0500-0037P-19-2"
      },
      "geometry": {
         "type": "Point",
         "coordinates": [-38.219155188624,-9.3740333733878]
      }
    },
    {
      "type": "Feature",
      "properties": { 
      "IBGE:COD_UNICO_ENDERECO": "27355145",
      "addr:housenumber": "133 Lado",
      "addr:postcode": "48607-285",
      "addr:street": "Rua das Acácias",
      "addr:suburb": "Paulo Afonso 4",
      "building": "yes",
      "name": "Mercadinho Lacerda",
      "shop": "convenience"
      },
      "geometry": {
         "type": "Point",
         "coordinates": [-38.219638028619,-9.3882406799755]
      }
    },
    {
      "type": "Feature",
      "properties": { 
      "IBGE:COD_UNICO_ENDERECO": "27421453",
      "addr:housenumber": "23",
      "addr:postcode": "48607-410",
      "addr:street": "Rua Sergipe",
      "addr:suburb": "Paulo Afonso 4",
      "building": "yes"
      },
      "geometry": {
         "type": "Point",
         "coordinates": [-38.2228936,-9.3857894]
      }
    },
    {
      "type": "Feature",
      "properties": { 
      "IBGE:COD_UNICO_ENDERECO": "27355205",
      "addr:housenumber": "8",
      "addr:postcode": "48607-270",
      "addr:street": "Rua Pesqueira",
      "addr:suburb": "Paulo Afonso 4",
      "addr:unit": "Casa 8F",
      "building": "yes"
      },
      "geometry": {
         "type": "Point",
         "coordinates": [-38.218367,-9.3892248]
      }
    },
    {
      "type": "Feature",
      "properties": { 
      "IBGE:COD_UNICO_ENDERECO": "27355142",
      "addr:housenumber": "159",
      "addr:postcode": "48607-285",
      "addr:street": "Rua das Acácias",
      "addr:suburb": "Paulo Afonso 4",
      "building": "yes"
      },
      "geometry": {
         "type": "Point",
         "coordinates": [-38.2196892,-9.3879611]
      }
    },
    {
      "type": "Feature",
      "properties": { 
      "IBGE:COD_UNICO_ENDERECO": "27355259",
      "addr:housenumber": "229",
      "addr:postcode": "48606-500",
      "addr:street": "Avenida Maranhão",
      "addr:suburb": "Paulo Afonso 4",
      "building": "industrial",
      "man_made": "works",
      "name": "Fábrica de Iogurtes Bom Jesus"
      },
      "geometry": {
         "type": "Point",
         "coordinates": [-38.210149,-9.3873037]
      }
    },
    {
      "type": "Feature",
      "properties": { 
      "IBGE:COD_UNICO_ENDERECO": "27355253",
      "addr:housenumber": "345 Frente",
      "addr:postcode": "48607-000",
      "addr:street": "Avenida Marcondes Ferraz",
      "addr:suburb": "Paulo Afonso 4",
      "building": "yes"
      },
      "geometry": {
         "type": "Point",
         "coordinates": [-38.215742320943,-9.3896533628642]
      }
    },
    {
      "type": "Feature",
      "properties": { 
      "IBGE:COD_UNICO_ENDERECO": "27355292",
      "addr:housenumber": "11",
      "addr:postcode": "48607-245",
      "addr:street": "Rua da Consolação",
      "addr:suburb": "Paulo Afonso 4",
      "building": "yes"
      },
      "geometry": {
         "type": "Point",
         "coordinates": [-38.218415,-9.3855728]
      }
    },
    {
      "type": "Feature",
      "properties": { 
      "IBGE:COD_UNICO_ENDERECO": "191716601",
      "addr:housenumber": "19",
      "addr:postcode": "48607-270",
      "addr:street": "Rua Pesqueira",
      "addr:suburb": "Paulo Afonso 4",
      "building": "garage",
      "description": "CNEFE 2022 Garagem"
      },
      "geometry": {
         "type": "Point",
         "coordinates": [-38.2188195,-9.3894234]
      }
    },
    {
      "type": "Feature",
      "properties": { 
      "IBGE:COD_UNICO_ENDERECO": "27355282",
      "addr:housenumber": "109",
      "addr:postcode": "48606-510",
      "addr:street": "Rua Caxias",
      "addr:suburb": "Paulo Afonso 4",
      "building": "yes"
      },
      "geometry": {
         "type": "Point",
         "coordinates": [-38.213984,-9.3830363]
      }
    },
    {
      "type": "Feature",
      "properties": { 
      "IBGE:COD_UNICO_ENDERECO": "27355274",
      "addr:housenumber": "265",
      "addr:postcode": "48606-510",
      "addr:street": "Rua Caxias",
      "addr:suburb": "Paulo Afonso 4",
      "building": "yes"
      },
      "geometry": {
         "type": "Point",
         "coordinates": [-38.2145078,-9.3817285]
      }
    },
    {
      "type": "Feature",
      "properties": { 
      "IBGE:COD_UNICO_ENDERECO": "27355098",
      "addr:housenumber": "930",
      "addr:postcode": "48607-235",
      "addr:street": "Avenida da Amizade",
      "addr:suburb": "Paulo Afonso 4",
      "addr:unit": "Fundos",
      "building": "yes",
      "man_made": "tower",
      "name": "Torre de Telefonia",
      "tower:type": "communication"
      },
      "geometry": {
         "type": "Point",
         "coordinates": [-38.2217059,-9.3871538]
      }
    },
    {
      "type": "Feature",
      "properties": { 
      "IBGE:COD_UNICO_ENDERECO": "27355099",
      "addr:housenumber": "932",
      "addr:postcode": "48607-235",
      "addr:street": "Avenida da Amizade",
      "addr:suburb": "Paulo Afonso 4",
      "building": "yes",
      "name": "Sem Informação"
      },
      "geometry": {
         "type": "Point",
         "coordinates": [-38.221680442172,-9.3872901237789]
      }
    },
    {
      "type": "Feature",
      "properties": { 
      "IBGE:COD_UNICO_ENDERECO": "27355386",
      "addr:housenumber": "2225 D",
      "addr:postcode": "48606-500",
      "addr:street": "Avenida Maranhão",
      "addr:suburb": "Paulo Afonso 4",
      "building": "yes"
      },
      "geometry": {
         "type": "Point",
         "coordinates": [-38.2222484,-9.3750195]
      }
    },
    {
      "type": "Feature",
      "properties": { 
      "IBGE:COD_UNICO_ENDERECO": "27421456",
      "addr:housenumber": "72",
      "addr:postcode": "48607-330",
      "addr:street": "Rua Alagoas",
      "addr:suburb": "Paulo Afonso 4",
      "building": "yes"
      },
      "geometry": {
         "type": "Point",
         "coordinates": [-38.2230197,-9.386368]
      }
    },
    {
      "type": "Feature",
      "properties": { 
      "IBGE:COD_UNICO_ENDERECO": "191716460",
      "addr:housenumber": "75",
      "addr:postcode": "48607-275",
      "addr:street": "Rua Crato",
      "addr:suburb": "Paulo Afonso 4",
      "building": "yes"
      },
      "geometry": {
         "type": "Point",
         "coordinates": [-38.220858,-9.3866443]
      }
    },
    {
      "type": "Feature",
      "properties": { 
      "IBGE:COD_UNICO_ENDERECO": "27355458",
      "addr:housenumber": "8",
      "addr:postcode": "48606-520",
      "addr:street": "Rua Arari",
      "addr:suburb": "Paulo Afonso 4",
      "building": "yes"
      },
      "geometry": {
         "type": "Point",
         "coordinates": [-38.2138842,-9.3822533]
      }
    },
    {
      "type": "Feature",
      "properties": { 
      "IBGE:COD_UNICO_ENDERECO": "27355135",
      "addr:housenumber": "197",
      "addr:postcode": "48607-290",
      "addr:street": "Rua Fortaleza",
      "addr:suburb": "Paulo Afonso 4",
      "building": "yes"
      },
      "geometry": {
         "type": "Point",
         "coordinates": [-38.2203185,-9.3880194]
      }
    },
    {
      "type": "Feature",
      "properties": { 
      "IBGE:COD_UNICO_ENDERECO": "27355252",
      "addr:housenumber": "45",
      "addr:postcode": "48607-000",
      "addr:street": "Avenida Marcondes Ferraz",
      "addr:suburb": "Paulo Afonso 4",
      "building": "yes"
      },
      "geometry": {
         "type": "Point",
         "coordinates": [-38.2187445,-9.3898143]
      }
    },
    {
      "type": "Feature",
      "properties": { 
      "IBGE:COD_UNICO_ENDERECO": "27355478",
      "addr:housenumber": "44",
      "addr:postcode": "48607-245",
      "addr:street": "Rua da Consolação",
      "addr:suburb": "Paulo Afonso 4",
      "building": "yes",
      "craft": "carpenter",
      "description": "CNEFE 2022 Oficina de Marcenaria"
      },
      "geometry": {
         "type": "Point",
         "coordinates": [-38.2105199,-9.3809783]
      }
    },
    {
      "type": "Feature",
      "properties": { 
      "IBGE:COD_UNICO_ENDERECO": "191717041",
      "addr:housenumber": "2",
      "addr:postcode": "48606-500",
      "addr:street": "Avenida Maranhão",
      "addr:suburb": "Paulo Afonso 4",
      "building": "yes"
      },
      "geometry": {
         "type": "Point",
         "coordinates": [-38.2126896,-9.382175]
      }
    },
    {
      "type": "Feature",
      "properties": { 
      "IBGE:COD_UNICO_ENDERECO": "27355276",
      "addr:housenumber": "215",
      "addr:postcode": "48606-510",
      "addr:street": "Rua Caxias",
      "addr:suburb": "Paulo Afonso 4",
      "building": "yes"
      },
      "geometry": {
         "type": "Point",
         "coordinates": [-38.2145788,-9.3820444]
      }
    },
    {
      "type": "Feature",
      "properties": { 
      "IBGE:COD_UNICO_ENDERECO": "27355287",
      "addr:housenumber": "5",
      "addr:postcode": "48607-245",
      "addr:street": "Rua da Consolação",
      "addr:suburb": "Paulo Afonso 4",
      "building": "yes"
      },
      "geometry": {
         "type": "Point",
         "coordinates": [-38.2145554,-9.3835123]
      }
    },
    {
      "type": "Feature",
      "properties": { 
      "IBGE:COD_UNICO_ENDERECO": "27355376",
      "addr:housenumber": "2225 B",
      "addr:postcode": "48606-500",
      "addr:street": "Avenida Maranhão",
      "addr:suburb": "Paulo Afonso 4",
      "building": "yes"
      },
      "geometry": {
         "type": "Point",
         "coordinates": [-38.2221298,-9.3750011]
      }
    },
    {
      "type": "Feature",
      "properties": { 
      "IBGE:COD_UNICO_ENDERECO": "27355443",
      "addr:housenumber": "927",
      "addr:postcode": "48606-500",
      "addr:street": "Avenida Maranhão",
      "addr:suburb": "Paulo Afonso 4",
      "building": "yes"
      },
      "geometry": {
         "type": "Point",
         "coordinates": [-38.2136928,-9.3822044]
      }
    },
    {
      "type": "Feature",
      "properties": { 
      "IBGE:COD_UNICO_ENDERECO": "27355293",
      "addr:housenumber": "18",
      "addr:postcode": "48607-245",
      "addr:street": "Rua da Consolação",
      "addr:suburb": "Paulo Afonso 4",
      "landuse": "farmyard;orchard",
      "name": "Propriedade Rural",
      "place": "farm"
      },
      "geometry": {
         "type": "Point",
         "coordinates": [-38.218362,-9.3855438]
      }
    },
    {
      "type": "Feature",
      "properties": { 
      "IBGE:COD_UNICO_ENDERECO": "27355238",
      "addr:housenumber": "622",
      "addr:postcode": "48607-150",
      "addr:street": "Rua Recife",
      "addr:suburb": "Paulo Afonso 4",
      "building": "yes"
      },
      "geometry": {
         "type": "Point",
         "coordinates": [-38.2151942,-9.3895391]
      }
    },
    {
      "type": "Feature",
      "properties": { 
      "IBGE:COD_UNICO_ENDERECO": "27421448",
      "addr:housenumber": "133",
      "addr:postcode": "48607-410",
      "addr:street": "Rua Sergipe",
      "addr:suburb": "Paulo Afonso 4",
      "building": "yes",
      "fixme": "Verificar coordenadas",
      "note": "Fora da área de projeção da face 0500-0148P-4-1"
      },
      "geometry": {
         "type": "Point",
         "coordinates": [-38.223773,-9.386634]
      }
    },
    {
      "type": "Feature",
      "properties": { 
      "IBGE:COD_UNICO_ENDERECO": "27355377",
      "addr:housenumber": "2125",
      "addr:postcode": "48606-500",
      "addr:street": "Avenida Maranhão",
      "addr:suburb": "Paulo Afonso 4",
      "building": "yes",
      "craft": "sun_protection",
      "fixme": "Confirmar nome;Verificar coordenadas",
      "name": "Indústria e Comércio de Toldos",
      "note": "Fora da área de projeção da face 0500-0037P-11-2",
      "shop": "yes"
      },
      "geometry": {
         "type": "Point",
         "coordinates": [-38.225176,-9.375654]
      }
    },
    {
      "type": "Feature",
      "properties": { 
      "IBGE:COD_UNICO_ENDERECO": "27355432",
      "addr:housenumber": "216",
      "addr:postcode": "48606-510",
      "addr:street": "Rua Caxias",
      "addr:suburb": "Paulo Afonso 4",
      "building": "yes"
      },
      "geometry": {
         "type": "Point",
         "coordinates": [-38.2143955,-9.3821648]
      }
    },
    {
      "type": "Feature",
      "properties": { 
      "IBGE:COD_UNICO_ENDERECO": "27355294",
      "addr:housenumber": "102",
      "addr:postcode": "48607-250",
      "addr:street": "Rua da União",
      "addr:suburb": "Paulo Afonso 4",
      "building": "yes"
      },
      "geometry": {
         "type": "Point",
         "coordinates": [-38.2220346,-9.3860024]
      }
    },
    {
      "type": "Feature",
      "properties": { 
      "IBGE:COD_UNICO_ENDERECO": "191717084",
      "addr:housenumber": "1225",
      "addr:postcode": "48606-500",
      "addr:street": "Avenida Maranhão",
      "addr:suburb": "Paulo Afonso 4",
      "addr:unit": "Casa 9",
      "building": "yes",
      "fixme": "Verificar coordenadas",
      "note": "Muito afastado da face: 127m 0500-0037P-19-2"
      },
      "geometry": {
         "type": "Point",
         "coordinates": [-38.21885009656,-9.3741166857377]
      }
    },
    {
      "type": "Feature",
      "properties": { 
      "IBGE:COD_UNICO_ENDERECO": "191716477",
      "addr:housenumber": "22",
      "addr:postcode": "48607-290",
      "addr:street": "Rua Fortaleza",
      "addr:suburb": "Paulo Afonso 4",
      "building": "yes",
      "name": "Linda Mel Estúdio",
      "shop": "beauty"
      },
      "geometry": {
         "type": "Point",
         "coordinates": [-38.219725,-9.3891219]
      }
    },
    {
      "type": "Feature",
      "properties": { 
      "IBGE:COD_UNICO_ENDERECO": "27355452",
      "addr:housenumber": "42",
      "addr:postcode": "48606-510",
      "addr:street": "Rua Caxias",
      "addr:suburb": "Paulo Afonso 4",
      "building": "yes"
      },
      "geometry": {
         "type": "Point",
         "coordinates": [-38.213471,-9.3827529]
      }
    },
    {
      "type": "Feature",
      "properties": { 
      "IBGE:COD_UNICO_ENDERECO": "27355193;27355198",
      "addr:housenumber": "16",
      "addr:postcode": "48607-262",
      "addr:street": "Rua Garanhuns",
      "addr:suburb": "Paulo Afonso 4",
      "building": "yes"
      },
      "geometry": {
         "type": "Point",
         "coordinates": [-38.2183756,-9.3886852]
      }
    },
    {
      "type": "Feature",
      "properties": { 
      "IBGE:COD_UNICO_ENDERECO": "27355267",
      "addr:housenumber": "55",
      "addr:postcode": "48606-500",
      "addr:suburb": "Paulo Afonso 4",
      "building": "construction"
      },
      "geometry": {
         "type": "Point",
         "coordinates": [-38.2196118,-9.3767493]
      }
    },
    {
      "type": "Feature",
      "properties": { 
      "IBGE:COD_UNICO_ENDERECO": "27355478",
      "addr:housenumber": "44",
      "addr:postcode": "48607-245",
      "addr:street": "Rua da Consolação",
      "addr:suburb": "Paulo Afonso 4",
      "building": "yes"
      },
      "geometry": {
         "type": "Point",
         "coordinates": [-38.210522316406,-9.3809871114057]
      }
    },
    {
      "type": "Feature",
      "properties": { 
      "IBGE:COD_UNICO_ENDERECO": "27355424",
      "addr:housenumber": "96",
      "addr:postcode": "48606-510",
      "addr:street": "Rua Caxias",
      "addr:suburb": "Paulo Afonso 4",
      "building": "yes"
      },
      "geometry": {
         "type": "Point",
         "coordinates": [-38.2139054,-9.3828768]
      }
    },
    {
      "type": "Feature",
      "properties": { 
      "IBGE:COD_UNICO_ENDERECO": "27355130",
      "addr:housenumber": "11",
      "addr:postcode": "48607-250",
      "addr:street": "Rua da União",
      "addr:suburb": "Paulo Afonso 4",
      "building": "yes"
      },
      "geometry": {
         "type": "Point",
         "coordinates": [-38.2202817,-9.3862371]
      }
    },
    {
      "type": "Feature",
      "properties": { 
      "IBGE:COD_UNICO_ENDERECO": "27355229",
      "addr:housenumber": "326",
      "addr:postcode": "48607-150",
      "addr:street": "Rua Recife",
      "addr:suburb": "Paulo Afonso 4",
      "building": "yes"
      },
      "geometry": {
         "type": "Point",
         "coordinates": [-38.2171188,-9.3880633]
      }
    },
    {
      "type": "Feature",
      "properties": { 
      "IBGE:COD_UNICO_ENDERECO": "27355184",
      "addr:housenumber": "8",
      "addr:postcode": "48607-285",
      "addr:street": "Rua das Acácias",
      "addr:suburb": "Paulo Afonso 4",
      "building": "yes"
      },
      "geometry": {
         "type": "Point",
         "coordinates": [-38.2192509,-9.3887725]
      }
    },
    {
      "type": "Feature",
      "properties": { 
      "IBGE:COD_UNICO_ENDERECO": "27355279",
      "addr:housenumber": "159",
      "addr:postcode": "48606-510",
      "addr:street": "Rua Caxias",
      "addr:suburb": "Paulo Afonso 4",
      "building": "yes"
      },
      "geometry": {
         "type": "Point",
         "coordinates": [-38.2144341,-9.3826427]
      }
    },
    {
      "type": "Feature",
      "properties": { 
      "IBGE:COD_UNICO_ENDERECO": "27355447",
      "addr:housenumber": "881",
      "addr:postcode": "48606-500",
      "addr:street": "Avenida Maranhão",
      "addr:suburb": "Paulo Afonso 4",
      "building": "yes"
      },
      "geometry": {
         "type": "Point",
         "coordinates": [-38.2133842,-9.3825784]
      }
    },
    {
      "type": "Feature",
      "properties": { 
      "IBGE:COD_UNICO_ENDERECO": "191716874",
      "addr:housenumber": "2225",
      "addr:postcode": "48606-500",
      "addr:street": "Avenida Maranhão",
      "addr:suburb": "Paulo Afonso 4",
      "addr:unit": "Casa A",
      "building": "yes"
      },
      "geometry": {
         "type": "Point",
         "coordinates": [-38.2222387,-9.3750184]
      }
    },
    {
      "type": "Feature",
      "properties": { 
      "IBGE:COD_UNICO_ENDERECO": "191716615",
      "addr:housenumber": "220",
      "addr:postcode": "48607-300",
      "addr:street": "Rua Angelim",
      "addr:suburb": "Paulo Afonso 4",
      "building": "yes"
      },
      "geometry": {
         "type": "Point",
         "coordinates": [-38.2180639,-9.3889663]
      }
    },
    {
      "type": "Feature",
      "properties": { 
      "IBGE:COD_UNICO_ENDERECO": "191717047",
      "addr:housenumber": "82",
      "addr:postcode": "48606-500",
      "addr:street": "Avenida Maranhão",
      "addr:suburb": "Paulo Afonso 4",
      "building": "yes",
      "fixme": "Verificar coordenadas",
      "note": "Muito afastado da face: 143m 0500-0037P-19-2"
      },
      "geometry": {
         "type": "Point",
         "coordinates": [-38.217955,-9.374726]
      }
    },
    {
      "type": "Feature",
      "properties": { 
      "IBGE:COD_UNICO_ENDERECO": "27355236",
      "addr:housenumber": "536",
      "addr:postcode": "48607-150",
      "addr:street": "Rua Recife",
      "addr:suburb": "Paulo Afonso 4",
      "building": "yes"
      },
      "geometry": {
         "type": "Point",
         "coordinates": [-38.2154012,-9.3887916]
      }
    },
    {
      "type": "Feature",
      "properties": { 
      "IBGE:COD_UNICO_ENDERECO": "27355477",
      "addr:housenumber": "43",
      "addr:postcode": "48607-245",
      "addr:street": "Rua da Consolação",
      "addr:suburb": "Paulo Afonso 4",
      "building": "yes"
      },
      "geometry": {
         "type": "Point",
         "coordinates": [-38.2105202,-9.3809785]
      }
    },
    {
      "type": "Feature",
      "properties": { 
      "IBGE:COD_UNICO_ENDERECO": "27355437",
      "addr:housenumber": "995 Térreo",
      "addr:postcode": "48606-500",
      "addr:street": "Avenida Maranhão",
      "addr:suburb": "Paulo Afonso 4",
      "building": "yes"
      },
      "geometry": {
         "type": "Point",
         "coordinates": [-38.214105705004,-9.3816947430548]
      }
    },
    {
      "type": "Feature",
      "properties": { 
      "IBGE:COD_UNICO_ENDERECO": "191716650",
      "addr:housenumber": "377",
      "addr:postcode": "48607-000",
      "addr:street": "Avenida Marcondes Ferraz",
      "addr:suburb": "Paulo Afonso 4",
      "building": "yes"
      },
      "geometry": {
         "type": "Point",
         "coordinates": [-38.2157252,-9.3896437]
      }
    },
    {
      "type": "Feature",
      "properties": { 
      "IBGE:COD_UNICO_ENDERECO": "191716503",
      "addr:housenumber": "133",
      "addr:postcode": "48607-290",
      "addr:street": "Rua Fortaleza",
      "addr:suburb": "Paulo Afonso 4",
      "building": "yes"
      },
      "geometry": {
         "type": "Point",
         "coordinates": [-38.2202218,-9.3883049]
      }
    },
    {
      "type": "Feature",
      "properties": { 
      "IBGE:COD_UNICO_ENDERECO": "27355402",
      "addr:housenumber": "15",
      "addr:postcode": "48606-500",
      "addr:suburb": "Paulo Afonso 4",
      "building": "yes"
      },
      "geometry": {
         "type": "Point",
         "coordinates": [-38.2242843,-9.3775062]
      }
    },
    {
      "type": "Feature",
      "properties": { 
      "IBGE:COD_UNICO_ENDERECO": "191717110",
      "addr:housenumber": "2603",
      "addr:postcode": "48606-500",
      "addr:street": "Avenida Maranhão",
      "addr:suburb": "Paulo Afonso 4",
      "building": "yes"
      },
      "geometry": {
         "type": "Point",
         "coordinates": [-38.2200964,-9.3747134]
      }
    },
    {
      "type": "Feature",
      "properties": { 
      "IBGE:COD_UNICO_ENDERECO": "27355242",
      "addr:housenumber": "341",
      "addr:postcode": "48607-000",
      "addr:street": "Avenida Marcondes Ferraz",
      "addr:suburb": "Paulo Afonso 4",
      "building": "yes"
      },
      "geometry": {
         "type": "Point",
         "coordinates": [-38.2158747,-9.3896521]
      }
    },
    {
      "type": "Feature",
      "properties": { 
      "IBGE:COD_UNICO_ENDERECO": "27355137",
      "addr:housenumber": "135",
      "addr:postcode": "48607-290",
      "addr:street": "Rua Fortaleza",
      "addr:suburb": "Paulo Afonso 4",
      "building": "yes"
      },
      "geometry": {
         "type": "Point",
         "coordinates": [-38.2203456,-9.3874998]
      }
    },
    {
      "type": "Feature",
      "properties": { 
      "IBGE:COD_UNICO_ENDERECO": "191716536",
      "addr:housenumber": "26",
      "addr:postcode": "48607-150",
      "addr:street": "Praça Doze de Agosto",
      "addr:suburb": "Paulo Afonso 4",
      "addr:unit": "Casa A",
      "building": "yes"
      },
      "geometry": {
         "type": "Point",
         "coordinates": [-38.2189429,-9.3872036]
      }
    },
    {
      "type": "Feature",
      "properties": { 
      "IBGE:COD_UNICO_ENDERECO": "27355392",
      "addr:housenumber": "2525",
      "addr:postcode": "48606-500",
      "addr:suburb": "Paulo Afonso 4",
      "building": "industrial",
      "man_made": "works",
      "name": "Fábrica de Argamassas"
      },
      "geometry": {
         "type": "Point",
         "coordinates": [-38.2203658,-9.3757395]
      }
    },
    {
      "type": "Feature",
      "properties": { 
      "IBGE:COD_UNICO_ENDERECO": "27355185",
      "addr:housenumber": "1",
      "addr:postcode": "48607-262",
      "addr:street": "Rua Garanhuns",
      "addr:suburb": "Paulo Afonso 4",
      "building": "yes"
      },
      "geometry": {
         "type": "Point",
         "coordinates": [-38.2190689,-9.388724]
      }
    },
    {
      "type": "Feature",
      "properties": { 
      "IBGE:COD_UNICO_ENDERECO": "191717053",
      "addr:housenumber": "25",
      "addr:postcode": "48606-500",
      "addr:street": "Avenida Maranhão",
      "addr:suburb": "Paulo Afonso 4",
      "building": "construction",
      "fixme": "Verificar coordenadas",
      "note": "Muito afastado da face: 165m 0500-0037P-19-2"
      },
      "geometry": {
         "type": "Point",
         "coordinates": [-38.217829,-9.374565]
      }
    },
    {
      "type": "Feature",
      "properties": { 
      "IBGE:COD_UNICO_ENDERECO": "27355484;191717057",
      "addr:housenumber": "8",
      "addr:postcode": "48606-500",
      "addr:street": "Avenida Maranhão",
      "addr:suburb": "Paulo Afonso 4",
      "building": "yes",
      "fixme": "Verificar coordenadas",
      "note": "Muito afastado da face: 53m 0500-0037P-19-2"
      },
      "geometry": {
         "type": "Point",
         "coordinates": [-38.2161415,-9.378135]
      }
    },
    {
      "type": "Feature",
      "properties": { 
      "IBGE:COD_UNICO_ENDERECO": "27355151",
      "addr:housenumber": "9",
      "addr:postcode": "48607-285",
      "addr:street": "Rua das Acácias",
      "addr:suburb": "Paulo Afonso 4",
      "building": "yes"
      },
      "geometry": {
         "type": "Point",
         "coordinates": [-38.219466,-9.3886313]
      }
    },
    {
      "type": "Feature",
      "properties": { 
      "IBGE:COD_UNICO_ENDERECO": "191716450",
      "addr:housenumber": "146",
      "addr:postcode": "48607-275",
      "addr:street": "Rua Crato",
      "addr:suburb": "Paulo Afonso 4",
      "addr:unit": "Casa 8",
      "building": "yes"
      },
      "geometry": {
         "type": "Point",
         "coordinates": [-38.221685070377,-9.3864587226804]
      }
    },
    {
      "type": "Feature",
      "properties": { 
      "IBGE:COD_UNICO_ENDERECO": "27355433",
      "addr:housenumber": "220",
      "addr:postcode": "48606-510",
      "addr:street": "Rua Caxias",
      "addr:suburb": "Paulo Afonso 4",
      "building": "yes"
      },
      "geometry": {
         "type": "Point",
         "coordinates": [-38.214394,-9.3821964]
      }
    },
    {
      "type": "Feature",
      "properties": { 
      "IBGE:COD_UNICO_ENDERECO": "27355246",
      "addr:housenumber": "225",
      "addr:postcode": "48607-000",
      "addr:street": "Avenida Marcondes Ferraz",
      "addr:suburb": "Paulo Afonso 4",
      "building": "yes"
      },
      "geometry": {
         "type": "Point",
         "coordinates": [-38.2169528,-9.389713]
      }
    },
    {
      "type": "Feature",
      "properties": { 
      "IBGE:COD_UNICO_ENDERECO": "27421449",
      "addr:housenumber": "109",
      "addr:postcode": "48607-410",
      "addr:street": "Rua Sergipe",
      "addr:suburb": "Paulo Afonso 4",
      "building": "yes"
      },
      "geometry": {
         "type": "Point",
         "coordinates": [-38.2235753,-9.3862037]
      }
    },
    {
      "type": "Feature",
      "properties": { 
      "IBGE:COD_UNICO_ENDERECO": "27355113",
      "addr:housenumber": "170",
      "addr:postcode": "48607-290",
      "addr:street": "Rua Fortaleza",
      "addr:suburb": "Paulo Afonso 4",
      "building": "yes"
      },
      "geometry": {
         "type": "Point",
         "coordinates": [-38.2205289,-9.3879448]
      }
    },
    {
      "type": "Feature",
      "properties": { 
      "IBGE:COD_UNICO_ENDERECO": "191716501",
      "addr:housenumber": "200",
      "addr:postcode": "48607-290",
      "addr:street": "Rua Fortaleza",
      "addr:suburb": "Paulo Afonso 4",
      "building": "yes"
      },
      "geometry": {
         "type": "Point",
         "coordinates": [-38.219914,-9.3886117]
      }
    },
    {
      "type": "Feature",
      "properties": { 
      "IBGE:COD_UNICO_ENDERECO": "191716613",
      "addr:housenumber": "165",
      "addr:postcode": "48607-300",
      "addr:street": "Rua Angelim",
      "addr:suburb": "Paulo Afonso 4",
      "building": "yes"
      },
      "geometry": {
         "type": "Point",
         "coordinates": [-38.218061,-9.388952]
      }
    },
    {
      "type": "Feature",
      "properties": { 
      "IBGE:COD_UNICO_ENDERECO": "191716496",
      "addr:housenumber": "165",
      "addr:postcode": "48607-290",
      "addr:street": "Rua Fortaleza",
      "addr:suburb": "Paulo Afonso 4",
      "addr:unit": "Casa A",
      "building": "yes"
      },
      "geometry": {
         "type": "Point",
         "coordinates": [-38.2203318,-9.387905]
      }
    },
    {
      "type": "Feature",
      "properties": { 
      "IBGE:COD_UNICO_ENDERECO": "27355171",
      "addr:housenumber": "145 Térreo",
      "addr:postcode": "48607-150",
      "addr:street": "Rua Recife",
      "addr:suburb": "Paulo Afonso 4",
      "building": "yes"
      },
      "geometry": {
         "type": "Point",
         "coordinates": [-38.218717448532,-9.3874843608877]
      }
    },
    {
      "type": "Feature",
      "properties": { 
      "IBGE:COD_UNICO_ENDERECO": "27355457",
      "addr:housenumber": "70",
      "addr:postcode": "48606-520",
      "addr:street": "Rua Arari",
      "addr:suburb": "Paulo Afonso 4",
      "building": "yes"
      },
      "geometry": {
         "type": "Point",
         "coordinates": [-38.2138776,-9.3822611]
      }
    },
    {
      "type": "Feature",
      "properties": { 
      "IBGE:COD_UNICO_ENDERECO": "27355396",
      "addr:housenumber": "4",
      "addr:postcode": "48606-500",
      "addr:suburb": "Paulo Afonso 4",
      "building": "industrial",
      "man_made": "works",
      "name": "Fábrica de Placa de Gesso do Pedro"
      },
      "geometry": {
         "type": "Point",
         "coordinates": [-38.2255443,-9.3770657]
      }
    },
    {
      "type": "Feature",
      "properties": { 
      "IBGE:COD_UNICO_ENDERECO": "191717043",
      "addr:housenumber": "6",
      "addr:postcode": "48606-500",
      "addr:street": "Avenida Maranhão",
      "addr:suburb": "Paulo Afonso 4",
      "addr:unit": "Casa A",
      "building": "yes"
      },
      "geometry": {
         "type": "Point",
         "coordinates": [-38.2136732,-9.3812418]
      }
    },
    {
      "type": "Feature",
      "properties": { 
      "IBGE:COD_UNICO_ENDERECO": "191716556",
      "addr:housenumber": "132",
      "addr:postcode": "48607-150",
      "addr:street": "Rua Recife",
      "addr:suburb": "Paulo Afonso 4",
      "building": "yes"
      },
      "geometry": {
         "type": "Point",
         "coordinates": [-38.218723,-9.3876912]
      }
    },
    {
      "type": "Feature",
      "properties": { 
      "IBGE:COD_UNICO_ENDERECO": "27355244",
      "addr:housenumber": "281",
      "addr:postcode": "48607-000",
      "addr:street": "Avenida Marcondes Ferraz",
      "addr:suburb": "Paulo Afonso 4",
      "building": "yes"
      },
      "geometry": {
         "type": "Point",
         "coordinates": [-38.2165094,-9.389688]
      }
    },
    {
      "type": "Feature",
      "properties": { 
      "IBGE:COD_UNICO_ENDERECO": "27355112",
      "addr:housenumber": "136",
      "addr:postcode": "48607-290",
      "addr:street": "Rua Fortaleza",
      "addr:suburb": "Paulo Afonso 4",
      "building": "yes"
      },
      "geometry": {
         "type": "Point",
         "coordinates": [-38.2205506,-9.3875448]
      }
    }
  ]
}
