{
  "type": "FeatureCollection",
  "generator": "CSV-CNEFE2GeoJSON.lua 1.5.7 - fidelis.assis@gmail.com",
  "source": "IBGE CNEFE + Faces de Logradouros - 2022",
  "date": "2025-02-02T09:05:24-0300",
  "features": [
    {
      "type": "Feature",
      "properties": { 
      "IBGE:COD_UNICO_ENDERECO": "112591257",
      "addr:housenumber": "2",
      "addr:postcode": "48601-248",
      "addr:street": "Estrada do Tabuleirinho para O Sítio do Tara",
      "addr:suburb": "Estrada para Tabuleiro",
      "building": "yes",
      "fixme": "Verificar coordenadas",
      "note": "Sem setor ou quadra no bayface do IBGE 0500-0229P-0-97"
      },
      "geometry": {
         "type": "Point",
         "coordinates": [-38.073417,-9.58339]
      }
    },
    {
      "type": "Feature",
      "properties": { 
      "IBGE:COD_UNICO_ENDERECO": "27414823",
      "addr:housenumber": "29",
      "addr:postcode": "48601-248",
      "addr:street": "Povoado Tabuleirinho",
      "addr:suburb": "Estrada para Tabuleiro",
      "addr:unit": "Fundos Casa",
      "amenity": "pub",
      "building": "yes",
      "fixme": "Verificar coordenadas",
      "name": "Bar do Flamengo",
      "note": "Sem setor ou quadra no bayface do IBGE 0500-0229P-0-78"
      },
      "geometry": {
         "type": "Point",
         "coordinates": [-38.074627,-9.589981]
      }
    },
    {
      "type": "Feature",
      "properties": { 
      "IBGE:COD_UNICO_ENDERECO": "27414844",
      "addr:housenumber": "37",
      "addr:postcode": "48601-248",
      "addr:street": "Povoado Tabuleirinho",
      "addr:suburb": "Estrada para Tabuleiro",
      "addr:unit": "Casa",
      "building": "yes",
      "fixme": "Verificar coordenadas",
      "note": "Sem setor ou quadra no bayface do IBGE 0500-0229P-0-78"
      },
      "geometry": {
         "type": "Point",
         "coordinates": [-38.0758,-9.592609]
      }
    },
    {
      "type": "Feature",
      "properties": { 
      "IBGE:COD_UNICO_ENDERECO": "27414826",
      "addr:housenumber": "23",
      "addr:postcode": "48601-248",
      "addr:street": "Povoado Tabuleirinho",
      "addr:suburb": "Estrada para Tabuleiro",
      "addr:unit": "Fundos Casa",
      "amenity": "pub",
      "building": "yes",
      "description": "CNEFE 2022 Bar",
      "fixme": "Verificar coordenadas",
      "note": "Sem setor ou quadra no bayface do IBGE 0500-0229P-0-78"
      },
      "geometry": {
         "type": "Point",
         "coordinates": [-38.074544,-9.591056]
      }
    },
    {
      "type": "Feature",
      "properties": { 
      "IBGE:COD_UNICO_ENDERECO": "27414845",
      "addr:housenumber": "37",
      "addr:postcode": "48601-016",
      "addr:street": "Povoado Tabuleirinho",
      "addr:suburb": "Estrada para Tabuleiro",
      "addr:unit": "Fundos Casa",
      "building": "yes",
      "fixme": "Verificar coordenadas",
      "name": "Fazenda",
      "note": "Sem setor ou quadra no bayface do IBGE 0500-0229P-0-94",
      "place": "farm"
      },
      "geometry": {
         "type": "Point",
         "coordinates": [-38.061315,-9.586195]
      }
    },
    {
      "type": "Feature",
      "properties": { 
      "IBGE:COD_UNICO_ENDERECO": "27414807",
      "addr:housenumber": "47",
      "addr:postcode": "48601-248",
      "addr:street": "Povoado Tabuleirinho",
      "addr:suburb": "Estrada para Tabuleiro",
      "addr:unit": "Casa",
      "building": "yes",
      "fixme": "Verificar coordenadas",
      "note": "Sem setor ou quadra no bayface do IBGE 0500-0229P-0-78"
      },
      "geometry": {
         "type": "Point",
         "coordinates": [-38.075178,-9.589654]
      }
    },
    {
      "type": "Feature",
      "properties": { 
      "IBGE:COD_UNICO_ENDERECO": "27414810",
      "addr:housenumber": "10",
      "addr:postcode": "48601-248",
      "addr:street": "Povoado Tabuleirinho",
      "addr:suburb": "Estrada para Tabuleiro",
      "addr:unit": "Casa",
      "building": "yes",
      "fixme": "Verificar coordenadas",
      "note": "Sem setor ou quadra no bayface do IBGE 0500-0229P-0-78"
      },
      "geometry": {
         "type": "Point",
         "coordinates": [-38.07337,-9.587724]
      }
    },
    {
      "type": "Feature",
      "properties": { 
      "IBGE:COD_UNICO_ENDERECO": "27414811",
      "addr:housenumber": "46",
      "addr:postcode": "48601-248",
      "addr:street": "Povoado Tabuleirinho",
      "addr:suburb": "Estrada para Tabuleiro",
      "addr:unit": "Fundos Casa",
      "building": "yes",
      "fixme": "Verificar coordenadas",
      "note": "Sem setor ou quadra no bayface do IBGE 0500-0229P-0-78"
      },
      "geometry": {
         "type": "Point",
         "coordinates": [-38.074481,-9.588716]
      }
    },
    {
      "type": "Feature",
      "properties": { 
      "IBGE:COD_UNICO_ENDERECO": "27414828",
      "addr:housenumber": "51",
      "addr:postcode": "48601-248",
      "addr:street": "Povoado Tabuleirinho",
      "addr:suburb": "Estrada para Tabuleiro",
      "addr:unit": "Casa",
      "building": "yes",
      "fixme": "Verificar coordenadas",
      "note": "Sem setor ou quadra no bayface do IBGE 0500-0229P-0-78"
      },
      "geometry": {
         "type": "Point",
         "coordinates": [-38.074541,-9.591109]
      }
    },
    {
      "type": "Feature",
      "properties": { 
      "IBGE:COD_UNICO_ENDERECO": "112591223",
      "addr:housenumber": "54",
      "addr:postcode": "48601-248",
      "addr:street": "Estrada do Tabuleirinho para O Sítio do Tara",
      "addr:suburb": "Estrada para Tabuleiro",
      "building": "yes",
      "fixme": "Verificar coordenadas",
      "note": "Sem setor ou quadra no bayface do IBGE 0500-0229P-0-97"
      },
      "geometry": {
         "type": "Point",
         "coordinates": [-38.073519,-9.583321]
      }
    },
    {
      "type": "Feature",
      "properties": { 
      "IBGE:COD_UNICO_ENDERECO": "27414800;27414824;27414847-27414848",
      "addr:housenumber": "5",
      "addr:postcode": "48601-248",
      "addr:street": "Povoado Tabuleirinho",
      "addr:suburb": "Estrada para Tabuleiro",
      "addr:unit": "Casa",
      "building": "yes",
      "fixme": "Verificar coordenadas",
      "note": "Sem setor ou quadra no bayface do IBGE 0500-0229P-0-78"
      },
      "geometry": {
         "type": "Point",
         "coordinates": [-38.0754373,-9.5907645]
      }
    },
    {
      "type": "Feature",
      "properties": { 
      "IBGE:COD_UNICO_ENDERECO": "27414849",
      "addr:housenumber": "11",
      "addr:postcode": "48601-248",
      "addr:street": "Povoado Tabuleirinho",
      "addr:suburb": "Estrada para Tabuleiro",
      "addr:unit": "Fundos Casa",
      "building": "yes",
      "fixme": "Verificar coordenadas",
      "note": "Sem setor ou quadra no bayface do IBGE 0500-0229P-0-78"
      },
      "geometry": {
         "type": "Point",
         "coordinates": [-38.07691,-9.594646]
      }
    },
    {
      "type": "Feature",
      "properties": { 
      "IBGE:COD_UNICO_ENDERECO": "27414803",
      "addr:housenumber": "22",
      "addr:postcode": "48601-248",
      "addr:street": "Povoado Tabuleirinho",
      "addr:suburb": "Estrada para Tabuleiro",
      "addr:unit": "Casa",
      "building": "yes",
      "fixme": "Verificar coordenadas",
      "note": "Sem setor ou quadra no bayface do IBGE 0500-0229P-0-78"
      },
      "geometry": {
         "type": "Point",
         "coordinates": [-38.074506,-9.587112]
      }
    },
    {
      "type": "Feature",
      "properties": { 
      "IBGE:COD_UNICO_ENDERECO": "27414820",
      "addr:housenumber": "302",
      "addr:postcode": "48601-248",
      "addr:street": "Povoado Tabuleirinho",
      "addr:suburb": "Estrada para Tabuleiro",
      "addr:unit": "Casa",
      "building": "yes",
      "fixme": "Verificar coordenadas",
      "note": "Sem setor ou quadra no bayface do IBGE 0500-0229P-0-78"
      },
      "geometry": {
         "type": "Point",
         "coordinates": [-38.075047,-9.590823]
      }
    },
    {
      "type": "Feature",
      "properties": { 
      "IBGE:COD_UNICO_ENDERECO": "27414842",
      "addr:housenumber": "3",
      "addr:postcode": "48601-248",
      "addr:street": "Povoado Tabuleirinho",
      "addr:suburb": "Estrada para Tabuleiro",
      "addr:unit": "Casa",
      "building": "construction",
      "fixme": "Verificar coordenadas",
      "note": "Sem setor ou quadra no bayface do IBGE 0500-0229P-0-78"
      },
      "geometry": {
         "type": "Point",
         "coordinates": [-38.074549,-9.591242]
      }
    },
    {
      "type": "Feature",
      "properties": { 
      "IBGE:COD_UNICO_ENDERECO": "27414835",
      "addr:housenumber": "32",
      "addr:postcode": "48601-248",
      "addr:street": "Povoado Tabuleirinho",
      "addr:suburb": "Estrada para Tabuleiro",
      "addr:unit": "Fundos Casa",
      "building": "yes",
      "fixme": "Verificar coordenadas",
      "note": "Sem setor ou quadra no bayface do IBGE 0500-0229P-0-78"
      },
      "geometry": {
         "type": "Point",
         "coordinates": [-38.073956,-9.591631]
      }
    },
    {
      "type": "Feature",
      "properties": { 
      "IBGE:COD_UNICO_ENDERECO": "27414831",
      "addr:housenumber": "16",
      "addr:postcode": "48601-248",
      "addr:street": "Povoado Tabuleirinho",
      "addr:suburb": "Estrada para Tabuleiro",
      "addr:unit": "Fundos Casa",
      "building": "yes",
      "fixme": "Verificar coordenadas",
      "note": "Sem setor ou quadra no bayface do IBGE 0500-0229P-0-78"
      },
      "geometry": {
         "type": "Point",
         "coordinates": [-38.07377,-9.591926]
      }
    },
    {
      "type": "Feature",
      "properties": { 
      "IBGE:COD_UNICO_ENDERECO": "192033464",
      "addr:housenumber": "3",
      "addr:postcode": "48601-248",
      "addr:street": "Povoado Tabuleirinho",
      "addr:suburb": "Estrada para Tabuleiro",
      "building": "yes",
      "fixme": "Verificar coordenadas",
      "note": "Sem setor ou quadra no bayface do IBGE 0500-0229P-0-78"
      },
      "geometry": {
         "type": "Point",
         "coordinates": [-38.073468,-9.583298]
      }
    },
    {
      "type": "Feature",
      "properties": { 
      "IBGE:COD_UNICO_ENDERECO": "27414794",
      "addr:housenumber": "1",
      "addr:postcode": "48601-248",
      "addr:street": "Povoado Tabuleirinho",
      "addr:suburb": "Estrada para Tabuleiro",
      "addr:unit": "Casa",
      "building": "yes",
      "fixme": "Verificar coordenadas",
      "note": "Sem setor ou quadra no bayface do IBGE 0500-0229P-0-78"
      },
      "geometry": {
         "type": "Point",
         "coordinates": [-38.0728,-9.582942]
      }
    },
    {
      "type": "Feature",
      "properties": { 
      "IBGE:COD_UNICO_ENDERECO": "27414840",
      "addr:housenumber": "28",
      "addr:postcode": "48601-248",
      "addr:street": "Povoado Tabuleirinho",
      "addr:suburb": "Estrada para Tabuleiro",
      "addr:unit": "Fundos Pavilhão",
      "building": "yes",
      "fixme": "Verificar coordenadas",
      "note": "Sem setor ou quadra no bayface do IBGE 0500-0229P-0-78"
      },
      "geometry": {
         "type": "Point",
         "coordinates": [-38.084986,-9.602539]
      }
    },
    {
      "type": "Feature",
      "properties": { 
      "IBGE:COD_UNICO_ENDERECO": "27414839",
      "addr:housenumber": "26",
      "addr:postcode": "48601-248",
      "addr:street": "Povoado Tabuleirinho",
      "addr:suburb": "Estrada para Tabuleiro",
      "addr:unit": "Fundos Casa",
      "building": "yes",
      "fixme": "Verificar coordenadas",
      "note": "Sem setor ou quadra no bayface do IBGE 0500-0229P-0-78"
      },
      "geometry": {
         "type": "Point",
         "coordinates": [-38.074535,-9.591836]
      }
    },
    {
      "type": "Feature",
      "properties": { 
      "IBGE:COD_UNICO_ENDERECO": "27414817",
      "addr:housenumber": "44",
      "addr:postcode": "48601-248",
      "addr:street": "Povoado Tabuleirinho",
      "addr:suburb": "Estrada para Tabuleiro",
      "addr:unit": "Fundos Casa",
      "building": "yes",
      "fixme": "Verificar coordenadas",
      "note": "Sem setor ou quadra no bayface do IBGE 0500-0229P-0-78"
      },
      "geometry": {
         "type": "Point",
         "coordinates": [-38.074494,-9.589753]
      }
    },
    {
      "type": "Feature",
      "properties": { 
      "IBGE:COD_UNICO_ENDERECO": "27414850",
      "addr:housenumber": "39",
      "addr:postcode": "48601-248",
      "addr:street": "Povoado Tabuleirinho",
      "addr:suburb": "Estrada para Tabuleiro",
      "addr:unit": "Fundos Casa",
      "building": "yes",
      "fixme": "Verificar coordenadas",
      "note": "Sem setor ou quadra no bayface do IBGE 0500-0229P-0-78"
      },
      "geometry": {
         "type": "Point",
         "coordinates": [-38.076708,-9.594371]
      }
    },
    {
      "type": "Feature",
      "properties": { 
      "IBGE:COD_UNICO_ENDERECO": "27414802;27414830;27414837",
      "addr:housenumber": "8",
      "addr:postcode": "48601-248",
      "addr:street": "Povoado Tabuleirinho",
      "addr:suburb": "Estrada para Tabuleiro",
      "addr:unit": "Casa",
      "building": "yes",
      "fixme": "Verificar coordenadas",
      "note": "Sem setor ou quadra no bayface do IBGE 0500-0229P-0-78"
      },
      "geometry": {
         "type": "Point",
         "coordinates": [-38.0741077,-9.5888853]
      }
    },
    {
      "type": "Feature",
      "properties": { 
      "IBGE:COD_UNICO_ENDERECO": "112591126",
      "addr:housenumber": "8",
      "addr:postcode": "48601-248",
      "addr:street": "Estrada do Tabuleirinho para O Sítio do Tara",
      "addr:suburb": "Estrada para Tabuleiro",
      "building": "yes",
      "fixme": "Verificar coordenadas",
      "note": "Sem setor ou quadra no bayface do IBGE 0500-0229P-0-97"
      },
      "geometry": {
         "type": "Point",
         "coordinates": [-38.074455,-9.587773]
      }
    },
    {
      "type": "Feature",
      "properties": { 
      "IBGE:COD_UNICO_ENDERECO": "27414799;27414801",
      "addr:housenumber": "7",
      "addr:postcode": "48601-248",
      "addr:street": "Povoado Tabuleirinho",
      "addr:suburb": "Estrada para Tabuleiro",
      "addr:unit": "Casa",
      "building": "yes",
      "fixme": "Verificar coordenadas",
      "note": "Sem setor ou quadra no bayface do IBGE 0500-0229P-0-78"
      },
      "geometry": {
         "type": "Point",
         "coordinates": [-38.074641,-9.586753]
      }
    },
    {
      "type": "Feature",
      "properties": { 
      "IBGE:COD_UNICO_ENDERECO": "27414814",
      "addr:housenumber": "6",
      "addr:postcode": "48601-248",
      "addr:street": "Povoado Tabuleirinho",
      "addr:suburb": "Estrada para Tabuleiro",
      "building": "yes",
      "fixme": "Verificar coordenadas",
      "note": "Sem setor ou quadra no bayface do IBGE 0500-0229P-0-78"
      },
      "geometry": {
         "type": "Point",
         "coordinates": [-38.07446,-9.589367]
      }
    },
    {
      "type": "Feature",
      "properties": { 
      "IBGE:COD_UNICO_ENDERECO": "27414809;27414825",
      "addr:housenumber": "9",
      "addr:postcode": "48601-248",
      "addr:street": "Povoado Tabuleirinho",
      "addr:suburb": "Estrada para Tabuleiro",
      "addr:unit": "Casa",
      "building": "yes",
      "fixme": "Verificar coordenadas",
      "note": "Sem setor ou quadra no bayface do IBGE 0500-0229P-0-78"
      },
      "geometry": {
         "type": "Point",
         "coordinates": [-38.07395,-9.5899585]
      }
    },
    {
      "type": "Feature",
      "properties": { 
      "IBGE:COD_UNICO_ENDERECO": "27414827",
      "addr:housenumber": "47",
      "addr:postcode": "48601-248",
      "addr:street": "Povoado Tabuleirinho",
      "addr:suburb": "Estrada para Tabuleiro",
      "addr:unit": "Fundos Casa",
      "building": "yes",
      "fixme": "Verificar coordenadas",
      "note": "Sem setor ou quadra no bayface do IBGE 0500-0229P-0-78"
      },
      "geometry": {
         "type": "Point",
         "coordinates": [-38.074029,-9.591116]
      }
    },
    {
      "type": "Feature",
      "properties": { 
      "IBGE:COD_UNICO_ENDERECO": "27414816",
      "addr:housenumber": "1",
      "addr:postcode": "48601-248",
      "addr:street": "Povoado Tabuleirinho",
      "addr:suburb": "Estrada para Tabuleiro",
      "amenity": "school",
      "building": "yes",
      "fixme": "Verificar coordenadas",
      "name": "Esc Mun Manoel Gomes de Sá",
      "note": "Sem setor ou quadra no bayface do IBGE 0500-0229P-0-78"
      },
      "geometry": {
         "type": "Point",
         "coordinates": [-38.074692,-9.589932]
      }
    },
    {
      "type": "Feature",
      "properties": { 
      "IBGE:COD_UNICO_ENDERECO": "27414808",
      "addr:housenumber": "11",
      "addr:postcode": "48619-899",
      "addr:street": "Povoado Tabuleirinho",
      "addr:suburb": "Estrada para Tabuleiro",
      "addr:unit": "Casa",
      "building": "yes",
      "fixme": "Verificar coordenadas",
      "note": "Sem setor ou quadra no bayface do IBGE 0500-0229P-0-99"
      },
      "geometry": {
         "type": "Point",
         "coordinates": [-38.074458,-9.587652]
      }
    },
    {
      "type": "Feature",
      "properties": { 
      "IBGE:COD_UNICO_ENDERECO": "27414797",
      "addr:housenumber": "6",
      "addr:postcode": "48601-248",
      "addr:street": "Povoado Tabuleirinho",
      "addr:suburb": "Estrada para Tabuleiro",
      "addr:unit": "Casa",
      "building": "yes",
      "fixme": "Verificar coordenadas",
      "note": "Sem setor ou quadra no bayface do IBGE 0500-0229P-0-78"
      },
      "geometry": {
         "type": "Point",
         "coordinates": [-38.077126,-9.594609]
      }
    },
    {
      "type": "Feature",
      "properties": { 
      "IBGE:COD_UNICO_ENDERECO": "27414796",
      "addr:housenumber": "2",
      "addr:postcode": "48601-248",
      "addr:street": "Povoado Tabuleirinho",
      "addr:suburb": "Estrada para Tabuleiro",
      "addr:unit": "Casa",
      "building": "yes",
      "fixme": "Verificar coordenadas",
      "note": "Sem setor ou quadra no bayface do IBGE 0500-0229P-0-78"
      },
      "geometry": {
         "type": "Point",
         "coordinates": [-38.074605,-9.591768]
      }
    },
    {
      "type": "Feature",
      "properties": { 
      "IBGE:COD_UNICO_ENDERECO": "27414834",
      "addr:housenumber": "31",
      "addr:postcode": "48601-248",
      "addr:street": "Povoado Tabuleirinho",
      "addr:suburb": "Estrada para Tabuleiro",
      "addr:unit": "Fundos Casa",
      "building": "yes",
      "fixme": "Verificar coordenadas",
      "note": "Sem setor ou quadra no bayface do IBGE 0500-0229P-0-78"
      },
      "geometry": {
         "type": "Point",
         "coordinates": [-38.074114,-9.591754]
      }
    },
    {
      "type": "Feature",
      "properties": { 
      "IBGE:COD_UNICO_ENDERECO": "27414838",
      "addr:housenumber": "13",
      "addr:postcode": "48601-248",
      "addr:street": "Povoado Tabuleirinho",
      "addr:suburb": "Estrada para Tabuleiro",
      "addr:unit": "Casa",
      "building": "yes",
      "fixme": "Verificar coordenadas",
      "note": "Sem setor ou quadra no bayface do IBGE 0500-0229P-0-78"
      },
      "geometry": {
         "type": "Point",
         "coordinates": [-38.074621,-9.591851]
      }
    },
    {
      "type": "Feature",
      "properties": { 
      "IBGE:COD_UNICO_ENDERECO": "27414846",
      "addr:housenumber": "5",
      "addr:postcode": "48601-248",
      "addr:street": "Povoado Tabuleirinho",
      "addr:suburb": "Estrada para Tabuleiro",
      "addr:unit": "Fundos Casa",
      "building": "yes",
      "fixme": "Verificar coordenadas",
      "note": "Sem setor ou quadra no bayface do IBGE 0500-0229P-0-78"
      },
      "geometry": {
         "type": "Point",
         "coordinates": [-38.076795,-9.594389]
      }
    },
    {
      "type": "Feature",
      "properties": { 
      "IBGE:COD_UNICO_ENDERECO": "27414818",
      "addr:housenumber": "12",
      "addr:postcode": "48601-248",
      "addr:street": "Povoado Tabuleirinho",
      "addr:suburb": "Estrada para Tabuleiro",
      "addr:unit": "Fundos",
      "building": "yes",
      "fixme": "Verificar coordenadas",
      "note": "Sem setor ou quadra no bayface do IBGE 0500-0229P-0-78"
      },
      "geometry": {
         "type": "Point",
         "coordinates": [-38.074178,-9.5896]
      }
    }
  ]
}
