{
  "type": "FeatureCollection",
  "generator": "CSV-CNEFE2GeoJSON.lua 1.5.7 - fidelis.assis@gmail.com",
  "source": "IBGE CNEFE + Faces de Logradouros - 2022",
  "date": "2025-02-02T09:05:24-0300",
  "features": [
    {
      "type": "Feature",
      "properties": { 
      "IBGE:COD_UNICO_ENDERECO": "112589736",
      "addr:housenumber": "94",
      "addr:postcode": "48619-899",
      "addr:street": "Estrada do São José para Paulo Afonso",
      "addr:suburb": "Estrada para Paulo Afonso",
      "building": "yes",
      "fixme": "Verificar coordenadas",
      "note": "Sem setor ou quadra no bayface do IBGE 0500-0217P-0-97"
      },
      "geometry": {
         "type": "Point",
         "coordinates": [-38.326274,-9.593021]
      }
    },
    {
      "type": "Feature",
      "properties": { 
      "IBGE:COD_UNICO_ENDERECO": "194564795",
      "addr:housenumber": "30",
      "addr:postcode": "48619-899",
      "addr:street": "Estrada da Barrinha para O São Domingos",
      "addr:suburb": "Estrada para Paulo Afonso",
      "addr:unit": "A30",
      "building": "yes",
      "fixme": "Verificar coordenadas",
      "note": "Sem setor ou quadra no bayface do IBGE 0500-0217P-0-99"
      },
      "geometry": {
         "type": "Point",
         "coordinates": [-38.314543,-9.583442]
      }
    },
    {
      "type": "Feature",
      "properties": { 
      "IBGE:COD_UNICO_ENDERECO": "194564771",
      "addr:housenumber": "10",
      "addr:postcode": "48619-899",
      "addr:street": "Estrada Para Paulo Afonso",
      "addr:suburb": "Estrada para Paulo Afonso",
      "addr:unit": "Corlba A10",
      "building": "yes",
      "fixme": "Verificar coordenadas",
      "note": "Sem setor ou quadra no bayface do IBGE 0500-0217P-0-96"
      },
      "geometry": {
         "type": "Point",
         "coordinates": [-38.317091,-9.582201]
      }
    },
    {
      "type": "Feature",
      "properties": { 
      "IBGE:COD_UNICO_ENDERECO": "27415820",
      "addr:housenumber": "8",
      "addr:postcode": "48601-248",
      "addr:street": "Estrada Para Paulo Afonso",
      "addr:suburb": "Estrada para Paulo Afonso",
      "addr:unit": "Fundos",
      "building": "yes",
      "fixme": "Verificar coordenadas",
      "note": "Sem setor ou quadra no bayface do IBGE 0500-0217P-0-74"
      },
      "geometry": {
         "type": "Point",
         "coordinates": [-38.323905,-9.568998]
      }
    },
    {
      "type": "Feature",
      "properties": { 
      "IBGE:COD_UNICO_ENDERECO": "112589723",
      "addr:housenumber": "100",
      "addr:postcode": "48619-899",
      "addr:street": "Estrada do São José para Paulo Afonso",
      "addr:suburb": "Estrada para Paulo Afonso",
      "building": "yes",
      "fixme": "Verificar coordenadas",
      "note": "Sem setor ou quadra no bayface do IBGE 0500-0217P-0-97"
      },
      "geometry": {
         "type": "Point",
         "coordinates": [-38.326103,-9.591055]
      }
    },
    {
      "type": "Feature",
      "properties": { 
      "IBGE:COD_UNICO_ENDERECO": "27415781",
      "addr:housenumber": "150",
      "addr:postcode": "48601-036",
      "addr:street": "Estrada Para Paulo Afonso",
      "addr:suburb": "Estrada para Paulo Afonso",
      "building": "yes",
      "fixme": "Verificar coordenadas",
      "note": "Sem setor ou quadra no bayface do IBGE 0500-0217P-0-78"
      },
      "geometry": {
         "type": "Point",
         "coordinates": [-38.326258,-9.593099]
      }
    },
    {
      "type": "Feature",
      "properties": { 
      "IBGE:COD_UNICO_ENDERECO": "27415809",
      "addr:housenumber": "640",
      "addr:postcode": "48601-248",
      "addr:street": "Estrada Para Paulo Afonso",
      "addr:suburb": "Estrada para Paulo Afonso",
      "building": "yes",
      "fixme": "Verificar coordenadas",
      "note": "Sem setor ou quadra no bayface do IBGE 0500-0217P-0-74"
      },
      "geometry": {
         "type": "Point",
         "coordinates": [-38.325691,-9.586298]
      }
    },
    {
      "type": "Feature",
      "properties": { 
      "IBGE:COD_UNICO_ENDERECO": "112589729",
      "addr:housenumber": "92",
      "addr:postcode": "48619-899",
      "addr:street": "Estrada do São José para Paulo Afonso",
      "addr:suburb": "Estrada para Paulo Afonso",
      "building": "yes",
      "fixme": "Verificar coordenadas",
      "note": "Sem setor ou quadra no bayface do IBGE 0500-0217P-0-97"
      },
      "geometry": {
         "type": "Point",
         "coordinates": [-38.327092,-9.598269]
      }
    },
    {
      "type": "Feature",
      "properties": { 
      "IBGE:COD_UNICO_ENDERECO": "112589647",
      "addr:housenumber": "14",
      "addr:postcode": "48601-016",
      "addr:street": "Estrada do São José para Paulo Afonso",
      "addr:suburb": "Estrada para Paulo Afonso",
      "addr:unit": "Fundos",
      "building": "yes",
      "fixme": "Verificar coordenadas",
      "note": "Sem setor ou quadra no bayface do IBGE 0500-0217P-0-76"
      },
      "geometry": {
         "type": "Point",
         "coordinates": [-38.324234,-9.566711]
      }
    },
    {
      "type": "Feature",
      "properties": { 
      "IBGE:COD_UNICO_ENDERECO": "27415798",
      "addr:housenumber": "15",
      "addr:postcode": "48619-899",
      "addr:street": "Estrada Para Paulo Afonso",
      "addr:suburb": "Estrada para Paulo Afonso",
      "building": "yes",
      "fixme": "Verificar coordenadas",
      "note": "Sem setor ou quadra no bayface do IBGE 0500-0217P-0-96"
      },
      "geometry": {
         "type": "Point",
         "coordinates": [-38.320601,-9.586829]
      }
    },
    {
      "type": "Feature",
      "properties": { 
      "IBGE:COD_UNICO_ENDERECO": "112589683",
      "addr:housenumber": "49",
      "addr:postcode": "48619-899",
      "addr:street": "Estrada do São José para Paulo Afonso",
      "addr:suburb": "Estrada para Paulo Afonso",
      "building": "yes",
      "fixme": "Verificar coordenadas",
      "note": "Sem setor ou quadra no bayface do IBGE 0500-0217P-0-97"
      },
      "geometry": {
         "type": "Point",
         "coordinates": [-38.320739,-9.586803]
      }
    },
    {
      "type": "Feature",
      "properties": { 
      "IBGE:COD_UNICO_ENDERECO": "112590123",
      "addr:housenumber": "115",
      "addr:postcode": "48601-014",
      "addr:street": "Estrada Estrada Paulo Afonso",
      "addr:suburb": "Estrada para Paulo Afonso",
      "building": "yes",
      "fixme": "Verificar coordenadas",
      "note": "Sem setor ou quadra no bayface do IBGE 0500-0217P-0-100"
      },
      "geometry": {
         "type": "Point",
         "coordinates": [-38.331997,-9.605293]
      }
    },
    {
      "type": "Feature",
      "properties": { 
      "IBGE:COD_UNICO_ENDERECO": "112589773",
      "addr:housenumber": "74",
      "addr:postcode": "48601-248",
      "addr:street": "Estrada do São José para Paulo Afonso",
      "addr:suburb": "Estrada para Paulo Afonso",
      "building": "yes",
      "fixme": "Verificar coordenadas",
      "note": "Sem setor ou quadra no bayface do IBGE 0500-0217P-0-88"
      },
      "geometry": {
         "type": "Point",
         "coordinates": [-38.324747,-9.588736]
      }
    },
    {
      "type": "Feature",
      "properties": { 
      "IBGE:COD_UNICO_ENDERECO": "112589202",
      "addr:housenumber": "71",
      "addr:postcode": "48601-248",
      "addr:street": "Estrada Estrada Paulo Afonso",
      "addr:suburb": "Estrada para Paulo Afonso",
      "building": "yes",
      "fixme": "Verificar coordenadas",
      "note": "Sem setor ou quadra no bayface do IBGE 0500-0217P-0-86"
      },
      "geometry": {
         "type": "Point",
         "coordinates": [-38.325762,-9.587361]
      }
    },
    {
      "type": "Feature",
      "properties": { 
      "IBGE:COD_UNICO_ENDERECO": "27415817",
      "addr:housenumber": "41",
      "addr:postcode": "48601-248",
      "addr:street": "Estrada Para Paulo Afonso",
      "addr:suburb": "Estrada para Paulo Afonso",
      "building": "yes",
      "fixme": "Verificar coordenadas",
      "note": "Sem setor ou quadra no bayface do IBGE 0500-0217P-0-74"
      },
      "geometry": {
         "type": "Point",
         "coordinates": [-38.324637,-9.577047]
      }
    },
    {
      "type": "Feature",
      "properties": { 
      "IBGE:COD_UNICO_ENDERECO": "194564885",
      "addr:housenumber": "91",
      "addr:postcode": "48619-899",
      "addr:street": "Povoado Sítio do Lúcio",
      "addr:suburb": "Estrada para Paulo Afonso",
      "building": "yes",
      "fixme": "Verificar coordenadas",
      "note": "Sem setor ou quadra no bayface do IBGE 0500-0217P-0-109"
      },
      "geometry": {
         "type": "Point",
         "coordinates": [-38.319155,-9.640407]
      }
    },
    {
      "type": "Feature",
      "properties": { 
      "IBGE:COD_UNICO_ENDERECO": "27415829",
      "addr:housenumber": "80",
      "addr:postcode": "48601-016",
      "addr:street": "Estrada Para Paulo Afonso",
      "addr:suburb": "Estrada para Paulo Afonso",
      "building": "yes",
      "fixme": "Verificar coordenadas",
      "note": "Sem setor ou quadra no bayface do IBGE 0500-0217P-0-77"
      },
      "geometry": {
         "type": "Point",
         "coordinates": [-38.325035,-9.561585]
      }
    },
    {
      "type": "Feature",
      "properties": { 
      "IBGE:COD_UNICO_ENDERECO": "112589691",
      "addr:housenumber": "51",
      "addr:postcode": "48619-899",
      "addr:street": "Estrada do São José para Paulo Afonso",
      "addr:suburb": "Estrada para Paulo Afonso",
      "building": "yes",
      "fixme": "Verificar coordenadas",
      "note": "Sem setor ou quadra no bayface do IBGE 0500-0217P-0-97"
      },
      "geometry": {
         "type": "Point",
         "coordinates": [-38.321053,-9.58611]
      }
    },
    {
      "type": "Feature",
      "properties": { 
      "IBGE:COD_UNICO_ENDERECO": "27415797",
      "addr:housenumber": "14",
      "addr:postcode": "48619-899",
      "addr:street": "Estrada Para Paulo Afonso",
      "addr:suburb": "Estrada para Paulo Afonso",
      "building": "yes",
      "fixme": "Verificar coordenadas",
      "note": "Sem setor ou quadra no bayface do IBGE 0500-0217P-0-96"
      },
      "geometry": {
         "type": "Point",
         "coordinates": [-38.320862,-9.587008]
      }
    },
    {
      "type": "Feature",
      "properties": { 
      "IBGE:COD_UNICO_ENDERECO": "194564793",
      "addr:housenumber": "76",
      "addr:postcode": "48619-899",
      "addr:street": "Estrada Estrada Paulo Afonso",
      "addr:suburb": "Estrada para Paulo Afonso",
      "building": "yes",
      "fixme": "Verificar coordenadas",
      "note": "Sem setor ou quadra no bayface do IBGE 0500-0217P-0-98"
      },
      "geometry": {
         "type": "Point",
         "coordinates": [-38.321532,-9.587939]
      }
    },
    {
      "type": "Feature",
      "properties": { 
      "IBGE:COD_UNICO_ENDERECO": "112589229",
      "addr:housenumber": "8",
      "addr:postcode": "48601-248",
      "addr:street": "Estrada Para São José",
      "addr:suburb": "Estrada para Paulo Afonso",
      "building": "yes",
      "fixme": "Verificar coordenadas",
      "note": "Sem setor ou quadra no bayface do IBGE 0500-0217P-0-84"
      },
      "geometry": {
         "type": "Point",
         "coordinates": [-38.323948,-9.569314]
      }
    },
    {
      "type": "Feature",
      "properties": { 
      "IBGE:COD_UNICO_ENDERECO": "112590188",
      "addr:housenumber": "166",
      "addr:postcode": "48619-899",
      "addr:suburb": "Estrada para Paulo Afonso",
      "building": "yes",
      "fixme": "Verificar coordenadas",
      "note": "Sem setor ou quadra no bayface do IBGE 0500-0217P-0-108"
      },
      "geometry": {
         "type": "Point",
         "coordinates": [-38.33505,-9.640271]
      }
    },
    {
      "type": "Feature",
      "properties": { 
      "IBGE:COD_UNICO_ENDERECO": "27415825",
      "addr:housenumber": "15",
      "addr:postcode": "48601-016",
      "addr:street": "Estrada Para Paulo Afonso",
      "addr:suburb": "Estrada para Paulo Afonso",
      "building": "yes",
      "fixme": "Verificar coordenadas",
      "note": "Sem setor ou quadra no bayface do IBGE 0500-0217P-0-77"
      },
      "geometry": {
         "type": "Point",
         "coordinates": [-38.322853,-9.566306]
      }
    },
    {
      "type": "Feature",
      "properties": { 
      "IBGE:COD_UNICO_ENDERECO": "112590226",
      "addr:housenumber": "1",
      "addr:postcode": "48619-899",
      "addr:suburb": "Estrada para Paulo Afonso",
      "addr:unit": "Fundos",
      "building": "yes",
      "fixme": "Verificar coordenadas",
      "note": "Sem setor ou quadra no bayface do IBGE 0500-0217P-0-108"
      },
      "geometry": {
         "type": "Point",
         "coordinates": [-38.342248,-9.639433]
      }
    },
    {
      "type": "Feature",
      "properties": { 
      "IBGE:COD_UNICO_ENDERECO": "112590139",
      "addr:housenumber": "122",
      "addr:postcode": "48619-899",
      "addr:street": "Estrada do São José para Paulo Afonso",
      "addr:suburb": "Estrada para Paulo Afonso",
      "building": "yes",
      "fixme": "Verificar coordenadas",
      "note": "Sem setor ou quadra no bayface do IBGE 0500-0217P-0-97"
      },
      "geometry": {
         "type": "Point",
         "coordinates": [-38.315079,-9.56175]
      }
    },
    {
      "type": "Feature",
      "properties": { 
      "IBGE:COD_UNICO_ENDERECO": "27415780",
      "addr:housenumber": "70",
      "addr:postcode": "48619-899",
      "addr:street": "Estrada Para Paulo Afonso",
      "addr:suburb": "Estrada para Paulo Afonso",
      "building": "yes",
      "fixme": "Verificar coordenadas",
      "note": "Sem setor ou quadra no bayface do IBGE 0500-0217P-0-96"
      },
      "geometry": {
         "type": "Point",
         "coordinates": [-38.32617,-9.596919]
      }
    },
    {
      "type": "Feature",
      "properties": { 
      "IBGE:COD_UNICO_ENDERECO": "194564648",
      "addr:housenumber": "86",
      "addr:postcode": "48601-248",
      "addr:street": "Povoado Bogo de Cima",
      "addr:suburb": "Estrada para Paulo Afonso",
      "building": "yes",
      "fixme": "Verificar coordenadas",
      "note": "Sem setor ou quadra no bayface do IBGE 0500-0217P-0-87"
      },
      "geometry": {
         "type": "Point",
         "coordinates": [-38.325949,-9.589322]
      }
    },
    {
      "type": "Feature",
      "properties": { 
      "IBGE:COD_UNICO_ENDERECO": "27415790",
      "addr:housenumber": "10",
      "addr:postcode": "48601-248",
      "addr:street": "Estrada Para Paulo Afonso",
      "addr:suburb": "Estrada para Paulo Afonso",
      "building": "yes",
      "fixme": "Verificar coordenadas",
      "note": "Sem setor ou quadra no bayface do IBGE 0500-0217P-0-74"
      },
      "geometry": {
         "type": "Point",
         "coordinates": [-38.32178,-9.58923]
      }
    },
    {
      "type": "Feature",
      "properties": { 
      "IBGE:COD_UNICO_ENDERECO": "112589677",
      "addr:housenumber": "48",
      "addr:postcode": "48619-899",
      "addr:street": "Estrada do São José para Paulo Afonso",
      "addr:suburb": "Estrada para Paulo Afonso",
      "building": "yes",
      "fixme": "Verificar coordenadas",
      "note": "Sem setor ou quadra no bayface do IBGE 0500-0217P-0-97"
      },
      "geometry": {
         "type": "Point",
         "coordinates": [-38.320418,-9.586808]
      }
    },
    {
      "type": "Feature",
      "properties": { 
      "IBGE:COD_UNICO_ENDERECO": "112589716",
      "addr:housenumber": "80",
      "addr:postcode": "48619-899",
      "addr:street": "Estrada do São José para Paulo Afonso",
      "addr:suburb": "Estrada para Paulo Afonso",
      "building": "yes",
      "fixme": "Verificar coordenadas",
      "note": "Sem setor ou quadra no bayface do IBGE 0500-0217P-0-97"
      },
      "geometry": {
         "type": "Point",
         "coordinates": [-38.322,-9.589334]
      }
    },
    {
      "type": "Feature",
      "properties": { 
      "IBGE:COD_UNICO_ENDERECO": "112589194",
      "addr:housenumber": "80",
      "addr:postcode": "48619-899",
      "addr:street": "Entrada São José",
      "addr:suburb": "Estrada para Paulo Afonso",
      "building": "yes",
      "fixme": "Verificar coordenadas",
      "note": "Sem setor ou quadra no bayface do IBGE 0500-0217P-0-101"
      },
      "geometry": {
         "type": "Point",
         "coordinates": [-38.325083,-9.561545]
      }
    },
    {
      "type": "Feature",
      "properties": { 
      "IBGE:COD_UNICO_ENDERECO": "27415832",
      "addr:housenumber": "50",
      "addr:postcode": "48601-036",
      "addr:street": "Estrada Para Paulo Afonso",
      "addr:suburb": "Estrada para Paulo Afonso",
      "building": "yes",
      "fixme": "Verificar coordenadas",
      "note": "Sem setor ou quadra no bayface do IBGE 0500-0217P-0-78"
      },
      "geometry": {
         "type": "Point",
         "coordinates": [-38.323717,-9.559873]
      }
    },
    {
      "type": "Feature",
      "properties": { 
      "IBGE:COD_UNICO_ENDERECO": "27415822",
      "addr:housenumber": "460",
      "addr:postcode": "48601-018",
      "addr:street": "Estrada Para Paulo Afonso",
      "addr:suburb": "Estrada para Paulo Afonso",
      "building": "construction",
      "fixme": "Verificar coordenadas",
      "note": "Sem setor ou quadra no bayface do IBGE 0500-0217P-0-83"
      },
      "geometry": {
         "type": "Point",
         "coordinates": [-38.320604,-9.56749]
      }
    },
    {
      "type": "Feature",
      "properties": { 
      "IBGE:COD_UNICO_ENDERECO": "194564883",
      "addr:housenumber": "158",
      "addr:postcode": "48619-899",
      "addr:street": "Povoado Sítio do Lúcio",
      "addr:suburb": "Estrada para Paulo Afonso",
      "building": "yes",
      "fixme": "Verificar coordenadas",
      "note": "Sem setor ou quadra no bayface do IBGE 0500-0217P-0-109"
      },
      "geometry": {
         "type": "Point",
         "coordinates": [-38.338768,-9.639657]
      }
    },
    {
      "type": "Feature",
      "properties": { 
      "IBGE:COD_UNICO_ENDERECO": "112590338",
      "addr:housenumber": "159",
      "addr:postcode": "48619-899",
      "addr:suburb": "Estrada para Paulo Afonso",
      "building": "yes",
      "fixme": "Verificar coordenadas",
      "note": "Sem setor ou quadra no bayface do IBGE 0500-0217P-0-110"
      },
      "geometry": {
         "type": "Point",
         "coordinates": [-38.337825,-9.641572]
      }
    },
    {
      "type": "Feature",
      "properties": { 
      "IBGE:COD_UNICO_ENDERECO": "27415826",
      "addr:housenumber": "130",
      "addr:postcode": "48601-016",
      "addr:street": "Estrada Para Paulo Afonso",
      "addr:suburb": "Estrada para Paulo Afonso",
      "building": "yes",
      "fixme": "Verificar coordenadas",
      "note": "Sem setor ou quadra no bayface do IBGE 0500-0217P-0-77"
      },
      "geometry": {
         "type": "Point",
         "coordinates": [-38.324463,-9.566028]
      }
    },
    {
      "type": "Feature",
      "properties": { 
      "IBGE:COD_UNICO_ENDERECO": "194564794",
      "addr:housenumber": "3",
      "addr:postcode": "48619-899",
      "addr:street": "Estrada Estrada Paulo Afonso",
      "addr:suburb": "Estrada para Paulo Afonso",
      "amenity": "school",
      "building": "yes",
      "description": "CNEFE 2022 Escola",
      "fixme": "Verificar coordenadas",
      "note": "Sem setor ou quadra no bayface do IBGE 0500-0217P-0-98"
      },
      "geometry": {
         "type": "Point",
         "coordinates": [-38.30189,-9.572123]
      }
    },
    {
      "type": "Feature",
      "properties": { 
      "IBGE:COD_UNICO_ENDERECO": "112589751",
      "addr:housenumber": "40",
      "addr:postcode": "48601-016",
      "addr:street": "Estrada do São José para Paulo Afonso",
      "addr:suburb": "Estrada para Paulo Afonso",
      "building": "yes",
      "fixme": "Verificar coordenadas",
      "note": "Sem setor ou quadra no bayface do IBGE 0500-0217P-0-76"
      },
      "geometry": {
         "type": "Point",
         "coordinates": [-38.323337,-9.55909]
      }
    },
    {
      "type": "Feature",
      "properties": { 
      "IBGE:COD_UNICO_ENDERECO": "27415795",
      "addr:housenumber": "205",
      "addr:postcode": "48601-248",
      "addr:street": "Estrada Para Paulo Afonso",
      "addr:suburb": "Estrada para Paulo Afonso",
      "building": "yes",
      "fixme": "Verificar coordenadas",
      "note": "Sem setor ou quadra no bayface do IBGE 0500-0217P-0-74"
      },
      "geometry": {
         "type": "Point",
         "coordinates": [-38.321402,-9.588274]
      }
    },
    {
      "type": "Feature",
      "properties": { 
      "IBGE:COD_UNICO_ENDERECO": "112589696",
      "addr:housenumber": "76",
      "addr:postcode": "48619-899",
      "addr:street": "Estrada do São José para Paulo Afonso",
      "addr:suburb": "Estrada para Paulo Afonso",
      "building": "yes",
      "fixme": "Verificar coordenadas",
      "note": "Sem setor ou quadra no bayface do IBGE 0500-0217P-0-97"
      },
      "geometry": {
         "type": "Point",
         "coordinates": [-38.325463,-9.583305]
      }
    },
    {
      "type": "Feature",
      "properties": { 
      "IBGE:COD_UNICO_ENDERECO": "194564881",
      "addr:housenumber": "164",
      "addr:postcode": "48619-899",
      "addr:street": "Povoado Sítio do Lúcio",
      "addr:suburb": "Estrada para Paulo Afonso",
      "building": "yes",
      "fixme": "Verificar coordenadas",
      "note": "Sem setor ou quadra no bayface do IBGE 0500-0217P-0-109"
      },
      "geometry": {
         "type": "Point",
         "coordinates": [-38.335988,-9.639666]
      }
    },
    {
      "type": "Feature",
      "properties": { 
      "IBGE:COD_UNICO_ENDERECO": "112590087",
      "addr:housenumber": "104",
      "addr:postcode": "48619-899",
      "addr:street": "Estrada do São José para Paulo Afonso",
      "addr:suburb": "Estrada para Paulo Afonso",
      "building": "yes",
      "fixme": "Verificar coordenadas",
      "note": "Sem setor ou quadra no bayface do IBGE 0500-0217P-0-97"
      },
      "geometry": {
         "type": "Point",
         "coordinates": [-38.32714,-9.598469]
      }
    },
    {
      "type": "Feature",
      "properties": { 
      "IBGE:COD_UNICO_ENDERECO": "27415788",
      "addr:housenumber": "70",
      "addr:postcode": "48601-248",
      "addr:street": "Estrada Para Paulo Afonso",
      "addr:suburb": "Estrada para Paulo Afonso",
      "addr:unit": "Fundos",
      "building": "yes",
      "fixme": "Verificar coordenadas",
      "note": "Sem setor ou quadra no bayface do IBGE 0500-0217P-0-74"
      },
      "geometry": {
         "type": "Point",
         "coordinates": [-38.322358,-9.590097]
      }
    },
    {
      "type": "Feature",
      "properties": { 
      "IBGE:COD_UNICO_ENDERECO": "27415782",
      "addr:housenumber": "130",
      "addr:postcode": "48619-899",
      "addr:street": "Estrada Para Paulo Afonso",
      "addr:suburb": "Estrada para Paulo Afonso",
      "building": "yes",
      "fixme": "Verificar coordenadas",
      "note": "Sem setor ou quadra no bayface do IBGE 0500-0217P-0-96"
      },
      "geometry": {
         "type": "Point",
         "coordinates": [-38.326007,-9.591731]
      }
    },
    {
      "type": "Feature",
      "properties": { 
      "IBGE:COD_UNICO_ENDERECO": "27415783",
      "addr:housenumber": "100",
      "addr:postcode": "48619-899",
      "addr:street": "Estrada Para Paulo Afonso",
      "addr:suburb": "Estrada para Paulo Afonso",
      "building": "yes",
      "fixme": "Verificar coordenadas",
      "note": "Sem setor ou quadra no bayface do IBGE 0500-0217P-0-96"
      },
      "geometry": {
         "type": "Point",
         "coordinates": [-38.3262,-9.592077]
      }
    },
    {
      "type": "Feature",
      "properties": { 
      "IBGE:COD_UNICO_ENDERECO": "27415785",
      "addr:housenumber": "10",
      "addr:postcode": "48619-899",
      "addr:street": "Estrada Para Paulo Afonso",
      "addr:suburb": "Estrada para Paulo Afonso",
      "building": "yes",
      "fixme": "Verificar coordenadas",
      "note": "Sem setor ou quadra no bayface do IBGE 0500-0217P-0-96"
      },
      "geometry": {
         "type": "Point",
         "coordinates": [-38.323498,-9.592241]
      }
    },
    {
      "type": "Feature",
      "properties": { 
      "IBGE:COD_UNICO_ENDERECO": "27415792",
      "addr:housenumber": "200",
      "addr:postcode": "48601-248",
      "addr:street": "Estrada Para Paulo Afonso",
      "addr:suburb": "Estrada para Paulo Afonso",
      "building": "yes",
      "fixme": "Verificar coordenadas",
      "note": "Sem setor ou quadra no bayface do IBGE 0500-0217P-0-74"
      },
      "geometry": {
         "type": "Point",
         "coordinates": [-38.321619,-9.58894]
      }
    },
    {
      "type": "Feature",
      "properties": { 
      "IBGE:COD_UNICO_ENDERECO": "194564622",
      "addr:housenumber": "15",
      "addr:postcode": "48601-016",
      "addr:street": "Estrada Para Paulo Afonso",
      "addr:suburb": "Estrada para Paulo Afonso",
      "addr:unit": "A15",
      "building": "yes",
      "fixme": "Verificar coordenadas",
      "note": "Sem setor ou quadra no bayface do IBGE 0500-0217P-0-77"
      },
      "geometry": {
         "type": "Point",
         "coordinates": [-38.319087,-9.58524]
      }
    },
    {
      "type": "Feature",
      "properties": { 
      "IBGE:COD_UNICO_ENDERECO": "27415835",
      "addr:housenumber": "30",
      "addr:postcode": "48601-248",
      "addr:street": "Estrada Para Paulo Afonso",
      "addr:suburb": "Estrada para Paulo Afonso",
      "building": "yes",
      "fixme": "Verificar coordenadas",
      "note": "Sem setor ou quadra no bayface do IBGE 0500-0217P-0-74"
      },
      "geometry": {
         "type": "Point",
         "coordinates": [-38.322146,-9.558084]
      }
    },
    {
      "type": "Feature",
      "properties": { 
      "IBGE:COD_UNICO_ENDERECO": "27415818",
      "addr:housenumber": "2",
      "addr:postcode": "48601-248",
      "addr:street": "Estrada Para Paulo Afonso",
      "addr:suburb": "Estrada para Paulo Afonso",
      "building": "yes",
      "fixme": "Verificar coordenadas",
      "note": "Sem setor ou quadra no bayface do IBGE 0500-0217P-0-74"
      },
      "geometry": {
         "type": "Point",
         "coordinates": [-38.324787,-9.575263]
      }
    },
    {
      "type": "Feature",
      "properties": { 
      "IBGE:COD_UNICO_ENDERECO": "194564955",
      "addr:housenumber": "12",
      "addr:postcode": "48610-488",
      "addr:street": "Povoado Sítio do Lúcio",
      "addr:suburb": "Estrada para Paulo Afonso",
      "building": "warehouse",
      "description": "CNEFE 2022 Depósito Ré Ração",
      "fixme": "Verificar coordenadas",
      "note": "Sem setor ou quadra no bayface do IBGE 0500-0217P-0-122"
      },
      "geometry": {
         "type": "Point",
         "coordinates": [-38.347242,-9.636411]
      }
    },
    {
      "type": "Feature",
      "properties": { 
      "IBGE:COD_UNICO_ENDERECO": "194564953",
      "addr:housenumber": "1",
      "addr:postcode": "48610-488",
      "addr:suburb": "Estrada para Paulo Afonso",
      "building": "warehouse",
      "description": "CNEFE 2022 Depósito de Ração",
      "fixme": "Verificar coordenadas",
      "note": "Sem setor ou quadra no bayface do IBGE 0500-0217P-0-121"
      },
      "geometry": {
         "type": "Point",
         "coordinates": [-38.34247,-9.632637]
      }
    },
    {
      "type": "Feature",
      "properties": { 
      "IBGE:COD_UNICO_ENDERECO": "112589654",
      "addr:housenumber": "15",
      "addr:postcode": "48619-899",
      "addr:street": "Estrada do São José para Paulo Afonso",
      "addr:suburb": "Estrada para Paulo Afonso",
      "addr:unit": "Fundos",
      "building": "yes",
      "fixme": "Verificar coordenadas",
      "note": "Sem setor ou quadra no bayface do IBGE 0500-0217P-0-97"
      },
      "geometry": {
         "type": "Point",
         "coordinates": [-38.324276,-9.566722]
      }
    },
    {
      "type": "Feature",
      "properties": { 
      "IBGE:COD_UNICO_ENDERECO": "27415796",
      "addr:housenumber": "76",
      "addr:postcode": "48601-248",
      "addr:street": "Estrada Para Paulo Afonso",
      "addr:suburb": "Estrada para Paulo Afonso",
      "building": "yes",
      "fixme": "Verificar coordenadas",
      "note": "Sem setor ou quadra no bayface do IBGE 0500-0217P-0-74"
      },
      "geometry": {
         "type": "Point",
         "coordinates": [-38.321244,-9.587786]
      }
    },
    {
      "type": "Feature",
      "properties": { 
      "IBGE:COD_UNICO_ENDERECO": "27415787",
      "addr:housenumber": "7",
      "addr:postcode": "48601-248",
      "addr:street": "Estrada Para Paulo Afonso",
      "addr:suburb": "Estrada para Paulo Afonso",
      "building": "yes",
      "fixme": "Verificar coordenadas",
      "note": "Sem setor ou quadra no bayface do IBGE 0500-0217P-0-74"
      },
      "geometry": {
         "type": "Point",
         "coordinates": [-38.322381,-9.590456]
      }
    },
    {
      "type": "Feature",
      "properties": { 
      "IBGE:COD_UNICO_ENDERECO": "27415777",
      "addr:housenumber": "120",
      "addr:postcode": "48601-248",
      "addr:street": "Estrada Para Paulo Afonso",
      "addr:suburb": "Estrada para Paulo Afonso",
      "building": "yes",
      "fixme": "Verificar coordenadas",
      "note": "Sem setor ou quadra no bayface do IBGE 0500-0217P-0-74"
      },
      "geometry": {
         "type": "Point",
         "coordinates": [-38.325927,-9.589155]
      }
    },
    {
      "type": "Feature",
      "properties": { 
      "IBGE:COD_UNICO_ENDERECO": "194564880",
      "addr:housenumber": "166",
      "addr:postcode": "48619-899",
      "addr:street": "Povoado Sítio do Lúcio",
      "addr:suburb": "Estrada para Paulo Afonso",
      "building": "construction",
      "fixme": "Verificar coordenadas",
      "note": "Sem setor ou quadra no bayface do IBGE 0500-0217P-0-109"
      },
      "geometry": {
         "type": "Point",
         "coordinates": [-38.335324,-9.639901]
      }
    },
    {
      "type": "Feature",
      "properties": { 
      "IBGE:COD_UNICO_ENDERECO": "112589703",
      "addr:housenumber": "77",
      "addr:postcode": "48601-248",
      "addr:street": "Estrada do São José para Paulo Afonso",
      "addr:suburb": "Estrada para Paulo Afonso",
      "addr:unit": "Fundos",
      "building": "yes",
      "fixme": "Verificar coordenadas",
      "note": "Sem setor ou quadra no bayface do IBGE 0500-0217P-0-88"
      },
      "geometry": {
         "type": "Point",
         "coordinates": [-38.321195,-9.587761]
      }
    },
    {
      "type": "Feature",
      "properties": { 
      "IBGE:COD_UNICO_ENDERECO": "27415808",
      "addr:housenumber": "61",
      "addr:postcode": "48601-248",
      "addr:street": "Estrada Para Paulo Afonso",
      "addr:suburb": "Estrada para Paulo Afonso",
      "building": "yes",
      "fixme": "Verificar coordenadas",
      "note": "Sem setor ou quadra no bayface do IBGE 0500-0217P-0-74"
      },
      "geometry": {
         "type": "Point",
         "coordinates": [-38.32568,-9.587093]
      }
    },
    {
      "type": "Feature",
      "properties": { 
      "IBGE:COD_UNICO_ENDERECO": "27415800",
      "addr:housenumber": "51",
      "addr:postcode": "48619-899",
      "addr:street": "Estrada Para Paulo Afonso",
      "addr:suburb": "Estrada para Paulo Afonso",
      "building": "yes",
      "fixme": "Verificar coordenadas",
      "note": "Sem setor ou quadra no bayface do IBGE 0500-0217P-0-96"
      },
      "geometry": {
         "type": "Point",
         "coordinates": [-38.321026,-9.586124]
      }
    },
    {
      "type": "Feature",
      "properties": { 
      "IBGE:COD_UNICO_ENDERECO": "27415814",
      "addr:housenumber": "1",
      "addr:postcode": "48601-248",
      "addr:street": "Estrada Para Paulo Afonso",
      "addr:suburb": "Estrada para Paulo Afonso",
      "building": "yes",
      "fixme": "Verificar coordenadas",
      "note": "Sem setor ou quadra no bayface do IBGE 0500-0217P-0-74"
      },
      "geometry": {
         "type": "Point",
         "coordinates": [-38.325209,-9.580931]
      }
    },
    {
      "type": "Feature",
      "properties": { 
      "IBGE:COD_UNICO_ENDERECO": "27415804",
      "addr:housenumber": "17",
      "addr:postcode": "48601-248",
      "addr:street": "Estrada Para Paulo Afonso",
      "addr:suburb": "Estrada para Paulo Afonso",
      "building": "yes",
      "fixme": "Verificar coordenadas",
      "note": "Sem setor ou quadra no bayface do IBGE 0500-0217P-0-74"
      },
      "geometry": {
         "type": "Point",
         "coordinates": [-38.325032,-9.588831]
      }
    },
    {
      "type": "Feature",
      "properties": { 
      "IBGE:COD_UNICO_ENDERECO": "112590179",
      "addr:housenumber": "90",
      "addr:postcode": "48619-899",
      "addr:suburb": "Estrada para Paulo Afonso",
      "building": "yes",
      "fixme": "Verificar coordenadas",
      "note": "Sem setor ou quadra no bayface do IBGE 0500-0217P-0-108"
      },
      "geometry": {
         "type": "Point",
         "coordinates": [-38.320352,-9.641347]
      }
    },
    {
      "type": "Feature",
      "properties": { 
      "IBGE:COD_UNICO_ENDERECO": "27415810",
      "addr:housenumber": "74",
      "addr:postcode": "48601-248",
      "addr:street": "Estrada Para Paulo Afonso",
      "addr:suburb": "Estrada para Paulo Afonso",
      "building": "yes",
      "fixme": "Verificar coordenadas",
      "note": "Sem setor ou quadra no bayface do IBGE 0500-0217P-0-74"
      },
      "geometry": {
         "type": "Point",
         "coordinates": [-38.325593,-9.586038]
      }
    },
    {
      "type": "Feature",
      "properties": { 
      "IBGE:COD_UNICO_ENDERECO": "194564801",
      "addr:housenumber": "13",
      "addr:postcode": "48619-899",
      "addr:street": "Estrada Para São José",
      "addr:suburb": "Estrada para Paulo Afonso",
      "building": "yes",
      "fixme": "Verificar coordenadas",
      "note": "Sem setor ou quadra no bayface do IBGE 0500-0217P-0-102"
      },
      "geometry": {
         "type": "Point",
         "coordinates": [-38.359045,-9.638631]
      }
    },
    {
      "type": "Feature",
      "properties": { 
      "IBGE:COD_UNICO_ENDERECO": "112589622",
      "addr:housenumber": "97",
      "addr:postcode": "48619-899",
      "addr:street": "Estrada do São José para Paulo Afonso",
      "addr:suburb": "Estrada para Paulo Afonso",
      "addr:unit": "Fundos",
      "building": "yes",
      "fixme": "Verificar coordenadas",
      "note": "Sem setor ou quadra no bayface do IBGE 0500-0217P-0-97"
      },
      "geometry": {
         "type": "Point",
         "coordinates": [-38.326141,-9.596948]
      }
    },
    {
      "type": "Feature",
      "properties": { 
      "IBGE:COD_UNICO_ENDERECO": "112590250",
      "addr:housenumber": "151",
      "addr:postcode": "48619-899",
      "addr:suburb": "Estrada para Paulo Afonso",
      "building": "yes",
      "fixme": "Verificar coordenadas",
      "note": "Sem setor ou quadra no bayface do IBGE 0500-0217P-0-108"
      },
      "geometry": {
         "type": "Point",
         "coordinates": [-38.338807,-9.637699]
      }
    }
  ]
}
