{
  "type": "FeatureCollection",
  "generator": "CSV-CNEFE2GeoJSON.lua 1.5.7 - fidelis.assis@gmail.com",
  "source": "IBGE CNEFE + Faces de Logradouros - 2022",
  "date": "2025-02-02T09:05:07-0300",
  "features": [
    {
      "type": "Feature",
      "properties": { 
      "IBGE:COD_UNICO_ENDERECO": "191733296",
      "addr:housenumber": "29",
      "addr:postcode": "48609-024",
      "addr:street": "Rodovia BA-210",
      "addr:suburb": "BA 210",
      "building": "construction",
      "fixme": "Verificar coordenadas",
      "note": "Sem setor ou quadra no bayface do IBGE 0500-0230P-0-105"
      },
      "geometry": {
         "type": "Point",
         "coordinates": [-38.276648,-9.383641]
      }
    },
    {
      "type": "Feature",
      "properties": { 
      "IBGE:COD_UNICO_ENDERECO": "191742965",
      "addr:housenumber": "100 C",
      "addr:postcode": "48609-024",
      "addr:street": "Rodovia BA-210",
      "addr:suburb": "BA 210",
      "building": "yes",
      "fixme": "Verificar coordenadas",
      "note": "Sem face no bayface do IBGE 0500-0192P-13-15"
      },
      "geometry": {
         "type": "Point",
         "coordinates": [-38.262936,-9.379418]
      }
    },
    {
      "type": "Feature",
      "properties": { 
      "IBGE:COD_UNICO_ENDERECO": "191742621",
      "addr:housenumber": "16",
      "addr:postcode": "48609-024",
      "addr:street": "Rodovia BA-210",
      "addr:suburb": "BA 210",
      "building": "yes",
      "fixme": "Verificar coordenadas",
      "note": "Sem setor ou quadra no bayface do IBGE 0500-0192P-12-4"
      },
      "geometry": {
         "type": "Point",
         "coordinates": [-38.263573,-9.379978]
      }
    },
    {
      "type": "Feature",
      "properties": { 
      "IBGE:COD_UNICO_ENDERECO": "191742701",
      "addr:housenumber": "12",
      "addr:postcode": "48609-024",
      "addr:street": "Rodovia BA-210",
      "addr:suburb": "BA 210",
      "building": "yes",
      "fixme": "Verificar coordenadas",
      "note": "Sem setor ou quadra no bayface do IBGE 0500-0192P-12-11"
      },
      "geometry": {
         "type": "Point",
         "coordinates": [-38.265263,-9.377403]
      }
    },
    {
      "type": "Feature",
      "properties": { 
      "IBGE:COD_UNICO_ENDERECO": "27422114",
      "addr:housenumber": "15",
      "addr:postcode": "48609-024",
      "addr:street": "Rodovia BA-210",
      "addr:suburb": "BA 210",
      "building": "yes",
      "fixme": "Verificar coordenadas",
      "note": "Sem setor ou quadra no bayface do IBGE 0500-0192P-12-7"
      },
      "geometry": {
         "type": "Point",
         "coordinates": [-38.261093,-9.379112]
      }
    },
    {
      "type": "Feature",
      "properties": { 
      "IBGE:COD_UNICO_ENDERECO": "191770760",
      "addr:housenumber": "1",
      "addr:postcode": "48610-400",
      "addr:street": "Rodovia BA-210",
      "addr:suburb": "BA 210",
      "building": "yes"
      },
      "geometry": {
         "type": "Point",
         "coordinates": [-38.2553441,-9.3893507]
      }
    },
    {
      "type": "Feature",
      "properties": { 
      "IBGE:COD_UNICO_ENDERECO": "27422020",
      "addr:housenumber": "9",
      "addr:postcode": "48610-420",
      "addr:street": "Travessa São Roque",
      "addr:suburb": "BA 210",
      "building": "yes"
      },
      "geometry": {
         "type": "Point",
         "coordinates": [-38.2548424,-9.3885343]
      }
    },
    {
      "type": "Feature",
      "properties": { 
      "IBGE:COD_UNICO_ENDERECO": "191743043",
      "addr:housenumber": "25",
      "addr:postcode": "48609-024",
      "addr:street": "Rodovia BA-210",
      "addr:suburb": "BA 210",
      "building": "yes",
      "fixme": "Verificar coordenadas",
      "note": "Sem setor ou quadra no bayface do IBGE 0500-0192P-14-1"
      },
      "geometry": {
         "type": "Point",
         "coordinates": [-38.263068,-9.379315]
      }
    },
    {
      "type": "Feature",
      "properties": { 
      "IBGE:COD_UNICO_ENDERECO": "191743017",
      "addr:housenumber": "7",
      "addr:postcode": "48609-024",
      "addr:street": "Rodovia BA-210",
      "addr:suburb": "BA 210",
      "building": "construction",
      "fixme": "Verificar coordenadas",
      "note": "Sem face no bayface do IBGE 0500-0192P-13-16"
      },
      "geometry": {
         "type": "Point",
         "coordinates": [-38.261912,-9.379279]
      }
    },
    {
      "type": "Feature",
      "properties": { 
      "IBGE:COD_UNICO_ENDERECO": "27422107",
      "addr:housenumber": "16",
      "addr:postcode": "48609-024",
      "addr:street": "Rodovia BA-210",
      "addr:suburb": "BA 210",
      "building": "yes",
      "fixme": "Verificar coordenadas",
      "note": "Sem setor ou quadra no bayface do IBGE 0500-0192P-14-3"
      },
      "geometry": {
         "type": "Point",
         "coordinates": [-38.261108,-9.379079]
      }
    },
    {
      "type": "Feature",
      "properties": { 
      "IBGE:COD_UNICO_ENDERECO": "191742646",
      "addr:housenumber": "120 C",
      "addr:postcode": "48609-024",
      "addr:street": "Rodovia BA-210",
      "addr:suburb": "BA 210",
      "building": "yes",
      "fixme": "Verificar coordenadas",
      "note": "Sem setor ou quadra no bayface do IBGE 0500-0192P-12-6"
      },
      "geometry": {
         "type": "Point",
         "coordinates": [-38.263093,-9.378888]
      }
    },
    {
      "type": "Feature",
      "properties": { 
      "IBGE:COD_UNICO_ENDERECO": "191742960",
      "addr:housenumber": "131",
      "addr:postcode": "48609-024",
      "addr:street": "Rodovia BA-210",
      "addr:suburb": "BA 210",
      "building": "yes",
      "fixme": "Verificar coordenadas",
      "note": "Sem face no bayface do IBGE 0500-0192P-13-15"
      },
      "geometry": {
         "type": "Point",
         "coordinates": [-38.262742,-9.379494]
      }
    },
    {
      "type": "Feature",
      "properties": { 
      "IBGE:COD_UNICO_ENDERECO": "27422026",
      "addr:housenumber": "14",
      "addr:postcode": "48610-420",
      "addr:street": "Travessa São Roque",
      "addr:suburb": "BA 210",
      "building": "yes"
      },
      "geometry": {
         "type": "Point",
         "coordinates": [-38.255093,-9.3886198]
      }
    },
    {
      "type": "Feature",
      "properties": { 
      "IBGE:COD_UNICO_ENDERECO": "27422022-27422023",
      "addr:housenumber": "12",
      "addr:postcode": "48610-420",
      "addr:street": "Travessa São Roque",
      "addr:suburb": "BA 210",
      "building": "yes"
      },
      "geometry": {
         "type": "Point",
         "coordinates": [-38.254805,-9.3885695]
      }
    },
    {
      "type": "Feature",
      "properties": { 
      "IBGE:COD_UNICO_ENDERECO": "191397375",
      "addr:housenumber": "15",
      "addr:postcode": "48609-024",
      "addr:street": "Rodovia BA-210",
      "addr:suburb": "BA 210",
      "building": "yes",
      "fixme": "Verificar coordenadas",
      "note": "Sem setor ou quadra no bayface do IBGE 0500-0078P-12-12"
      },
      "geometry": {
         "type": "Point",
         "coordinates": [-38.269599,-9.382281]
      }
    },
    {
      "type": "Feature",
      "properties": { 
      "IBGE:COD_UNICO_ENDERECO": "191742969",
      "addr:housenumber": "112",
      "addr:postcode": "48609-024",
      "addr:street": "Rodovia BA-210",
      "addr:suburb": "BA 210",
      "building": "yes",
      "fixme": "Verificar coordenadas",
      "note": "Sem face no bayface do IBGE 0500-0192P-13-15"
      },
      "geometry": {
         "type": "Point",
         "coordinates": [-38.262891,-9.379141]
      }
    },
    {
      "type": "Feature",
      "properties": { 
      "IBGE:COD_UNICO_ENDERECO": "191743029",
      "addr:housenumber": "3",
      "addr:postcode": "48609-024",
      "addr:street": "Rodovia BA-210",
      "addr:suburb": "BA 210",
      "building": "yes",
      "fixme": "Verificar coordenadas",
      "note": "Sem face no bayface do IBGE 0500-0192P-13-17"
      },
      "geometry": {
         "type": "Point",
         "coordinates": [-38.26333,-9.378543]
      }
    },
    {
      "type": "Feature",
      "properties": { 
      "IBGE:COD_UNICO_ENDERECO": "191742936",
      "addr:housenumber": "30 B",
      "addr:postcode": "48609-024",
      "addr:street": "Rodovia BA-210",
      "addr:suburb": "BA 210",
      "building": "yes",
      "fixme": "Verificar coordenadas",
      "note": "Sem face no bayface do IBGE 0500-0192P-13-14"
      },
      "geometry": {
         "type": "Point",
         "coordinates": [-38.263331,-9.37939]
      }
    },
    {
      "type": "Feature",
      "properties": { 
      "IBGE:COD_UNICO_ENDERECO": "191742999",
      "addr:housenumber": "159 B",
      "addr:postcode": "48609-024",
      "addr:street": "Rodovia BA-210",
      "addr:suburb": "BA 210",
      "building": "yes",
      "fixme": "Verificar coordenadas",
      "note": "Sem face no bayface do IBGE 0500-0192P-13-16"
      },
      "geometry": {
         "type": "Point",
         "coordinates": [-38.261155,-9.379546]
      }
    },
    {
      "type": "Feature",
      "properties": { 
      "IBGE:COD_UNICO_ENDERECO": "191742918",
      "addr:housenumber": "14",
      "addr:postcode": "48609-024",
      "addr:street": "Rodovia BA-210",
      "addr:suburb": "BA 210",
      "building": "yes",
      "fixme": "Verificar coordenadas",
      "note": "Sem face no bayface do IBGE 0500-0192P-13-13"
      },
      "geometry": {
         "type": "Point",
         "coordinates": [-38.263261,-9.379791]
      }
    },
    {
      "type": "Feature",
      "properties": { 
      "IBGE:COD_UNICO_ENDERECO": "191742939",
      "addr:housenumber": "10",
      "addr:postcode": "48609-024",
      "addr:street": "Rodovia BA-210",
      "addr:suburb": "BA 210",
      "building": "yes",
      "fixme": "Verificar coordenadas",
      "note": "Sem face no bayface do IBGE 0500-0192P-13-14"
      },
      "geometry": {
         "type": "Point",
         "coordinates": [-38.263322,-9.379314]
      }
    },
    {
      "type": "Feature",
      "properties": { 
      "IBGE:COD_UNICO_ENDERECO": "191742995",
      "addr:housenumber": "159",
      "addr:postcode": "48609-024",
      "addr:street": "Rodovia BA-210",
      "addr:suburb": "BA 210",
      "building": "yes",
      "fixme": "Verificar coordenadas",
      "note": "Sem face no bayface do IBGE 0500-0192P-13-16"
      },
      "geometry": {
         "type": "Point",
         "coordinates": [-38.261115,-9.379536]
      }
    },
    {
      "type": "Feature",
      "properties": { 
      "IBGE:COD_UNICO_ENDERECO": "191742897",
      "addr:housenumber": "60 A",
      "addr:postcode": "48609-024",
      "addr:street": "Rodovia BA-210",
      "addr:suburb": "BA 210",
      "building": "yes",
      "fixme": "Verificar coordenadas",
      "note": "Sem face no bayface do IBGE 0500-0192P-13-13"
      },
      "geometry": {
         "type": "Point",
         "coordinates": [-38.263551,-9.37901]
      }
    },
    {
      "type": "Feature",
      "properties": { 
      "IBGE:COD_UNICO_ENDERECO": "27422112",
      "addr:housenumber": "13",
      "addr:postcode": "48609-024",
      "addr:street": "Rodovia BA-210",
      "addr:suburb": "BA 210",
      "building": "yes",
      "fixme": "Verificar coordenadas",
      "note": "Sem setor ou quadra no bayface do IBGE 0500-0192P-12-7"
      },
      "geometry": {
         "type": "Point",
         "coordinates": [-38.261038,-9.37925]
      }
    },
    {
      "type": "Feature",
      "properties": { 
      "IBGE:COD_UNICO_ENDERECO": "27422117",
      "addr:housenumber": "157",
      "addr:postcode": "48609-024",
      "addr:street": "Rodovia BA-210",
      "addr:suburb": "BA 210",
      "addr:unit": "Casa",
      "building": "yes",
      "fixme": "Verificar coordenadas",
      "note": "Sem setor ou quadra no bayface do IBGE 0500-0192P-14-3"
      },
      "geometry": {
         "type": "Point",
         "coordinates": [-38.255554,-9.377849]
      }
    },
    {
      "type": "Feature",
      "properties": { 
      "IBGE:COD_UNICO_ENDERECO": "27422025",
      "addr:housenumber": "13",
      "addr:postcode": "48610-420",
      "addr:street": "Travessa São Roque",
      "addr:suburb": "BA 210",
      "building": "yes"
      },
      "geometry": {
         "type": "Point",
         "coordinates": [-38.255087,-9.3886142]
      }
    },
    {
      "type": "Feature",
      "properties": { 
      "IBGE:COD_UNICO_ENDERECO": "191743061",
      "addr:housenumber": "82",
      "addr:postcode": "48609-024",
      "addr:street": "Rodovia BA-210",
      "addr:suburb": "BA 210",
      "building": "yes",
      "fixme": "Verificar coordenadas",
      "note": "Sem setor ou quadra no bayface do IBGE 0500-0192P-14-1"
      },
      "geometry": {
         "type": "Point",
         "coordinates": [-38.262898,-9.37972]
      }
    },
    {
      "type": "Feature",
      "properties": { 
      "IBGE:COD_UNICO_ENDERECO": "191743037",
      "addr:housenumber": "8",
      "addr:postcode": "48609-024",
      "addr:street": "Rodovia BA-210",
      "addr:suburb": "BA 210",
      "building": "yes",
      "fixme": "Verificar coordenadas",
      "note": "Sem setor ou quadra no bayface do IBGE 0500-0192P-14-1"
      },
      "geometry": {
         "type": "Point",
         "coordinates": [-38.263202,-9.378976]
      }
    },
    {
      "type": "Feature",
      "properties": { 
      "IBGE:COD_UNICO_ENDERECO": "191742971",
      "addr:housenumber": "11",
      "addr:postcode": "48609-024",
      "addr:street": "Rodovia BA-210",
      "addr:suburb": "BA 210",
      "building": "construction",
      "fixme": "Verificar coordenadas",
      "note": "Sem face no bayface do IBGE 0500-0192P-13-15"
      },
      "geometry": {
         "type": "Point",
         "coordinates": [-38.262757,-9.379084]
      }
    },
    {
      "type": "Feature",
      "properties": { 
      "IBGE:COD_UNICO_ENDERECO": "191743073",
      "addr:housenumber": "23",
      "addr:postcode": "48609-024",
      "addr:street": "Rodovia BA-210",
      "addr:suburb": "BA 210",
      "building": "construction",
      "fixme": "Verificar coordenadas",
      "note": "Sem setor ou quadra no bayface do IBGE 0500-0192P-14-2"
      },
      "geometry": {
         "type": "Point",
         "coordinates": [-38.262387,-9.378969]
      }
    },
    {
      "type": "Feature",
      "properties": { 
      "IBGE:COD_UNICO_ENDERECO": "27422126",
      "addr:housenumber": "15",
      "addr:postcode": "48609-024",
      "addr:street": "Rodovia BA-210",
      "addr:suburb": "BA 210",
      "building": "yes",
      "fixme": "Verificar coordenadas",
      "note": "Sem face no bayface do IBGE 0500-0192P-13-14"
      },
      "geometry": {
         "type": "Point",
         "coordinates": [-38.263197,-9.379815]
      }
    },
    {
      "type": "Feature",
      "properties": { 
      "IBGE:COD_UNICO_ENDERECO": "191742957",
      "addr:housenumber": "4",
      "addr:postcode": "48609-024",
      "addr:street": "Rodovia BA-210",
      "addr:suburb": "BA 210",
      "building": "construction",
      "fixme": "Verificar coordenadas",
      "note": "Sem face no bayface do IBGE 0500-0192P-13-15"
      },
      "geometry": {
         "type": "Point",
         "coordinates": [-38.262635,-9.379453]
      }
    },
    {
      "type": "Feature",
      "properties": { 
      "IBGE:COD_UNICO_ENDERECO": "191742903",
      "addr:housenumber": "3",
      "addr:postcode": "48609-024",
      "addr:street": "Rodovia BA-210",
      "addr:suburb": "BA 210",
      "building": "yes",
      "fixme": "Verificar coordenadas",
      "note": "Sem face no bayface do IBGE 0500-0192P-13-13"
      },
      "geometry": {
         "type": "Point",
         "coordinates": [-38.263723,-9.379002]
      }
    },
    {
      "type": "Feature",
      "properties": { 
      "IBGE:COD_UNICO_ENDERECO": "27422128",
      "addr:housenumber": "6",
      "addr:postcode": "48609-024",
      "addr:street": "Rodovia BA-210",
      "addr:suburb": "BA 210",
      "building": "construction",
      "fixme": "Verificar coordenadas",
      "note": "Sem face no bayface do IBGE 0500-0192P-13-14"
      },
      "geometry": {
         "type": "Point",
         "coordinates": [-38.263198,-9.379651]
      }
    },
    {
      "type": "Feature",
      "properties": { 
      "IBGE:COD_UNICO_ENDERECO": "191742697",
      "addr:housenumber": "1",
      "addr:postcode": "48609-024",
      "addr:street": "Rodovia BA-210",
      "addr:suburb": "BA 210",
      "building": "yes",
      "fixme": "Verificar coordenadas",
      "note": "Sem setor ou quadra no bayface do IBGE 0500-0192P-12-11"
      },
      "geometry": {
         "type": "Point",
         "coordinates": [-38.266712,-9.378358]
      }
    },
    {
      "type": "Feature",
      "properties": { 
      "IBGE:COD_UNICO_ENDERECO": "191742973",
      "addr:housenumber": "13",
      "addr:postcode": "48609-024",
      "addr:street": "Rodovia BA-210",
      "addr:suburb": "BA 210",
      "building": "yes",
      "fixme": "Verificar coordenadas",
      "note": "Sem face no bayface do IBGE 0500-0192P-13-15"
      },
      "geometry": {
         "type": "Point",
         "coordinates": [-38.262424,-9.37904]
      }
    },
    {
      "type": "Feature",
      "properties": { 
      "IBGE:COD_UNICO_ENDERECO": "191742967",
      "addr:housenumber": "104",
      "addr:postcode": "48609-024",
      "addr:street": "Rodovia BA-210",
      "addr:suburb": "BA 210",
      "building": "yes",
      "fixme": "Verificar coordenadas",
      "note": "Sem face no bayface do IBGE 0500-0192P-13-15"
      },
      "geometry": {
         "type": "Point",
         "coordinates": [-38.262935955835,-9.3794181616562]
      }
    },
    {
      "type": "Feature",
      "properties": { 
      "IBGE:COD_UNICO_ENDERECO": "191742925",
      "addr:housenumber": "12 A",
      "addr:postcode": "48609-024",
      "addr:street": "Rodovia BA-210",
      "addr:suburb": "BA 210",
      "building": "yes",
      "fixme": "Verificar coordenadas",
      "note": "Sem face no bayface do IBGE 0500-0192P-13-13"
      },
      "geometry": {
         "type": "Point",
         "coordinates": [-38.263248,-9.379949]
      }
    },
    {
      "type": "Feature",
      "properties": { 
      "IBGE:COD_UNICO_ENDERECO": "191742581",
      "addr:housenumber": "20",
      "addr:postcode": "48609-024",
      "addr:street": "Rodovia BA-210",
      "addr:suburb": "BA 210",
      "building": "yes",
      "fixme": "Verificar coordenadas",
      "note": "Sem setor ou quadra no bayface do IBGE 0500-0192P-12-4"
      },
      "geometry": {
         "type": "Point",
         "coordinates": [-38.264004,-9.378881]
      }
    },
    {
      "type": "Feature",
      "properties": { 
      "IBGE:COD_UNICO_ENDERECO": "191742954",
      "addr:housenumber": "3",
      "addr:postcode": "48609-024",
      "addr:street": "Rodovia BA-210",
      "addr:suburb": "BA 210",
      "building": "construction",
      "fixme": "Verificar coordenadas",
      "note": "Sem face no bayface do IBGE 0500-0192P-13-15"
      },
      "geometry": {
         "type": "Point",
         "coordinates": [-38.262567,-9.379435]
      }
    },
    {
      "type": "Feature",
      "properties": { 
      "IBGE:COD_UNICO_ENDERECO": "27422105",
      "addr:housenumber": "4",
      "addr:postcode": "48609-024",
      "addr:street": "Rodovia BA-210",
      "addr:suburb": "BA 210",
      "building": "yes",
      "fixme": "Verificar coordenadas",
      "note": "Sem setor ou quadra no bayface do IBGE 0500-0192P-12-8"
      },
      "geometry": {
         "type": "Point",
         "coordinates": [-38.260113,-9.379212]
      }
    },
    {
      "type": "Feature",
      "properties": { 
      "IBGE:COD_UNICO_ENDERECO": "191742920",
      "addr:housenumber": "21",
      "addr:postcode": "48609-024",
      "addr:street": "Rodovia BA-210",
      "addr:suburb": "BA 210",
      "building": "construction",
      "fixme": "Verificar coordenadas",
      "note": "Sem face no bayface do IBGE 0500-0192P-13-13"
      },
      "geometry": {
         "type": "Point",
         "coordinates": [-38.263185,-9.379807]
      }
    },
    {
      "type": "Feature",
      "properties": { 
      "IBGE:COD_UNICO_ENDERECO": "191742632",
      "addr:housenumber": "3",
      "addr:postcode": "48609-024",
      "addr:street": "Rodovia BA-210",
      "addr:suburb": "BA 210",
      "building": "yes",
      "fixme": "Verificar coordenadas",
      "note": "Sem setor ou quadra no bayface do IBGE 0500-0192P-12-5"
      },
      "geometry": {
         "type": "Point",
         "coordinates": [-38.262413,-9.379883]
      }
    },
    {
      "type": "Feature",
      "properties": { 
      "IBGE:COD_UNICO_ENDERECO": "191742706",
      "addr:housenumber": "13",
      "addr:postcode": "48609-024",
      "addr:street": "Rodovia BA-210",
      "addr:suburb": "BA 210",
      "building": "warehouse",
      "fixme": "Verificar coordenadas",
      "name": "Galpão de Ração",
      "note": "Sem setor ou quadra no bayface do IBGE 0500-0192P-12-11"
      },
      "geometry": {
         "type": "Point",
         "coordinates": [-38.26356,-9.378541]
      }
    },
    {
      "type": "Feature",
      "properties": { 
      "IBGE:COD_UNICO_ENDERECO": "191742874",
      "addr:housenumber": "8",
      "addr:postcode": "48609-024",
      "addr:street": "Rodovia BA-210",
      "addr:suburb": "BA 210",
      "building": "yes",
      "fixme": "Verificar coordenadas",
      "note": "Sem face no bayface do IBGE 0500-0192P-13-13"
      },
      "geometry": {
         "type": "Point",
         "coordinates": [-38.263606,-9.379806]
      }
    },
    {
      "type": "Feature",
      "properties": { 
      "IBGE:COD_UNICO_ENDERECO": "191742688",
      "addr:housenumber": "78",
      "addr:postcode": "48609-024",
      "addr:street": "Rodovia BA-210",
      "addr:suburb": "BA 210",
      "building": "yes",
      "fixme": "Verificar coordenadas",
      "note": "Sem setor ou quadra no bayface do IBGE 0500-0192P-12-9"
      },
      "geometry": {
         "type": "Point",
         "coordinates": [-38.266941,-9.377992]
      }
    },
    {
      "type": "Feature",
      "properties": { 
      "IBGE:COD_UNICO_ENDERECO": "191742932",
      "addr:housenumber": "7",
      "addr:postcode": "48609-024",
      "addr:street": "Rodovia BA-210",
      "addr:suburb": "BA 210",
      "building": "yes",
      "fixme": "Verificar coordenadas",
      "note": "Sem face no bayface do IBGE 0500-0192P-13-14"
      },
      "geometry": {
         "type": "Point",
         "coordinates": [-38.263255,-9.37954]
      }
    },
    {
      "type": "Feature",
      "properties": { 
      "IBGE:COD_UNICO_ENDERECO": "191743046",
      "addr:housenumber": "26",
      "addr:postcode": "48609-024",
      "addr:street": "Rodovia BA-210",
      "addr:suburb": "BA 210",
      "building": "construction",
      "fixme": "Verificar coordenadas",
      "note": "Sem setor ou quadra no bayface do IBGE 0500-0192P-14-1"
      },
      "geometry": {
         "type": "Point",
         "coordinates": [-38.263013,-9.379409]
      }
    },
    {
      "type": "Feature",
      "properties": { 
      "IBGE:COD_UNICO_ENDERECO": "191742911",
      "addr:housenumber": "17",
      "addr:postcode": "48609-024",
      "addr:street": "Rodovia BA-210",
      "addr:suburb": "BA 210",
      "building": "yes",
      "fixme": "Verificar coordenadas",
      "note": "Sem face no bayface do IBGE 0500-0192P-13-13"
      },
      "geometry": {
         "type": "Point",
         "coordinates": [-38.263387,-9.379517]
      }
    },
    {
      "type": "Feature",
      "properties": { 
      "IBGE:COD_UNICO_ENDERECO": "191742949",
      "addr:housenumber": "2",
      "addr:postcode": "48609-024",
      "addr:street": "Rodovia BA-210",
      "addr:suburb": "BA 210",
      "building": "construction",
      "fixme": "Verificar coordenadas",
      "note": "Sem face no bayface do IBGE 0500-0192P-13-15"
      },
      "geometry": {
         "type": "Point",
         "coordinates": [-38.26244,-9.379405]
      }
    },
    {
      "type": "Feature",
      "properties": { 
      "IBGE:COD_UNICO_ENDERECO": "191770803",
      "addr:housenumber": "9",
      "addr:postcode": "48610-420",
      "addr:street": "Rua São Roque",
      "addr:suburb": "BA 210",
      "building": "yes"
      },
      "geometry": {
         "type": "Point",
         "coordinates": [-38.2548857,-9.3886545]
      }
    },
    {
      "type": "Feature",
      "properties": { 
      "IBGE:COD_UNICO_ENDERECO": "191742963",
      "addr:housenumber": "89",
      "addr:postcode": "48609-024",
      "addr:street": "Rodovia BA-210",
      "addr:suburb": "BA 210",
      "building": "yes",
      "fixme": "Verificar coordenadas",
      "note": "Sem face no bayface do IBGE 0500-0192P-13-15"
      },
      "geometry": {
         "type": "Point",
         "coordinates": [-38.262903,-9.37951]
      }
    },
    {
      "type": "Feature",
      "properties": { 
      "IBGE:COD_UNICO_ENDERECO": "27422113",
      "addr:housenumber": "14",
      "addr:postcode": "48609-024",
      "addr:street": "Rodovia BA-210",
      "addr:suburb": "BA 210",
      "building": "yes",
      "fixme": "Verificar coordenadas",
      "name": "Casa Placas",
      "note": "Sem setor ou quadra no bayface do IBGE 0500-0192P-12-7"
      },
      "geometry": {
         "type": "Point",
         "coordinates": [-38.261083,-9.379123]
      }
    },
    {
      "type": "Feature",
      "properties": { 
      "IBGE:COD_UNICO_ENDERECO": "191742627",
      "addr:housenumber": "18",
      "addr:postcode": "48609-024",
      "addr:street": "Rodovia BA-210",
      "addr:suburb": "BA 210",
      "building": "construction",
      "fixme": "Verificar coordenadas",
      "note": "Sem setor ou quadra no bayface do IBGE 0500-0192P-12-4"
      },
      "geometry": {
         "type": "Point",
         "coordinates": [-38.263693,-9.380301]
      }
    },
    {
      "type": "Feature",
      "properties": { 
      "IBGE:COD_UNICO_ENDERECO": "191743008",
      "addr:housenumber": "77",
      "addr:postcode": "48609-024",
      "addr:street": "Rodovia BA-210",
      "addr:suburb": "BA 210",
      "building": "yes",
      "fixme": "Verificar coordenadas",
      "note": "Sem face no bayface do IBGE 0500-0192P-13-16"
      },
      "geometry": {
         "type": "Point",
         "coordinates": [-38.261317,-9.379595]
      }
    },
    {
      "type": "Feature",
      "properties": { 
      "IBGE:COD_UNICO_ENDERECO": "191742900",
      "addr:housenumber": "11",
      "addr:postcode": "48609-024",
      "addr:street": "Rodovia BA-210",
      "addr:suburb": "BA 210",
      "building": "yes",
      "fixme": "Verificar coordenadas",
      "note": "Sem face no bayface do IBGE 0500-0192P-13-13"
      },
      "geometry": {
         "type": "Point",
         "coordinates": [-38.263622,-9.378965]
      }
    },
    {
      "type": "Feature",
      "properties": { 
      "IBGE:COD_UNICO_ENDERECO": "191733301",
      "addr:housenumber": "30",
      "addr:postcode": "48609-024",
      "addr:street": "Rodovia BA-210",
      "addr:suburb": "BA 210",
      "building": "yes",
      "fixme": "Verificar coordenadas",
      "note": "Sem setor ou quadra no bayface do IBGE 0500-0230P-0-105"
      },
      "geometry": {
         "type": "Point",
         "coordinates": [-38.27839,-9.383055]
      }
    },
    {
      "type": "Feature",
      "properties": { 
      "IBGE:COD_UNICO_ENDERECO": "191742871",
      "addr:housenumber": "1",
      "addr:postcode": "48609-024",
      "addr:street": "Rodovia BA-210",
      "addr:suburb": "BA 210",
      "building": "yes",
      "fixme": "Verificar coordenadas",
      "note": "Sem face no bayface do IBGE 0500-0192P-13-13"
      },
      "geometry": {
         "type": "Point",
         "coordinates": [-38.263345,-9.380173]
      }
    },
    {
      "type": "Feature",
      "properties": { 
      "IBGE:COD_UNICO_ENDERECO": "191742650",
      "addr:housenumber": "125 A",
      "addr:postcode": "48609-024",
      "addr:street": "Rodovia BA-210",
      "addr:suburb": "BA 210",
      "building": "yes",
      "fixme": "Verificar coordenadas",
      "note": "Sem setor ou quadra no bayface do IBGE 0500-0192P-12-6"
      },
      "geometry": {
         "type": "Point",
         "coordinates": [-38.262847,-9.37908]
      }
    },
    {
      "type": "Feature",
      "properties": { 
      "IBGE:COD_UNICO_ENDERECO": "191742637",
      "addr:housenumber": "4",
      "addr:postcode": "48609-024",
      "addr:street": "Rodovia BA-210",
      "addr:suburb": "BA 210",
      "building": "yes",
      "fixme": "Verificar coordenadas",
      "note": "Sem setor ou quadra no bayface do IBGE 0500-0192P-12-5"
      },
      "geometry": {
         "type": "Point",
         "coordinates": [-38.262617,-9.379973]
      }
    },
    {
      "type": "Feature",
      "properties": { 
      "IBGE:COD_UNICO_ENDERECO": "191742908",
      "addr:housenumber": "9",
      "addr:postcode": "48609-024",
      "addr:street": "Rodovia BA-210",
      "addr:suburb": "BA 210",
      "building": "yes",
      "fixme": "Verificar coordenadas",
      "note": "Sem face no bayface do IBGE 0500-0192P-13-13"
      },
      "geometry": {
         "type": "Point",
         "coordinates": [-38.263542,-9.379117]
      }
    },
    {
      "type": "Feature",
      "properties": { 
      "IBGE:COD_UNICO_ENDERECO": "191742882;191742893",
      "addr:housenumber": "10",
      "addr:postcode": "48609-024",
      "addr:street": "Rodovia BA-210",
      "addr:suburb": "BA 210",
      "building": "yes",
      "fixme": "Verificar coordenadas",
      "note": "Sem face no bayface do IBGE 0500-0192P-13-13"
      },
      "geometry": {
         "type": "Point",
         "coordinates": [-38.263689,-9.379159]
      }
    },
    {
      "type": "Feature",
      "properties": { 
      "IBGE:COD_UNICO_ENDERECO": "191742945",
      "addr:housenumber": "70 B",
      "addr:postcode": "48609-024",
      "addr:street": "Rodovia BA-210",
      "addr:suburb": "BA 210",
      "building": "yes",
      "fixme": "Verificar coordenadas",
      "note": "Sem face no bayface do IBGE 0500-0192P-13-14"
      },
      "geometry": {
         "type": "Point",
         "coordinates": [-38.263559,-9.378736]
      }
    },
    {
      "type": "Feature",
      "properties": { 
      "IBGE:COD_UNICO_ENDERECO": "191743041",
      "addr:housenumber": "7",
      "addr:postcode": "48609-024",
      "addr:street": "Rodovia BA-210",
      "addr:suburb": "BA 210",
      "building": "yes",
      "fixme": "Verificar coordenadas",
      "note": "Sem setor ou quadra no bayface do IBGE 0500-0192P-14-1"
      },
      "geometry": {
         "type": "Point",
         "coordinates": [-38.263123,-9.379138]
      }
    },
    {
      "type": "Feature",
      "properties": { 
      "IBGE:COD_UNICO_ENDERECO": "27422124",
      "addr:housenumber": "2",
      "addr:postcode": "48609-024",
      "addr:street": "Rodovia BA-210",
      "addr:suburb": "BA 210",
      "building": "construction",
      "fixme": "Verificar coordenadas",
      "note": "Sem setor ou quadra no bayface do IBGE 0500-0192P-12-3"
      },
      "geometry": {
         "type": "Point",
         "coordinates": [-38.263132,-9.379924]
      }
    },
    {
      "type": "Feature",
      "properties": { 
      "IBGE:COD_UNICO_ENDERECO": "191743070",
      "addr:housenumber": "21",
      "addr:postcode": "48609-024",
      "addr:street": "Rodovia BA-210",
      "addr:suburb": "BA 210",
      "building": "yes",
      "fixme": "Verificar coordenadas",
      "note": "Sem setor ou quadra no bayface do IBGE 0500-0192P-14-2"
      },
      "geometry": {
         "type": "Point",
         "coordinates": [-38.26234,-9.379127]
      }
    },
    {
      "type": "Feature",
      "properties": { 
      "IBGE:COD_UNICO_ENDERECO": "191733292",
      "addr:housenumber": "26",
      "addr:postcode": "48609-024",
      "addr:street": "Rodovia BA-210",
      "addr:suburb": "BA 210",
      "building": "construction",
      "fixme": "Verificar coordenadas",
      "note": "Sem setor ou quadra no bayface do IBGE 0500-0230P-0-105"
      },
      "geometry": {
         "type": "Point",
         "coordinates": [-38.276183,-9.383863]
      }
    },
    {
      "type": "Feature",
      "properties": { 
      "IBGE:COD_UNICO_ENDERECO": "191742587",
      "addr:housenumber": "10",
      "addr:postcode": "48609-024",
      "addr:street": "Rodovia BA-210",
      "addr:suburb": "BA 210",
      "building": "yes",
      "fixme": "Verificar coordenadas",
      "note": "Sem setor ou quadra no bayface do IBGE 0500-0192P-12-4"
      },
      "geometry": {
         "type": "Point",
         "coordinates": [-38.263861,-9.379308]
      }
    },
    {
      "type": "Feature",
      "properties": { 
      "IBGE:COD_UNICO_ENDERECO": "191743067",
      "addr:housenumber": "20",
      "addr:postcode": "48609-024",
      "addr:street": "Rodovia BA-210",
      "addr:suburb": "BA 210",
      "building": "yes",
      "fixme": "Verificar coordenadas",
      "note": "Sem setor ou quadra no bayface do IBGE 0500-0192P-14-2"
      },
      "geometry": {
         "type": "Point",
         "coordinates": [-38.262231,-9.379209]
      }
    },
    {
      "type": "Feature",
      "properties": { 
      "IBGE:COD_UNICO_ENDERECO": "191771048",
      "addr:housenumber": "15",
      "addr:postcode": "48610-420",
      "addr:street": "Travessa São Roque",
      "addr:suburb": "BA 210",
      "building": "yes"
      },
      "geometry": {
         "type": "Point",
         "coordinates": [-38.2551673,-9.3886889]
      }
    },
    {
      "type": "Feature",
      "properties": { 
      "IBGE:COD_UNICO_ENDERECO": "191743022",
      "addr:housenumber": "1",
      "addr:postcode": "48609-024",
      "addr:street": "Rodovia BA-210",
      "addr:suburb": "BA 210",
      "building": "yes",
      "fixme": "Verificar coordenadas",
      "note": "Sem face no bayface do IBGE 0500-0192P-13-17"
      },
      "geometry": {
         "type": "Point",
         "coordinates": [-38.263091,-9.378526]
      }
    },
    {
      "type": "Feature",
      "properties": { 
      "IBGE:COD_UNICO_ENDERECO": "27422110",
      "addr:housenumber": "8",
      "addr:postcode": "48609-024",
      "addr:street": "Rodovia BA-210",
      "addr:suburb": "BA 210",
      "building": "yes",
      "fixme": "Verificar coordenadas",
      "note": "Sem setor ou quadra no bayface do IBGE 0500-0192P-12-8"
      },
      "geometry": {
         "type": "Point",
         "coordinates": [-38.260751,-9.379443]
      }
    },
    {
      "type": "Feature",
      "properties": { 
      "IBGE:COD_UNICO_ENDERECO": "27422115",
      "addr:housenumber": "17",
      "addr:postcode": "48609-024",
      "addr:street": "Rodovia BA-210",
      "addr:suburb": "BA 210",
      "addr:unit": "Casa",
      "building": "yes",
      "fixme": "Verificar coordenadas",
      "note": "Sem setor ou quadra no bayface do IBGE 0500-0192P-14-3"
      },
      "geometry": {
         "type": "Point",
         "coordinates": [-38.261141,-9.378997]
      }
    },
    {
      "type": "Feature",
      "properties": { 
      "IBGE:COD_UNICO_ENDERECO": "27422106",
      "addr:housenumber": "2",
      "addr:postcode": "48609-024",
      "addr:street": "Rodovia BA-210",
      "addr:suburb": "BA 210",
      "amenity": "place_of_worship",
      "building": "chapel",
      "denomination": "catholic",
      "fixme": "Verificar coordenadas",
      "name": "Capela Nossa Sra da Saúde",
      "note": "Sem setor ou quadra no bayface do IBGE 0500-0192P-12-8",
      "religion": "christian"
      },
      "geometry": {
         "type": "Point",
         "coordinates": [-38.25987,-9.379069]
      }
    },
    {
      "type": "Feature",
      "properties": { 
      "IBGE:COD_UNICO_ENDERECO": "191742928",
      "addr:housenumber": "25",
      "addr:postcode": "48609-024",
      "addr:street": "Rodovia BA-210",
      "addr:suburb": "BA 210",
      "building": "construction",
      "fixme": "Verificar coordenadas",
      "note": "Sem face no bayface do IBGE 0500-0192P-13-13"
      },
      "geometry": {
         "type": "Point",
         "coordinates": [-38.263244,-9.379957]
      }
    },
    {
      "type": "Feature",
      "properties": { 
      "IBGE:COD_UNICO_ENDERECO": "191742682",
      "addr:housenumber": "77",
      "addr:postcode": "48609-024",
      "addr:street": "Rodovia BA-210",
      "addr:suburb": "BA 210",
      "building": "yes",
      "fixme": "Verificar coordenadas",
      "note": "Sem setor ou quadra no bayface do IBGE 0500-0192P-12-9"
      },
      "geometry": {
         "type": "Point",
         "coordinates": [-38.26441,-9.380534]
      }
    },
    {
      "type": "Feature",
      "properties": { 
      "IBGE:COD_UNICO_ENDERECO": "191733288",
      "addr:housenumber": "28",
      "addr:postcode": "48609-024",
      "addr:street": "Rodovia BA-210",
      "addr:suburb": "BA 210",
      "building": "construction",
      "fixme": "Verificar coordenadas",
      "note": "Sem setor ou quadra no bayface do IBGE 0500-0230P-0-105"
      },
      "geometry": {
         "type": "Point",
         "coordinates": [-38.275889,-9.384001]
      }
    },
    {
      "type": "Feature",
      "properties": { 
      "IBGE:COD_UNICO_ENDERECO": "191742879",
      "addr:housenumber": "5",
      "addr:postcode": "48609-024",
      "addr:street": "Rodovia BA-210",
      "addr:suburb": "BA 210",
      "building": "yes",
      "fixme": "Verificar coordenadas",
      "note": "Sem face no bayface do IBGE 0500-0192P-13-13"
      },
      "geometry": {
         "type": "Point",
         "coordinates": [-38.263719,-9.379451]
      }
    },
    {
      "type": "Feature",
      "properties": { 
      "IBGE:COD_UNICO_ENDERECO": "191743003",
      "addr:housenumber": "3",
      "addr:postcode": "48609-024",
      "addr:street": "Rodovia BA-210",
      "addr:suburb": "BA 210",
      "building": "construction",
      "fixme": "Verificar coordenadas",
      "note": "Sem face no bayface do IBGE 0500-0192P-13-16"
      },
      "geometry": {
         "type": "Point",
         "coordinates": [-38.261221,-9.379602]
      }
    },
    {
      "type": "Feature",
      "properties": { 
      "IBGE:COD_UNICO_ENDERECO": "27422111",
      "addr:housenumber": "12",
      "addr:postcode": "48609-024",
      "addr:street": "Rodovia BA-210",
      "addr:suburb": "BA 210",
      "building": "construction",
      "fixme": "Verificar coordenadas",
      "note": "Sem setor ou quadra no bayface do IBGE 0500-0192P-12-7"
      },
      "geometry": {
         "type": "Point",
         "coordinates": [-38.261049,-9.37925]
      }
    },
    {
      "type": "Feature",
      "properties": { 
      "IBGE:COD_UNICO_ENDERECO": "27422116",
      "addr:housenumber": "2",
      "addr:postcode": "48609-024",
      "addr:street": "Rodovia BA-210",
      "addr:suburb": "BA 210",
      "building": "construction",
      "fixme": "Verificar coordenadas",
      "note": "Sem setor ou quadra no bayface do IBGE 0500-0192P-14-3"
      },
      "geometry": {
         "type": "Point",
         "coordinates": [-38.261178,-9.378798]
      }
    },
    {
      "type": "Feature",
      "properties": { 
      "IBGE:COD_UNICO_ENDERECO": "191742914",
      "addr:housenumber": "18 C",
      "addr:postcode": "48609-024",
      "addr:street": "Rodovia BA-210",
      "addr:suburb": "BA 210",
      "building": "yes",
      "fixme": "Verificar coordenadas",
      "note": "Sem face no bayface do IBGE 0500-0192P-13-13"
      },
      "geometry": {
         "type": "Point",
         "coordinates": [-38.263296,-9.379739]
      }
    },
    {
      "type": "Feature",
      "properties": { 
      "IBGE:COD_UNICO_ENDERECO": "191742876",
      "addr:housenumber": "12",
      "addr:postcode": "48609-024",
      "addr:street": "Rodovia BA-210",
      "addr:suburb": "BA 210",
      "building": "yes",
      "fixme": "Verificar coordenadas",
      "note": "Sem face no bayface do IBGE 0500-0192P-13-13"
      },
      "geometry": {
         "type": "Point",
         "coordinates": [-38.263682,-9.379572]
      }
    },
    {
      "type": "Feature",
      "properties": { 
      "IBGE:COD_UNICO_ENDERECO": "191771051",
      "addr:housenumber": "10",
      "addr:postcode": "48610-420",
      "addr:street": "Travessa São Roque",
      "addr:suburb": "BA 210",
      "building": "garage",
      "description": "CNEFE 2022 Garagem"
      },
      "geometry": {
         "type": "Point",
         "coordinates": [-38.2552106,-9.3888004]
      }
    },
    {
      "type": "Feature",
      "properties": { 
      "IBGE:COD_UNICO_ENDERECO": "191743065",
      "addr:housenumber": "31",
      "addr:postcode": "48609-024",
      "addr:street": "Rodovia BA-210",
      "addr:suburb": "BA 210",
      "building": "yes",
      "fixme": "Verificar coordenadas",
      "note": "Sem setor ou quadra no bayface do IBGE 0500-0192P-14-1"
      },
      "geometry": {
         "type": "Point",
         "coordinates": [-38.262908,-9.379763]
      }
    },
    {
      "type": "Feature",
      "properties": { 
      "IBGE:COD_UNICO_ENDERECO": "27422127",
      "addr:housenumber": "11",
      "addr:postcode": "48609-024",
      "addr:street": "Rodovia BA-210",
      "addr:suburb": "BA 210",
      "building": "yes",
      "fixme": "Verificar coordenadas",
      "note": "Sem face no bayface do IBGE 0500-0192P-13-14"
      },
      "geometry": {
         "type": "Point",
         "coordinates": [-38.263243,-9.379748]
      }
    },
    {
      "type": "Feature",
      "properties": { 
      "IBGE:COD_UNICO_ENDERECO": "27422024",
      "addr:housenumber": "121",
      "addr:postcode": "48610-420",
      "addr:street": "Travessa São Roque",
      "addr:suburb": "BA 210",
      "building": "construction"
      },
      "geometry": {
         "type": "Point",
         "coordinates": [-38.2550589,-9.388588]
      }
    },
    {
      "type": "Feature",
      "properties": { 
      "IBGE:COD_UNICO_ENDERECO": "191742934",
      "addr:housenumber": "18 A",
      "addr:postcode": "48609-024",
      "addr:street": "Rodovia BA-210",
      "addr:suburb": "BA 210",
      "building": "yes",
      "fixme": "Verificar coordenadas",
      "note": "Sem face no bayface do IBGE 0500-0192P-13-14"
      },
      "geometry": {
         "type": "Point",
         "coordinates": [-38.263262,-9.379435]
      }
    }
  ]
}
