{
  "type": "FeatureCollection",
  "generator": "CSV-CNEFE2GeoJSON.lua 1.5.7 - fidelis.assis@gmail.com",
  "source": "IBGE CNEFE + Faces de Logradouros - 2022",
  "date": "2025-02-02T09:05:09-0300",
  "features": [
    {
      "type": "Feature",
      "properties": { 
      "IBGE:COD_UNICO_ENDERECO": "192034268",
      "addr:housenumber": "83",
      "addr:postcode": "48619-899",
      "addr:street": "Estrada Para O Bogo",
      "addr:suburb": "Bogo",
      "building": "yes",
      "fixme": "Verificar coordenadas",
      "note": "Sem setor ou quadra no bayface do IBGE 0500-0241P-0-96"
      },
      "geometry": {
         "type": "Point",
         "coordinates": [-38.241443,-9.672823]
      }
    },
    {
      "type": "Feature",
      "properties": { 
      "IBGE:COD_UNICO_ENDERECO": "27413844",
      "addr:housenumber": "57",
      "addr:postcode": "48619-899",
      "addr:street": "Estrada Para O Bogo",
      "addr:suburb": "Bogo",
      "building": "yes",
      "fixme": "Verificar coordenadas",
      "note": "Sem setor ou quadra no bayface do IBGE 0500-0241P-0-96"
      },
      "geometry": {
         "type": "Point",
         "coordinates": [-38.236788,-9.672861]
      }
    },
    {
      "type": "Feature",
      "properties": { 
      "IBGE:COD_UNICO_ENDERECO": "112589904",
      "addr:housenumber": "448788",
      "addr:postcode": "48619-899",
      "addr:street": "Estrada Para O Bogo",
      "addr:suburb": "Bogo",
      "addr:unit": "Cisterna",
      "building": "yes",
      "fixme": "Verificar coordenadas",
      "name": "Fazenda Santa Luzia",
      "note": "Sem setor ou quadra no bayface do IBGE 0500-0241P-0-96",
      "place": "farm"
      },
      "geometry": {
         "type": "Point",
         "coordinates": [-38.245499,-9.672044]
      }
    },
    {
      "type": "Feature",
      "properties": { 
      "IBGE:COD_UNICO_ENDERECO": "27413857",
      "addr:housenumber": "47",
      "addr:postcode": "48619-899",
      "addr:street": "Estrada Para O Bogo",
      "addr:suburb": "Bogo",
      "building": "yes",
      "fixme": "Verificar coordenadas",
      "note": "Sem setor ou quadra no bayface do IBGE 0500-0241P-0-96"
      },
      "geometry": {
         "type": "Point",
         "coordinates": [-38.240197,-9.672808]
      }
    },
    {
      "type": "Feature",
      "properties": { 
      "IBGE:COD_UNICO_ENDERECO": "27413886",
      "addr:housenumber": "22",
      "addr:postcode": "48619-899",
      "addr:street": "Estrada Para O Bogo",
      "addr:suburb": "Bogo",
      "building": "yes",
      "fixme": "Verificar coordenadas",
      "note": "Sem setor ou quadra no bayface do IBGE 0500-0241P-0-96"
      },
      "geometry": {
         "type": "Point",
         "coordinates": [-38.272455,-9.65375]
      }
    },
    {
      "type": "Feature",
      "properties": { 
      "IBGE:COD_UNICO_ENDERECO": "112590545",
      "addr:housenumber": "114",
      "addr:postcode": "48619-899",
      "addr:street": "Estrada Para O Bogo",
      "addr:suburb": "Bogo",
      "building": "yes",
      "fixme": "Verificar coordenadas",
      "note": "Sem setor ou quadra no bayface do IBGE 0500-0241P-0-96"
      },
      "geometry": {
         "type": "Point",
         "coordinates": [-38.264227,-9.657382]
      }
    },
    {
      "type": "Feature",
      "properties": { 
      "IBGE:COD_UNICO_ENDERECO": "27413846",
      "addr:housenumber": "52",
      "addr:postcode": "48619-899",
      "addr:street": "Estrada Para O Bogo",
      "addr:suburb": "Bogo",
      "building": "yes",
      "fixme": "Verificar coordenadas",
      "note": "Sem setor ou quadra no bayface do IBGE 0500-0241P-0-96"
      },
      "geometry": {
         "type": "Point",
         "coordinates": [-38.237502,-9.672944]
      }
    },
    {
      "type": "Feature",
      "properties": { 
      "IBGE:COD_UNICO_ENDERECO": "109862722",
      "addr:housenumber": "20 A",
      "addr:postcode": "48601-248",
      "addr:street": "Estrada Santa Cruz aos Algodões",
      "addr:suburb": "Bogo",
      "crop": "forage_palm",
      "fixme": "Verificar coordenadas",
      "landuse": "farmland",
      "name": "Plantação de Palma",
      "note": "Sem setor ou quadra no bayface do IBGE 0500-0199P-0-29"
      },
      "geometry": {
         "type": "Point",
         "coordinates": [-38.260856,-9.6763]
      }
    },
    {
      "type": "Feature",
      "properties": { 
      "IBGE:COD_UNICO_ENDERECO": "27413866",
      "addr:housenumber": "37",
      "addr:postcode": "48619-899",
      "addr:street": "Estrada Para O Bogo",
      "addr:suburb": "Bogo",
      "building": "yes",
      "fixme": "Verificar coordenadas",
      "note": "Sem setor ou quadra no bayface do IBGE 0500-0241P-0-96"
      },
      "geometry": {
         "type": "Point",
         "coordinates": [-38.250593,-9.670526]
      }
    },
    {
      "type": "Feature",
      "properties": { 
      "IBGE:COD_UNICO_ENDERECO": "27413864",
      "addr:housenumber": "39",
      "addr:postcode": "48619-899",
      "addr:street": "Estrada Para O Bogo",
      "addr:suburb": "Bogo",
      "building": "yes",
      "fixme": "Verificar coordenadas",
      "note": "Sem setor ou quadra no bayface do IBGE 0500-0241P-0-96"
      },
      "geometry": {
         "type": "Point",
         "coordinates": [-38.249662,-9.671149]
      }
    },
    {
      "type": "Feature",
      "properties": { 
      "IBGE:COD_UNICO_ENDERECO": "27413865",
      "addr:housenumber": "101",
      "addr:postcode": "48619-899",
      "addr:street": "Estrada Para O Bogo",
      "addr:suburb": "Bogo",
      "building": "yes",
      "fixme": "Verificar coordenadas",
      "note": "Sem setor ou quadra no bayface do IBGE 0500-0241P-0-96"
      },
      "geometry": {
         "type": "Point",
         "coordinates": [-38.250302,-9.668901]
      }
    },
    {
      "type": "Feature",
      "properties": { 
      "IBGE:COD_UNICO_ENDERECO": "27413854",
      "addr:housenumber": "85",
      "addr:postcode": "48619-899",
      "addr:street": "Estrada Para O Bogo",
      "addr:suburb": "Bogo",
      "building": "yes",
      "fixme": "Verificar coordenadas",
      "note": "Sem setor ou quadra no bayface do IBGE 0500-0241P-0-96"
      },
      "geometry": {
         "type": "Point",
         "coordinates": [-38.24206,-9.672782]
      }
    },
    {
      "type": "Feature",
      "properties": { 
      "IBGE:COD_UNICO_ENDERECO": "112590531",
      "addr:housenumber": "20",
      "addr:postcode": "48619-899",
      "addr:street": "Estrada Para O Bogo",
      "addr:suburb": "Bogo",
      "building": "yes",
      "fixme": "Verificar coordenadas",
      "name": "Recanto de Herança",
      "note": "Sem setor ou quadra no bayface do IBGE 0500-0241P-0-96"
      },
      "geometry": {
         "type": "Point",
         "coordinates": [-38.262986,-9.658608]
      }
    },
    {
      "type": "Feature",
      "properties": { 
      "IBGE:COD_UNICO_ENDERECO": "112586092",
      "addr:housenumber": "270",
      "addr:postcode": "48619-899",
      "addr:suburb": "Bogo",
      "building": "yes",
      "fixme": "Verificar coordenadas",
      "note": "Sem setor ou quadra no bayface do IBGE 0500-0123P-0-93"
      },
      "geometry": {
         "type": "Point",
         "coordinates": [-38.281753,-9.650475]
      }
    },
    {
      "type": "Feature",
      "properties": { 
      "IBGE:COD_UNICO_ENDERECO": "112590565",
      "addr:housenumber": "90 A",
      "addr:postcode": "48619-899",
      "addr:street": "Estrada Para O Bogo",
      "addr:suburb": "Bogo",
      "building": "yes",
      "fixme": "Verificar coordenadas",
      "note": "Sem setor ou quadra no bayface do IBGE 0500-0241P-0-96"
      },
      "geometry": {
         "type": "Point",
         "coordinates": [-38.273629,-9.653559]
      }
    },
    {
      "type": "Feature",
      "properties": { 
      "IBGE:COD_UNICO_ENDERECO": "27413861",
      "addr:housenumber": "93",
      "addr:postcode": "48619-899",
      "addr:street": "Estrada Para O Bogo",
      "addr:suburb": "Bogo",
      "crop": "bean;corn",
      "fixme": "Verificar coordenadas",
      "landuse": "farmland",
      "name": "Plantio de Feijão e Milho",
      "note": "Sem setor ou quadra no bayface do IBGE 0500-0241P-0-96"
      },
      "geometry": {
         "type": "Point",
         "coordinates": [-38.248057,-9.670306]
      }
    },
    {
      "type": "Feature",
      "properties": { 
      "IBGE:COD_UNICO_ENDERECO": "112590545",
      "addr:housenumber": "114",
      "addr:postcode": "48619-899",
      "addr:street": "Estrada Para O Bogo",
      "addr:suburb": "Bogo",
      "crop": "bean;corn",
      "description": "CNEFE 2022 Plantio de Milho e Feijão",
      "fixme": "Verificar coordenadas",
      "landuse": "farmland",
      "note": "Sem setor ou quadra no bayface do IBGE 0500-0241P-0-96"
      },
      "geometry": {
         "type": "Point",
         "coordinates": [-38.264226955799,-9.6573821616562]
      }
    },
    {
      "type": "Feature",
      "properties": { 
      "IBGE:COD_UNICO_ENDERECO": "112589992",
      "addr:housenumber": "123",
      "addr:postcode": "48619-899",
      "addr:street": "Estrada Para O Bogo",
      "addr:suburb": "Bogo",
      "building": "yes",
      "fixme": "Verificar coordenadas",
      "name": "Fazenda Bogo",
      "note": "Sem setor ou quadra no bayface do IBGE 0500-0241P-0-96",
      "place": "farm"
      },
      "geometry": {
         "type": "Point",
         "coordinates": [-38.266473,-9.655947]
      }
    },
    {
      "type": "Feature",
      "properties": { 
      "IBGE:COD_UNICO_ENDERECO": "27413858",
      "addr:housenumber": "132",
      "addr:postcode": "48619-899",
      "addr:street": "Estrada Para O Bogo",
      "addr:suburb": "Bogo",
      "addr:unit": "L Porteira",
      "building": "yes",
      "fixme": "Verificar coordenadas",
      "note": "Sem setor ou quadra no bayface do IBGE 0500-0241P-0-96"
      },
      "geometry": {
         "type": "Point",
         "coordinates": [-38.245738,-9.672029]
      }
    },
    {
      "type": "Feature",
      "properties": { 
      "IBGE:COD_UNICO_ENDERECO": "27413859",
      "addr:housenumber": "91",
      "addr:postcode": "48619-899",
      "addr:street": "Estrada Para O Bogo",
      "addr:suburb": "Bogo",
      "building": "yes",
      "fixme": "Verificar coordenadas",
      "note": "Sem setor ou quadra no bayface do IBGE 0500-0241P-0-96"
      },
      "geometry": {
         "type": "Point",
         "coordinates": [-38.246918,-9.67183]
      }
    },
    {
      "type": "Feature",
      "properties": { 
      "IBGE:COD_UNICO_ENDERECO": "27413878",
      "addr:housenumber": "448771",
      "addr:postcode": "48619-899",
      "addr:street": "Estrada Para O Bogo",
      "addr:suburb": "Bogo",
      "addr:unit": "Cisterna",
      "building": "yes",
      "fixme": "Verificar coordenadas",
      "note": "Sem setor ou quadra no bayface do IBGE 0500-0241P-0-96"
      },
      "geometry": {
         "type": "Point",
         "coordinates": [-38.264151,-9.657996]
      }
    },
    {
      "type": "Feature",
      "properties": { 
      "IBGE:COD_UNICO_ENDERECO": "27413853",
      "addr:housenumber": "40 B",
      "addr:postcode": "48619-899",
      "addr:street": "Estrada Para O Bogo",
      "addr:suburb": "Bogo",
      "amenity": "place_of_worship",
      "building": "church",
      "denomination": "pentecostal",
      "fixme": "Verificar coordenadas",
      "name": "Congregação Cristã no Brasil",
      "note": "Sem setor ou quadra no bayface do IBGE 0500-0241P-0-96",
      "religion": "christian"
      },
      "geometry": {
         "type": "Point",
         "coordinates": [-38.241803,-9.672812]
      }
    },
    {
      "type": "Feature",
      "properties": { 
      "IBGE:COD_UNICO_ENDERECO": "112590565",
      "addr:housenumber": "90 A",
      "addr:postcode": "48619-899",
      "addr:street": "Estrada Para O Bogo",
      "addr:suburb": "Bogo",
      "crop": "bean;corn",
      "description": "CNEFE 2022 Plantio de Milho e Feijão",
      "fixme": "Verificar coordenadas",
      "landuse": "farmland",
      "note": "Sem setor ou quadra no bayface do IBGE 0500-0241P-0-96"
      },
      "geometry": {
         "type": "Point",
         "coordinates": [-38.273621293873,-9.6535605613881]
      }
    },
    {
      "type": "Feature",
      "properties": { 
      "IBGE:COD_UNICO_ENDERECO": "27413854",
      "addr:housenumber": "85",
      "addr:postcode": "48619-899",
      "addr:street": "Estrada Para O Bogo",
      "addr:suburb": "Bogo",
      "amenity": "animal_breeding",
      "animal_breeding": "poultry",
      "crop": "corn",
      "fixme": "Verificar coordenadas",
      "landuse": "farmland",
      "name": "Plantio de Milho e Criação de Galinhas",
      "note": "Sem setor ou quadra no bayface do IBGE 0500-0241P-0-96"
      },
      "geometry": {
         "type": "Point",
         "coordinates": [-38.242061747416,-9.6727869000032]
      }
    },
    {
      "type": "Feature",
      "properties": { 
      "IBGE:COD_UNICO_ENDERECO": "192034272",
      "addr:housenumber": "86",
      "addr:postcode": "48619-899",
      "addr:street": "Estrada Para O Bogo",
      "addr:suburb": "Bogo",
      "building": "yes",
      "fixme": "Verificar coordenadas",
      "note": "Sem setor ou quadra no bayface do IBGE 0500-0241P-0-96"
      },
      "geometry": {
         "type": "Point",
         "coordinates": [-38.242159,-9.672602]
      }
    },
    {
      "type": "Feature",
      "properties": { 
      "IBGE:COD_UNICO_ENDERECO": "27413842",
      "addr:housenumber": "76",
      "addr:postcode": "48619-899",
      "addr:street": "Estrada Para O Bogo",
      "addr:suburb": "Bogo",
      "building": "yes",
      "fixme": "Verificar coordenadas",
      "note": "Sem setor ou quadra no bayface do IBGE 0500-0241P-0-96"
      },
      "geometry": {
         "type": "Point",
         "coordinates": [-38.236535,-9.67235]
      }
    },
    {
      "type": "Feature",
      "properties": { 
      "IBGE:COD_UNICO_ENDERECO": "27413867",
      "addr:housenumber": "38",
      "addr:postcode": "48619-899",
      "addr:street": "Estrada Para O Bogo",
      "addr:suburb": "Bogo",
      "building": "yes",
      "fixme": "Verificar coordenadas",
      "note": "Sem setor ou quadra no bayface do IBGE 0500-0241P-0-96"
      },
      "geometry": {
         "type": "Point",
         "coordinates": [-38.249872,-9.670987]
      }
    },
    {
      "type": "Feature",
      "properties": { 
      "IBGE:COD_UNICO_ENDERECO": "27414900",
      "addr:housenumber": "38",
      "addr:postcode": "48619-899",
      "addr:street": "Povoado Bogo de Cima",
      "addr:suburb": "Bogo",
      "building": "yes",
      "fixme": "Verificar coordenadas",
      "note": "Sem setor ou quadra no bayface do IBGE 0500-0123P-0-92"
      },
      "geometry": {
         "type": "Point",
         "coordinates": [-38.288132,-9.649285]
      }
    },
    {
      "type": "Feature",
      "properties": { 
      "IBGE:COD_UNICO_ENDERECO": "27413875",
      "addr:housenumber": "19",
      "addr:postcode": "48619-899",
      "addr:street": "Estrada Para O Bogo",
      "addr:suburb": "Bogo",
      "building": "yes",
      "fixme": "Verificar coordenadas",
      "note": "Sem setor ou quadra no bayface do IBGE 0500-0241P-0-96"
      },
      "geometry": {
         "type": "Point",
         "coordinates": [-38.263896,-9.658142]
      }
    },
    {
      "type": "Feature",
      "properties": { 
      "IBGE:COD_UNICO_ENDERECO": "112589860",
      "addr:housenumber": "88",
      "addr:postcode": "48619-899",
      "addr:street": "Estrada Para O Bogo",
      "addr:suburb": "Bogo",
      "building": "yes",
      "fixme": "Verificar coordenadas",
      "note": "Sem setor ou quadra no bayface do IBGE 0500-0241P-0-96"
      },
      "geometry": {
         "type": "Point",
         "coordinates": [-38.24453,-9.672002]
      }
    },
    {
      "type": "Feature",
      "properties": { 
      "IBGE:COD_UNICO_ENDERECO": "27413844",
      "addr:housenumber": "57",
      "addr:postcode": "48619-899",
      "addr:street": "Estrada Para O Bogo",
      "addr:suburb": "Bogo",
      "building": "yes",
      "fixme": "Verificar coordenadas",
      "name": "Mercearia do Ari",
      "note": "Sem setor ou quadra no bayface do IBGE 0500-0241P-0-96",
      "shop": "convenience"
      },
      "geometry": {
         "type": "Point",
         "coordinates": [-38.236791510426,-9.6728617951224]
      }
    },
    {
      "type": "Feature",
      "properties": { 
      "IBGE:COD_UNICO_ENDERECO": "27413844",
      "addr:housenumber": "57",
      "addr:postcode": "48619-899",
      "addr:street": "Estrada Para O Bogo",
      "addr:suburb": "Bogo",
      "building": "yes",
      "fixme": "Verificar coordenadas",
      "name": "Fazenda Poço Seco",
      "note": "Sem setor ou quadra no bayface do IBGE 0500-0241P-0-96",
      "place": "farm"
      },
      "geometry": {
         "type": "Point",
         "coordinates": [-38.236792791048,-9.672853622981]
      }
    },
    {
      "type": "Feature",
      "properties": { 
      "IBGE:COD_UNICO_ENDERECO": "29553467",
      "addr:housenumber": "30 A",
      "addr:postcode": "48601-248",
      "addr:street": "Estrada Algodões Baixa Verde",
      "addr:suburb": "Bogo",
      "building": "yes",
      "fixme": "Verificar coordenadas",
      "note": "Sem setor ou quadra no bayface do IBGE 0500-0199P-0-28"
      },
      "geometry": {
         "type": "Point",
         "coordinates": [-38.263581,-9.678748]
      }
    },
    {
      "type": "Feature",
      "properties": { 
      "IBGE:COD_UNICO_ENDERECO": "109862720",
      "addr:housenumber": "40 A",
      "addr:postcode": "48601-248",
      "addr:street": "Estrada Santa Cruz aos Algodões",
      "addr:suburb": "Bogo",
      "building": "yes",
      "fixme": "Verificar coordenadas",
      "note": "Sem setor ou quadra no bayface do IBGE 0500-0199P-0-29"
      },
      "geometry": {
         "type": "Point",
         "coordinates": [-38.263133,-9.678225]
      }
    },
    {
      "type": "Feature",
      "properties": { 
      "IBGE:COD_UNICO_ENDERECO": "192034264",
      "addr:housenumber": "82",
      "addr:postcode": "48619-899",
      "addr:street": "Estrada Para O Bogo",
      "addr:suburb": "Bogo",
      "building": "yes",
      "fixme": "Verificar coordenadas",
      "note": "Sem setor ou quadra no bayface do IBGE 0500-0241P-0-96"
      },
      "geometry": {
         "type": "Point",
         "coordinates": [-38.239833,-9.671153]
      }
    },
    {
      "type": "Feature",
      "properties": { 
      "IBGE:COD_UNICO_ENDERECO": "27413885",
      "addr:housenumber": "13",
      "addr:postcode": "48619-899",
      "addr:street": "Estrada Para O Bogo",
      "addr:suburb": "Bogo",
      "building": "yes",
      "fixme": "Verificar coordenadas",
      "note": "Sem setor ou quadra no bayface do IBGE 0500-0241P-0-96"
      },
      "geometry": {
         "type": "Point",
         "coordinates": [-38.274441,-9.65359]
      }
    },
    {
      "type": "Feature",
      "properties": { 
      "IBGE:COD_UNICO_ENDERECO": "192034268",
      "addr:housenumber": "83",
      "addr:postcode": "48619-899",
      "addr:street": "Estrada Para O Bogo",
      "addr:suburb": "Bogo",
      "amenity": "animal_breeding",
      "animal_breeding": "poultry",
      "building": "yes",
      "description": "CNEFE 2022 Criação de Galinhas",
      "fixme": "Verificar coordenadas",
      "note": "Sem setor ou quadra no bayface do IBGE 0500-0241P-0-96"
      },
      "geometry": {
         "type": "Point",
         "coordinates": [-38.241434752904,-9.6728193955181]
      }
    },
    {
      "type": "Feature",
      "properties": { 
      "IBGE:COD_UNICO_ENDERECO": "27413881",
      "addr:housenumber": "17",
      "addr:postcode": "48619-899",
      "addr:street": "Estrada Para O Bogo",
      "addr:suburb": "Bogo",
      "building": "yes",
      "fixme": "Verificar coordenadas",
      "note": "Sem setor ou quadra no bayface do IBGE 0500-0241P-0-96"
      },
      "geometry": {
         "type": "Point",
         "coordinates": [-38.2681,-9.655025]
      }
    },
    {
      "type": "Feature",
      "properties": { 
      "IBGE:COD_UNICO_ENDERECO": "112589992",
      "addr:housenumber": "123",
      "addr:postcode": "48619-899",
      "addr:street": "Estrada Para O Bogo",
      "addr:suburb": "Bogo",
      "building": "yes",
      "fixme": "Verificar coordenadas",
      "note": "Sem setor ou quadra no bayface do IBGE 0500-0241P-0-96"
      },
      "geometry": {
         "type": "Point",
         "coordinates": [-38.266486753529,-9.6559448579953]
      }
    },
    {
      "type": "Feature",
      "properties": { 
      "IBGE:COD_UNICO_ENDERECO": "112589968",
      "addr:housenumber": "16",
      "addr:postcode": "48619-899",
      "addr:street": "Estrada Para O Bogo",
      "addr:suburb": "Bogo",
      "building": "warehouse",
      "description": "CNEFE 2022 Depósito de Ração",
      "fixme": "Verificar coordenadas",
      "note": "Sem setor ou quadra no bayface do IBGE 0500-0241P-0-96"
      },
      "geometry": {
         "type": "Point",
         "coordinates": [-38.271289,-9.654079]
      }
    },
    {
      "type": "Feature",
      "properties": { 
      "IBGE:COD_UNICO_ENDERECO": "112589934",
      "addr:housenumber": "54",
      "addr:postcode": "48619-899",
      "addr:street": "Estrada Para O Bogo",
      "addr:suburb": "Bogo",
      "building": "yes",
      "fixme": "Verificar coordenadas",
      "note": "Sem setor ou quadra no bayface do IBGE 0500-0241P-0-96"
      },
      "geometry": {
         "type": "Point",
         "coordinates": [-38.237105,-9.672862]
      }
    },
    {
      "type": "Feature",
      "properties": { 
      "IBGE:COD_UNICO_ENDERECO": "194569657",
      "addr:housenumber": "30",
      "addr:postcode": "48601-248",
      "addr:street": "Estrada Algodões Baixa Verde",
      "addr:suburb": "Bogo",
      "building": "yes",
      "fixme": "Verificar coordenadas",
      "note": "Sem setor ou quadra no bayface do IBGE 0500-0199P-0-28"
      },
      "geometry": {
         "type": "Point",
         "coordinates": [-38.263535,-9.679982]
      }
    },
    {
      "type": "Feature",
      "properties": { 
      "IBGE:COD_UNICO_ENDERECO": "27413877",
      "addr:housenumber": "115",
      "addr:postcode": "48619-899",
      "addr:street": "Estrada Para O Bogo",
      "addr:suburb": "Bogo",
      "building": "yes",
      "fixme": "Verificar coordenadas",
      "note": "Sem setor ou quadra no bayface do IBGE 0500-0241P-0-96"
      },
      "geometry": {
         "type": "Point",
         "coordinates": [-38.265216,-9.657273]
      }
    },
    {
      "type": "Feature",
      "properties": { 
      "IBGE:COD_UNICO_ENDERECO": "112589914",
      "addr:housenumber": "46",
      "addr:postcode": "48619-899",
      "addr:street": "Estrada Para O Bogo",
      "addr:suburb": "Bogo",
      "building": "yes",
      "fixme": "Verificar coordenadas",
      "note": "Sem setor ou quadra no bayface do IBGE 0500-0241P-0-96"
      },
      "geometry": {
         "type": "Point",
         "coordinates": [-38.241219,-9.673095]
      }
    },
    {
      "type": "Feature",
      "properties": { 
      "IBGE:COD_UNICO_ENDERECO": "27413863",
      "addr:housenumber": "42",
      "addr:postcode": "48619-899",
      "addr:street": "Estrada Para O Bogo",
      "addr:suburb": "Bogo",
      "building": "yes",
      "fixme": "Verificar coordenadas",
      "note": "Sem setor ou quadra no bayface do IBGE 0500-0241P-0-96"
      },
      "geometry": {
         "type": "Point",
         "coordinates": [-38.247028,-9.671964]
      }
    },
    {
      "type": "Feature",
      "properties": { 
      "IBGE:COD_UNICO_ENDERECO": "27413841",
      "addr:housenumber": "448792",
      "addr:postcode": "48619-899",
      "addr:street": "Estrada Para O Bogo",
      "addr:suburb": "Bogo",
      "addr:unit": "Cisterna",
      "amenity": "animal_breeding",
      "animal_breeding": "cow",
      "fixme": "Confirmar nome;Verificar coordenadas",
      "landuse": "farmyard",
      "name": "Criação de Bovinos",
      "note": "Sem setor ou quadra no bayface do IBGE 0500-0241P-0-96"
      },
      "geometry": {
         "type": "Point",
         "coordinates": [-38.233121,-9.671829]
      }
    },
    {
      "type": "Feature",
      "properties": { 
      "IBGE:COD_UNICO_ENDERECO": "27413879",
      "addr:housenumber": "118",
      "addr:postcode": "48619-899",
      "addr:street": "Estrada Para O Bogo",
      "addr:suburb": "Bogo",
      "amenity": "animal_breeding",
      "animal_breeding": "cow",
      "fixme": "Confirmar nome;Verificar coordenadas",
      "landuse": "farmyard",
      "name": "Criação de Bovinos",
      "note": "Sem setor ou quadra no bayface do IBGE 0500-0241P-0-96"
      },
      "geometry": {
         "type": "Point",
         "coordinates": [-38.266177,-9.656568]
      }
    },
    {
      "type": "Feature",
      "properties": { 
      "IBGE:COD_UNICO_ENDERECO": "27413875",
      "addr:housenumber": "19",
      "addr:postcode": "48619-899",
      "addr:street": "Estrada Para O Bogo",
      "addr:suburb": "Bogo",
      "crop": "bean;corn",
      "description": "CNEFE 2022 Plantio de Milho e Feijão",
      "fixme": "Verificar coordenadas",
      "landuse": "farmland",
      "note": "Sem setor ou quadra no bayface do IBGE 0500-0241P-0-96"
      },
      "geometry": {
         "type": "Point",
         "coordinates": [-38.263891463202,-9.6581570276867]
      }
    },
    {
      "type": "Feature",
      "properties": { 
      "IBGE:COD_UNICO_ENDERECO": "27413861",
      "addr:housenumber": "93",
      "addr:postcode": "48619-899",
      "addr:street": "Estrada Para O Bogo",
      "addr:suburb": "Bogo",
      "building": "yes",
      "fixme": "Verificar coordenadas",
      "note": "Sem setor ou quadra no bayface do IBGE 0500-0241P-0-96"
      },
      "geometry": {
         "type": "Point",
         "coordinates": [-38.248059603949,-9.6703028994432]
      }
    },
    {
      "type": "Feature",
      "properties": { 
      "IBGE:COD_UNICO_ENDERECO": "109862722",
      "addr:housenumber": "20 A",
      "addr:postcode": "48601-248",
      "addr:street": "Estrada Santa Cruz aos Algodões",
      "addr:suburb": "Bogo",
      "building": "yes",
      "fixme": "Verificar coordenadas",
      "note": "Sem setor ou quadra no bayface do IBGE 0500-0199P-0-29"
      },
      "geometry": {
         "type": "Point",
         "coordinates": [-38.260841366649,-9.6763079347967]
      }
    },
    {
      "type": "Feature",
      "properties": { 
      "IBGE:COD_UNICO_ENDERECO": "27413866",
      "addr:housenumber": "37",
      "addr:postcode": "48619-899",
      "addr:street": "Estrada Para O Bogo",
      "addr:suburb": "Bogo",
      "building": "yes",
      "fixme": "Verificar coordenadas",
      "name": "Fazenda Nova",
      "note": "Sem setor ou quadra no bayface do IBGE 0500-0241P-0-96",
      "place": "farm"
      },
      "geometry": {
         "type": "Point",
         "coordinates": [-38.250593131732,-9.6705341963619]
      }
    },
    {
      "type": "Feature",
      "properties": { 
      "IBGE:COD_UNICO_ENDERECO": "27413860",
      "addr:housenumber": "43",
      "addr:postcode": "48619-899",
      "addr:street": "Estrada Para O Bogo",
      "addr:suburb": "Bogo",
      "building": "yes",
      "fixme": "Verificar coordenadas",
      "note": "Sem setor ou quadra no bayface do IBGE 0500-0241P-0-96"
      },
      "geometry": {
         "type": "Point",
         "coordinates": [-38.246566,-9.67251]
      }
    },
    {
      "type": "Feature",
      "properties": { 
      "IBGE:COD_UNICO_ENDERECO": "192034260",
      "addr:housenumber": "48",
      "addr:postcode": "48619-899",
      "addr:street": "Estrada Para O Bogo",
      "addr:suburb": "Bogo",
      "building": "yes",
      "fixme": "Verificar coordenadas",
      "note": "Sem setor ou quadra no bayface do IBGE 0500-0241P-0-96"
      },
      "geometry": {
         "type": "Point",
         "coordinates": [-38.239493,-9.672771]
      }
    },
    {
      "type": "Feature",
      "properties": { 
      "IBGE:COD_UNICO_ENDERECO": "112590531",
      "addr:housenumber": "20",
      "addr:postcode": "48619-899",
      "addr:street": "Estrada Para O Bogo",
      "addr:suburb": "Bogo",
      "building": "yes",
      "fixme": "Verificar coordenadas",
      "note": "Sem setor ou quadra no bayface do IBGE 0500-0241P-0-96"
      },
      "geometry": {
         "type": "Point",
         "coordinates": [-38.262970882209,-9.658598545612]
      }
    },
    {
      "type": "Feature",
      "properties": { 
      "IBGE:COD_UNICO_ENDERECO": "112590491",
      "addr:housenumber": "77",
      "addr:postcode": "48619-899",
      "addr:street": "Estrada Para O Bogo",
      "addr:suburb": "Bogo",
      "building": "yes",
      "fixme": "Verificar coordenadas",
      "note": "Sem setor ou quadra no bayface do IBGE 0500-0241P-0-96"
      },
      "geometry": {
         "type": "Point",
         "coordinates": [-38.237959,-9.672677]
      }
    },
    {
      "type": "Feature",
      "properties": { 
      "IBGE:COD_UNICO_ENDERECO": "192034272",
      "addr:housenumber": "86",
      "addr:postcode": "48619-899",
      "addr:street": "Estrada Para O Bogo",
      "addr:suburb": "Bogo",
      "amenity": "animal_breeding",
      "animal_breeding": "poultry",
      "crop": "bean;corn",
      "fixme": "Verificar coordenadas",
      "landuse": "farmland",
      "name": "Plantio de Milho Feijão e Criação de Galinhas",
      "note": "Sem setor ou quadra no bayface do IBGE 0500-0241P-0-96"
      },
      "geometry": {
         "type": "Point",
         "coordinates": [-38.242175627137,-9.672604868701]
      }
    },
    {
      "type": "Feature",
      "properties": { 
      "IBGE:COD_UNICO_ENDERECO": "27413879",
      "addr:housenumber": "118",
      "addr:postcode": "48619-899",
      "addr:street": "Estrada Para O Bogo",
      "addr:suburb": "Bogo",
      "building": "yes",
      "fixme": "Verificar coordenadas",
      "note": "Sem setor ou quadra no bayface do IBGE 0500-0241P-0-96"
      },
      "geometry": {
         "type": "Point",
         "coordinates": [-38.266182192914,-9.6565813733878]
      }
    },
    {
      "type": "Feature",
      "properties": { 
      "IBGE:COD_UNICO_ENDERECO": "27413882",
      "addr:housenumber": "127",
      "addr:postcode": "48619-899",
      "addr:street": "Estrada Para O Bogo",
      "addr:suburb": "Bogo",
      "building": "yes",
      "fixme": "Verificar coordenadas",
      "note": "Sem setor ou quadra no bayface do IBGE 0500-0241P-0-96"
      },
      "geometry": {
         "type": "Point",
         "coordinates": [-38.271101,-9.654024]
      }
    },
    {
      "type": "Feature",
      "properties": { 
      "IBGE:COD_UNICO_ENDERECO": "112589924",
      "addr:housenumber": "78",
      "addr:postcode": "48619-899",
      "addr:street": "Estrada Para O Bogo",
      "addr:suburb": "Bogo",
      "building": "yes",
      "fixme": "Verificar coordenadas",
      "note": "Sem setor ou quadra no bayface do IBGE 0500-0241P-0-96"
      },
      "geometry": {
         "type": "Point",
         "coordinates": [-38.238846,-9.672486]
      }
    },
    {
      "type": "Feature",
      "properties": { 
      "IBGE:COD_UNICO_ENDERECO": "192034308",
      "addr:housenumber": "106",
      "addr:postcode": "48619-899",
      "addr:street": "Estrada Para O Bogo",
      "addr:suburb": "Bogo",
      "building": "yes",
      "fixme": "Verificar coordenadas",
      "note": "Sem setor ou quadra no bayface do IBGE 0500-0241P-0-96"
      },
      "geometry": {
         "type": "Point",
         "coordinates": [-38.252256,-9.668193]
      }
    },
    {
      "type": "Feature",
      "properties": { 
      "IBGE:COD_UNICO_ENDERECO": "112589934",
      "addr:housenumber": "54",
      "addr:postcode": "48619-899",
      "addr:street": "Estrada Para O Bogo",
      "addr:suburb": "Bogo",
      "crop": "bean;corn",
      "description": "CNEFE 2022 Plantio de Milho e Feijão",
      "fixme": "Verificar coordenadas",
      "landuse": "farmland",
      "note": "Sem setor ou quadra no bayface do IBGE 0500-0241P-0-96"
      },
      "geometry": {
         "type": "Point",
         "coordinates": [-38.237113735902,-9.6728696799755]
      }
    },
    {
      "type": "Feature",
      "properties": { 
      "IBGE:COD_UNICO_ENDERECO": "27413863",
      "addr:housenumber": "42",
      "addr:postcode": "48619-899",
      "addr:street": "Estrada Para O Bogo",
      "addr:suburb": "Bogo",
      "crop": "bean;corn",
      "description": "CNEFE 2022 Plantio de Milho e Feijão",
      "fixme": "Verificar coordenadas",
      "landuse": "farmland",
      "note": "Sem setor ou quadra no bayface do IBGE 0500-0241P-0-96"
      },
      "geometry": {
         "type": "Point",
         "coordinates": [-38.247017212022,-9.6719721628642]
      }
    },
    {
      "type": "Feature",
      "properties": { 
      "IBGE:COD_UNICO_ENDERECO": "194569655",
      "addr:housenumber": "30 B",
      "addr:postcode": "48601-248",
      "addr:street": "Estrada Algodões Baixa Verde",
      "addr:suburb": "Bogo",
      "building": "yes",
      "fixme": "Verificar coordenadas",
      "note": "Sem setor ou quadra no bayface do IBGE 0500-0199P-0-28"
      },
      "geometry": {
         "type": "Point",
         "coordinates": [-38.263015,-9.677335]
      }
    },
    {
      "type": "Feature",
      "properties": { 
      "IBGE:COD_UNICO_ENDERECO": "27413847",
      "addr:housenumber": "49",
      "addr:postcode": "48619-899",
      "addr:street": "Estrada Para O Bogo",
      "addr:suburb": "Bogo",
      "crop": "bean;corn",
      "description": "CNEFE 2022 Plantio de Milho e Feijão",
      "fixme": "Verificar coordenadas",
      "landuse": "farmland",
      "note": "Sem setor ou quadra no bayface do IBGE 0500-0241P-0-96"
      },
      "geometry": {
         "type": "Point",
         "coordinates": [-38.238493,-9.672772]
      }
    },
    {
      "type": "Feature",
      "properties": { 
      "IBGE:COD_UNICO_ENDERECO": "27413841",
      "addr:housenumber": "448792",
      "addr:postcode": "48619-899",
      "addr:street": "Estrada Para O Bogo",
      "addr:suburb": "Bogo",
      "addr:unit": "Cisterna",
      "building": "yes",
      "fixme": "Verificar coordenadas",
      "note": "Sem setor ou quadra no bayface do IBGE 0500-0241P-0-96"
      },
      "geometry": {
         "type": "Point",
         "coordinates": [-38.233120741957,-9.6718278237789]
      }
    },
    {
      "type": "Feature",
      "properties": { 
      "IBGE:COD_UNICO_ENDERECO": "112589895",
      "addr:housenumber": "73",
      "addr:postcode": "48619-899",
      "addr:street": "Estrada Para O Bogo",
      "addr:suburb": "Bogo",
      "building": "yes",
      "fixme": "Verificar coordenadas",
      "note": "Sem setor ou quadra no bayface do IBGE 0500-0241P-0-96"
      },
      "geometry": {
         "type": "Point",
         "coordinates": [-38.234498,-9.672002]
      }
    },
    {
      "type": "Feature",
      "properties": { 
      "IBGE:COD_UNICO_ENDERECO": "27413851",
      "addr:housenumber": "10 C",
      "addr:postcode": "48619-899",
      "addr:street": "Estrada Para O Bogo",
      "addr:suburb": "Bogo",
      "building": "yes",
      "fixme": "Verificar coordenadas",
      "note": "Sem setor ou quadra no bayface do IBGE 0500-0241P-0-96"
      },
      "geometry": {
         "type": "Point",
         "coordinates": [-38.240124,-9.672628]
      }
    },
    {
      "type": "Feature",
      "properties": { 
      "IBGE:COD_UNICO_ENDERECO": "112589871",
      "addr:housenumber": "96",
      "addr:postcode": "48619-899",
      "addr:street": "Estrada Para O Bogo",
      "addr:suburb": "Bogo",
      "building": "yes",
      "fixme": "Verificar coordenadas",
      "note": "Sem setor ou quadra no bayface do IBGE 0500-0241P-0-96"
      },
      "geometry": {
         "type": "Point",
         "coordinates": [-38.249629,-9.669654]
      }
    },
    {
      "type": "Feature",
      "properties": { 
      "IBGE:COD_UNICO_ENDERECO": "112589904",
      "addr:housenumber": "448788",
      "addr:postcode": "48619-899",
      "addr:street": "Estrada Para O Bogo",
      "addr:suburb": "Bogo",
      "addr:unit": "Cisterna",
      "building": "yes",
      "fixme": "Verificar coordenadas",
      "note": "Sem setor ou quadra no bayface do IBGE 0500-0241P-0-96"
      },
      "geometry": {
         "type": "Point",
         "coordinates": [-38.245493091408,-9.6720576857377]
      }
    },
    {
      "type": "Feature",
      "properties": { 
      "IBGE:COD_UNICO_ENDERECO": "27413837",
      "addr:housenumber": "71",
      "addr:postcode": "48619-899",
      "addr:street": "Estrada Para O Bogo",
      "addr:suburb": "Bogo",
      "building": "yes",
      "fixme": "Verificar coordenadas",
      "name": "Fazenda São Sebastião",
      "note": "Sem setor ou quadra no bayface do IBGE 0500-0241P-0-96",
      "place": "farm"
      },
      "geometry": {
         "type": "Point",
         "coordinates": [-38.233731,-9.67167]
      }
    },
    {
      "type": "Feature",
      "properties": { 
      "IBGE:COD_UNICO_ENDERECO": "27413847",
      "addr:housenumber": "49",
      "addr:postcode": "48619-899",
      "addr:street": "Estrada Para O Bogo",
      "addr:suburb": "Bogo",
      "building": "yes",
      "fixme": "Verificar coordenadas",
      "note": "Sem setor ou quadra no bayface do IBGE 0500-0241P-0-96"
      },
      "geometry": {
         "type": "Point",
         "coordinates": [-38.238495418472,-9.6727808114057]
      }
    },
    {
      "type": "Feature",
      "properties": { 
      "IBGE:COD_UNICO_ENDERECO": "27413862",
      "addr:housenumber": "92",
      "addr:postcode": "48619-899",
      "addr:street": "Estrada Para O Bogo",
      "addr:suburb": "Bogo",
      "building": "yes",
      "fixme": "Verificar coordenadas",
      "note": "Sem setor ou quadra no bayface do IBGE 0500-0241P-0-96"
      },
      "geometry": {
         "type": "Point",
         "coordinates": [-38.248018,-9.670114]
      }
    },
    {
      "type": "Feature",
      "properties": { 
      "IBGE:COD_UNICO_ENDERECO": "27413837",
      "addr:housenumber": "71",
      "addr:postcode": "48619-899",
      "addr:street": "Estrada Para O Bogo",
      "addr:suburb": "Bogo",
      "building": "yes",
      "fixme": "Verificar coordenadas",
      "note": "Sem setor ou quadra no bayface do IBGE 0500-0241P-0-96"
      },
      "geometry": {
         "type": "Point",
         "coordinates": [-38.233731805688,-9.6716596430548]
      }
    }
  ]
}
