{
  "type": "FeatureCollection",
  "generator": "CSV-CNEFE2GeoJSON.lua 1.5.7 - fidelis.assis@gmail.com",
  "source": "IBGE CNEFE + Faces de Logradouros - 2022",
  "date": "2025-02-02T09:05:07-0300",
  "features": [
    {
      "type": "Feature",
      "properties": { 
      "IBGE:COD_UNICO_ENDERECO": "27470291",
      "addr:housenumber": "12",
      "addr:postcode": "48619-899",
      "addr:street": "Estrada Para Olho d'Água do Paulo",
      "addr:suburb": "Arrasta PE",
      "addr:unit": "Fundos",
      "building": "yes",
      "fixme": "Verificar coordenadas",
      "note": "Sem dados para mover para dentro da quadra 0500-0196P-9-2"
      },
      "geometry": {
         "type": "Point",
         "coordinates": [-38.2995921,-9.5284757]
      }
    },
    {
      "type": "Feature",
      "properties": { 
      "IBGE:COD_UNICO_ENDERECO": "191744068",
      "addr:housenumber": "131",
      "addr:postcode": "48619-899",
      "addr:suburb": "Arrasta PE",
      "building": "yes",
      "fixme": "Verificar coordenadas",
      "note": "Sem dados para mover para dentro da quadra 0500-0196P-15-10"
      },
      "geometry": {
         "type": "Point",
         "coordinates": [-38.306219,-9.5324674]
      }
    },
    {
      "type": "Feature",
      "properties": { 
      "IBGE:COD_UNICO_ENDERECO": "191720836",
      "addr:housenumber": "13",
      "addr:postcode": "48610-488",
      "addr:street": "Povoado Arrasta PE",
      "addr:suburb": "Arrasta PE",
      "building": "construction",
      "fixme": "Verificar coordenadas",
      "note": "Sem setor ou quadra no bayface do IBGE 0500-0097P-0-63"
      },
      "geometry": {
         "type": "Point",
         "coordinates": [-38.305592,-9.523417]
      }
    },
    {
      "type": "Feature",
      "properties": { 
      "IBGE:COD_UNICO_ENDERECO": "27470288",
      "addr:housenumber": "9",
      "addr:postcode": "48619-899",
      "addr:street": "Estrada Para O Sítio do Lúcio",
      "addr:suburb": "Arrasta PE",
      "addr:unit": "Fundos",
      "building": "yes",
      "fixme": "Verificar coordenadas",
      "note": "Sem dados para mover para dentro da quadra 0500-0196P-2-1"
      },
      "geometry": {
         "type": "Point",
         "coordinates": [-38.2986012,-9.5285952]
      }
    },
    {
      "type": "Feature",
      "properties": { 
      "IBGE:COD_UNICO_ENDERECO": "27470309",
      "addr:housenumber": "4",
      "addr:postcode": "48619-899",
      "addr:street": "Estrada Para O Sítio do Lúcio",
      "addr:suburb": "Arrasta PE",
      "addr:unit": "Fundos",
      "building": "yes",
      "fixme": "Verificar coordenadas",
      "note": "Sem dados para mover para dentro da quadra 0500-0196P-4-1"
      },
      "geometry": {
         "type": "Point",
         "coordinates": [-38.2995361,-9.5294573]
      }
    },
    {
      "type": "Feature",
      "properties": { 
      "IBGE:COD_UNICO_ENDERECO": "191744055",
      "addr:housenumber": "129",
      "addr:postcode": "48619-899",
      "addr:suburb": "Arrasta PE",
      "building": "yes",
      "fixme": "Verificar coordenadas",
      "note": "Sem dados para mover para dentro da quadra 0500-0196P-15-10"
      },
      "geometry": {
         "type": "Point",
         "coordinates": [-38.3056631,-9.5324673]
      }
    },
    {
      "type": "Feature",
      "properties": { 
      "IBGE:COD_UNICO_ENDERECO": "191743716",
      "addr:housenumber": "180",
      "addr:postcode": "48619-899",
      "addr:street": "Estrada Para O Sítio do Lúcio",
      "addr:suburb": "Arrasta PE",
      "building": "yes",
      "fixme": "Verificar coordenadas",
      "note": "Sem dados para mover para dentro da quadra 0500-0196P-8-1"
      },
      "geometry": {
         "type": "Point",
         "coordinates": [-38.307696,-9.5344418]
      }
    },
    {
      "type": "Feature",
      "properties": { 
      "IBGE:COD_UNICO_ENDERECO": "191743522",
      "addr:housenumber": "53",
      "addr:postcode": "48619-899",
      "addr:street": "Estrada Para O Sítio do Lúcio",
      "addr:suburb": "Arrasta PE",
      "building": "yes"
      },
      "geometry": {
         "type": "Point",
         "coordinates": [-38.2997945,-9.5297889]
      }
    },
    {
      "type": "Feature",
      "properties": { 
      "IBGE:COD_UNICO_ENDERECO": "191743962",
      "addr:housenumber": "84",
      "addr:postcode": "48619-899",
      "addr:suburb": "Arrasta PE",
      "building": "yes"
      },
      "geometry": {
         "type": "Point",
         "coordinates": [-38.3017332,-9.529792]
      }
    },
    {
      "type": "Feature",
      "properties": { 
      "IBGE:COD_UNICO_ENDERECO": "191743481",
      "addr:housenumber": "112",
      "addr:postcode": "48619-899",
      "addr:street": "Estrada Para O Sítio do Lúcio",
      "addr:suburb": "Arrasta PE",
      "building": "yes",
      "fixme": "Verificar coordenadas",
      "note": "Sem dados para mover para dentro da quadra 0500-0196P-1-1"
      },
      "geometry": {
         "type": "Point",
         "coordinates": [-38.2982105,-9.5282743]
      }
    },
    {
      "type": "Feature",
      "properties": { 
      "IBGE:COD_UNICO_ENDERECO": "191743874;191743880",
      "addr:housenumber": "116",
      "addr:postcode": "48619-899",
      "addr:suburb": "Arrasta PE",
      "building": "yes"
      },
      "geometry": {
         "type": "Point",
         "coordinates": [-38.302587,-9.529363]
      }
    },
    {
      "type": "Feature",
      "properties": { 
      "IBGE:COD_UNICO_ENDERECO": "27470312",
      "addr:housenumber": "64",
      "addr:postcode": "48619-899",
      "addr:street": "Estrada Para O Sítio do Lúcio",
      "addr:suburb": "Arrasta PE",
      "building": "yes",
      "fixme": "Verificar coordenadas",
      "note": "Sem dados para mover para dentro da quadra 0500-0196P-4-1"
      },
      "geometry": {
         "type": "Point",
         "coordinates": [-38.3001586,-9.5299719]
      }
    },
    {
      "type": "Feature",
      "properties": { 
      "IBGE:COD_UNICO_ENDERECO": "191743870",
      "addr:housenumber": "448859",
      "addr:postcode": "48619-899",
      "addr:suburb": "Arrasta PE",
      "building": "yes"
      },
      "geometry": {
         "type": "Point",
         "coordinates": [-38.3025752,-9.5293915]
      }
    },
    {
      "type": "Feature",
      "properties": { 
      "IBGE:COD_UNICO_ENDERECO": "191743932;191743935",
      "addr:housenumber": "76",
      "addr:postcode": "48619-899",
      "addr:suburb": "Arrasta PE",
      "building": "yes"
      },
      "geometry": {
         "type": "Point",
         "coordinates": [-38.3029712,-9.5299705]
      }
    },
    {
      "type": "Feature",
      "properties": { 
      "IBGE:COD_UNICO_ENDERECO": "191743851",
      "addr:housenumber": "20",
      "addr:postcode": "48619-899",
      "addr:suburb": "Arrasta PE",
      "building": "yes",
      "fixme": "Verificar coordenadas",
      "note": "Sem dados para mover para dentro da quadra 0500-0196P-11-3"
      },
      "geometry": {
         "type": "Point",
         "coordinates": [-38.3030861,-9.5287239]
      }
    },
    {
      "type": "Feature",
      "properties": { 
      "IBGE:COD_UNICO_ENDERECO": "191743913",
      "addr:housenumber": "81",
      "addr:postcode": "48619-899",
      "addr:suburb": "Arrasta PE",
      "building": "yes"
      },
      "geometry": {
         "type": "Point",
         "coordinates": [-38.3021988,-9.5298032]
      }
    },
    {
      "type": "Feature",
      "properties": { 
      "IBGE:COD_UNICO_ENDERECO": "191743459",
      "addr:housenumber": "108",
      "addr:postcode": "48619-899",
      "addr:street": "Estrada Para O Sítio do Lúcio",
      "addr:suburb": "Arrasta PE",
      "building": "yes",
      "fixme": "Verificar coordenadas",
      "note": "Sem dados para mover para dentro da quadra 0500-0196P-1-1"
      },
      "geometry": {
         "type": "Point",
         "coordinates": [-38.2981844,-9.528249]
      }
    },
    {
      "type": "Feature",
      "properties": { 
      "IBGE:COD_UNICO_ENDERECO": "27470286",
      "addr:housenumber": "14",
      "addr:postcode": "48619-899",
      "addr:street": "Estrada Para O Sítio do Lúcio",
      "addr:suburb": "Arrasta PE",
      "addr:unit": "Fundos",
      "building": "yes",
      "fixme": "Verificar coordenadas",
      "note": "Sem dados para mover para dentro da quadra 0500-0196P-1-1"
      },
      "geometry": {
         "type": "Point",
         "coordinates": [-38.298607,-9.5286567]
      }
    },
    {
      "type": "Feature",
      "properties": { 
      "IBGE:COD_UNICO_ENDERECO": "191720831",
      "addr:housenumber": "12",
      "addr:postcode": "48610-488",
      "addr:street": "Povoado Arrasta PE",
      "addr:suburb": "Arrasta PE",
      "building": "yes",
      "fixme": "Verificar coordenadas",
      "note": "Sem setor ou quadra no bayface do IBGE 0500-0097P-0-63"
      },
      "geometry": {
         "type": "Point",
         "coordinates": [-38.304974,-9.522359]
      }
    },
    {
      "type": "Feature",
      "properties": { 
      "IBGE:COD_UNICO_ENDERECO": "191743928",
      "addr:housenumber": "78",
      "addr:postcode": "48619-899",
      "addr:suburb": "Arrasta PE",
      "building": "yes"
      },
      "geometry": {
         "type": "Point",
         "coordinates": [-38.3028291,-9.5299453]
      }
    },
    {
      "type": "Feature",
      "properties": { 
      "IBGE:COD_UNICO_ENDERECO": "27470311",
      "addr:housenumber": "39",
      "addr:postcode": "48619-899",
      "addr:street": "Estrada Para O Sítio do Lúcio",
      "addr:suburb": "Arrasta PE",
      "building": "yes",
      "fixme": "Verificar coordenadas",
      "note": "Sem dados para mover para dentro da quadra 0500-0196P-4-1"
      },
      "geometry": {
         "type": "Point",
         "coordinates": [-38.2996652,-9.5295622]
      }
    },
    {
      "type": "Feature",
      "properties": { 
      "IBGE:COD_UNICO_ENDERECO": "191743600",
      "addr:housenumber": "140",
      "addr:postcode": "48619-899",
      "addr:street": "Estrada Para O Sítio do Lúcio",
      "addr:suburb": "Arrasta PE",
      "amenity": "school",
      "building": "yes",
      "fixme": "Verificar coordenadas",
      "name": "Colégio",
      "note": "Sem dados para mover para dentro da quadra 0500-0196P-6-1"
      },
      "geometry": {
         "type": "Point",
         "coordinates": [-38.3025826,-9.5316985]
      }
    },
    {
      "type": "Feature",
      "properties": { 
      "IBGE:COD_UNICO_ENDERECO": "27470314",
      "addr:housenumber": "10",
      "addr:postcode": "48619-899",
      "addr:street": "Estrada Para O Sítio do Lúcio",
      "addr:suburb": "Arrasta PE",
      "building": "yes",
      "fixme": "Verificar coordenadas",
      "note": "Sem dados para mover para dentro da quadra 0500-0196P-4-1"
      },
      "geometry": {
         "type": "Point",
         "coordinates": [-38.3005803,-9.5303996]
      }
    },
    {
      "type": "Feature",
      "properties": { 
      "IBGE:COD_UNICO_ENDERECO": "27470290",
      "addr:housenumber": "96",
      "addr:postcode": "48619-899",
      "addr:street": "Estrada Para Olho d'Água do Paulo",
      "addr:suburb": "Arrasta PE",
      "building": "yes",
      "fixme": "Verificar coordenadas",
      "note": "Sem dados para mover para dentro da quadra 0500-0196P-9-2"
      },
      "geometry": {
         "type": "Point",
         "coordinates": [-38.2989923,-9.528666]
      }
    },
    {
      "type": "Feature",
      "properties": { 
      "IBGE:COD_UNICO_ENDERECO": "27470313",
      "addr:housenumber": "65",
      "addr:postcode": "48619-899",
      "addr:street": "Estrada Para O Sítio do Lúcio",
      "addr:suburb": "Arrasta PE",
      "building": "yes",
      "fixme": "Verificar coordenadas",
      "note": "Sem dados para mover para dentro da quadra 0500-0196P-4-1"
      },
      "geometry": {
         "type": "Point",
         "coordinates": [-38.3001599,-9.5299731]
      }
    },
    {
      "type": "Feature",
      "properties": { 
      "IBGE:COD_UNICO_ENDERECO": "191743830",
      "addr:housenumber": "8",
      "addr:postcode": "48619-899",
      "addr:suburb": "Arrasta PE",
      "building": "yes",
      "fixme": "Verificar coordenadas",
      "note": "Sem dados para mover para dentro da quadra 0500-0196P-11-1"
      },
      "geometry": {
         "type": "Point",
         "coordinates": [-38.3024609,-9.5285562]
      }
    },
    {
      "type": "Feature",
      "properties": { 
      "IBGE:COD_UNICO_ENDERECO": "191743907",
      "addr:housenumber": "82",
      "addr:postcode": "48619-899",
      "addr:suburb": "Arrasta PE",
      "building": "yes"
      },
      "geometry": {
         "type": "Point",
         "coordinates": [-38.3019287,-9.5297451]
      }
    },
    {
      "type": "Feature",
      "properties": { 
      "IBGE:COD_UNICO_ENDERECO": "191743952",
      "addr:housenumber": "75",
      "addr:postcode": "48619-899",
      "addr:suburb": "Arrasta PE",
      "building": "yes"
      },
      "geometry": {
         "type": "Point",
         "coordinates": [-38.3032543,-9.5300273]
      }
    },
    {
      "type": "Feature",
      "properties": { 
      "IBGE:COD_UNICO_ENDERECO": "191720841",
      "addr:housenumber": "88",
      "addr:postcode": "48610-488",
      "addr:street": "Povoado Arrasta PE",
      "addr:suburb": "Arrasta PE",
      "building": "yes",
      "fixme": "Verificar coordenadas",
      "note": "Sem setor ou quadra no bayface do IBGE 0500-0097P-0-63"
      },
      "geometry": {
         "type": "Point",
         "coordinates": [-38.311314,-9.525473]
      }
    },
    {
      "type": "Feature",
      "properties": { 
      "IBGE:COD_UNICO_ENDERECO": "191743663",
      "addr:housenumber": "150",
      "addr:postcode": "48619-899",
      "addr:street": "Estrada Para O Sítio do Lúcio",
      "addr:suburb": "Arrasta PE",
      "building": "yes",
      "fixme": "Verificar coordenadas",
      "note": "Sem dados para mover para dentro da quadra 0500-0196P-7-1"
      },
      "geometry": {
         "type": "Point",
         "coordinates": [-38.3063021,-9.5337976]
      }
    },
    {
      "type": "Feature",
      "properties": { 
      "IBGE:COD_UNICO_ENDERECO": "191743974",
      "addr:housenumber": "740",
      "addr:postcode": "48619-899",
      "addr:street": "Estrada Para O Povoado Riacho",
      "addr:suburb": "Arrasta PE",
      "building": "yes"
      },
      "geometry": {
         "type": "Point",
         "coordinates": [-38.2976097,-9.5331251]
      }
    },
    {
      "type": "Feature",
      "properties": { 
      "IBGE:COD_UNICO_ENDERECO": "191743905",
      "addr:housenumber": "89",
      "addr:postcode": "48619-899",
      "addr:suburb": "Arrasta PE",
      "building": "yes"
      },
      "geometry": {
         "type": "Point",
         "coordinates": [-38.3018473,-9.5296205]
      }
    },
    {
      "type": "Feature",
      "properties": { 
      "IBGE:COD_UNICO_ENDERECO": "191743777",
      "addr:housenumber": "102",
      "addr:postcode": "48619-899",
      "addr:suburb": "Arrasta PE",
      "building": "yes"
      },
      "geometry": {
         "type": "Point",
         "coordinates": [-38.3019092,-9.5283761]
      }
    },
    {
      "type": "Feature",
      "properties": { 
      "IBGE:COD_UNICO_ENDERECO": "27470281",
      "addr:housenumber": "22",
      "addr:postcode": "48619-899",
      "addr:street": "Estrada Para O Sítio do Lúcio",
      "addr:suburb": "Arrasta PE",
      "building": "yes",
      "fixme": "Verificar coordenadas",
      "note": "Sem dados para mover para dentro da quadra 0500-0196P-2-1"
      },
      "geometry": {
         "type": "Point",
         "coordinates": [-38.2982587,-9.5282653]
      }
    },
    {
      "type": "Feature",
      "properties": { 
      "IBGE:COD_UNICO_ENDERECO": "27470277",
      "addr:housenumber": "3",
      "addr:postcode": "48619-899",
      "addr:street": "Estrada Para O Sítio do Lúcio",
      "addr:suburb": "Arrasta PE",
      "building": "yes",
      "fixme": "Verificar coordenadas",
      "name": "Fazenda Santa Maria",
      "note": "Sem dados para mover para dentro da quadra 0500-0196P-2-1",
      "place": "farm"
      },
      "geometry": {
         "type": "Point",
         "coordinates": [-38.295562,-9.5247498]
      }
    },
    {
      "type": "Feature",
      "properties": { 
      "IBGE:COD_UNICO_ENDERECO": "191743781",
      "addr:housenumber": "100",
      "addr:postcode": "48619-899",
      "addr:suburb": "Arrasta PE",
      "building": "yes"
      },
      "geometry": {
         "type": "Point",
         "coordinates": [-38.3021242,-9.5292241]
      }
    },
    {
      "type": "Feature",
      "properties": { 
      "IBGE:COD_UNICO_ENDERECO": "191743977",
      "addr:housenumber": "46",
      "addr:postcode": "48619-899",
      "addr:street": "Estrada Para O Povoado Riacho",
      "addr:suburb": "Arrasta PE",
      "building": "yes"
      },
      "geometry": {
         "type": "Point",
         "coordinates": [-38.2971779,-9.5331371]
      }
    },
    {
      "type": "Feature",
      "properties": { 
      "IBGE:COD_UNICO_ENDERECO": "27470300",
      "addr:housenumber": "32",
      "addr:postcode": "48619-899",
      "addr:street": "Povoado Arrastape",
      "addr:suburb": "Arrasta PE",
      "addr:unit": "Fundos",
      "building": "yes",
      "fixme": "Verificar coordenadas",
      "note": "Sem setor ou quadra no bayface do IBGE 0500-0168P-0-42"
      },
      "geometry": {
         "type": "Point",
         "coordinates": [-38.305637,-9.520612]
      }
    },
    {
      "type": "Feature",
      "properties": { 
      "IBGE:COD_UNICO_ENDERECO": "191743877",
      "addr:housenumber": "117",
      "addr:postcode": "48619-899",
      "addr:suburb": "Arrasta PE",
      "building": "yes"
      },
      "geometry": {
         "type": "Point",
         "coordinates": [-38.3025266,-9.5294]
      }
    },
    {
      "type": "Feature",
      "properties": { 
      "IBGE:COD_UNICO_ENDERECO": "191720462",
      "addr:housenumber": "32",
      "addr:postcode": "48619-899",
      "addr:street": "Estrada Olho d'Água de Paulo",
      "addr:suburb": "Arrasta PE",
      "building": "yes",
      "fixme": "Verificar coordenadas",
      "note": "Sem setor ou quadra no bayface do IBGE 0500-0097P-0-43"
      },
      "geometry": {
         "type": "Point",
         "coordinates": [-38.30587,-9.520383]
      }
    },
    {
      "type": "Feature",
      "properties": { 
      "IBGE:COD_UNICO_ENDERECO": "191743737",
      "addr:housenumber": "21",
      "addr:postcode": "48619-899",
      "addr:street": "Estrada Para Olho d'Água do Paulo",
      "addr:suburb": "Arrasta PE",
      "building": "yes",
      "fixme": "Verificar coordenadas",
      "note": "Sem dados para mover para dentro da quadra 0500-0196P-9-2"
      },
      "geometry": {
         "type": "Point",
         "coordinates": [-38.2991185,-9.528629]
      }
    },
    {
      "type": "Feature",
      "properties": { 
      "IBGE:COD_UNICO_ENDERECO": "191743834",
      "addr:housenumber": "122",
      "addr:postcode": "48619-899",
      "addr:suburb": "Arrasta PE",
      "building": "yes",
      "fixme": "Verificar coordenadas",
      "note": "Sem dados para mover para dentro da quadra 0500-0196P-11-2"
      },
      "geometry": {
         "type": "Point",
         "coordinates": [-38.3053665,-9.5282441]
      }
    },
    {
      "type": "Feature",
      "properties": { 
      "IBGE:COD_UNICO_ENDERECO": "27470293",
      "addr:housenumber": "200",
      "addr:postcode": "48619-899",
      "addr:street": "Estrada Para Olho d'Água do Paulo",
      "addr:suburb": "Arrasta PE",
      "building": "yes",
      "fixme": "Verificar coordenadas",
      "note": "Sem dados para mover para dentro da quadra 0500-0196P-9-2"
      },
      "geometry": {
         "type": "Point",
         "coordinates": [-38.3001832,-9.528378]
      }
    },
    {
      "type": "Feature",
      "properties": { 
      "IBGE:COD_UNICO_ENDERECO": "27470278",
      "addr:housenumber": "9",
      "addr:postcode": "48619-899",
      "addr:street": "Estrada Para O Sítio do Lúcio",
      "addr:suburb": "Arrasta PE",
      "building": "yes",
      "fixme": "Verificar coordenadas",
      "note": "Sem dados para mover para dentro da quadra 0500-0196P-2-1"
      },
      "geometry": {
         "type": "Point",
         "coordinates": [-38.2971137,-9.5273434]
      }
    },
    {
      "type": "Feature",
      "properties": { 
      "IBGE:COD_UNICO_ENDERECO": "27470294",
      "addr:housenumber": "16",
      "addr:postcode": "48619-899",
      "addr:street": "Estrada Para Olho d'Água do Paulo",
      "addr:suburb": "Arrasta PE",
      "addr:unit": "Fundos",
      "building": "yes",
      "fixme": "Verificar coordenadas",
      "note": "Sem dados para mover para dentro da quadra 0500-0196P-9-2"
      },
      "geometry": {
         "type": "Point",
         "coordinates": [-38.3001924,-9.5283769]
      }
    },
    {
      "type": "Feature",
      "properties": { 
      "IBGE:COD_UNICO_ENDERECO": "27470295",
      "addr:housenumber": "13",
      "addr:postcode": "48619-899",
      "addr:street": "Estrada Para Olho d'Água do Paulo",
      "addr:suburb": "Arrasta PE",
      "addr:unit": "Fundos",
      "building": "yes",
      "fixme": "Verificar coordenadas",
      "note": "Sem dados para mover para dentro da quadra 0500-0196P-9-2"
      },
      "geometry": {
         "type": "Point",
         "coordinates": [-38.3004289,-9.5283401]
      }
    },
    {
      "type": "Feature",
      "properties": { 
      "IBGE:COD_UNICO_ENDERECO": "191743745",
      "addr:housenumber": "20",
      "addr:postcode": "48619-899",
      "addr:street": "Estrada Para Olho d'Água do Paulo",
      "addr:suburb": "Arrasta PE",
      "amenity": "place_of_worship",
      "building": "yes",
      "fixme": "Verificar coordenadas",
      "name": "Igreja Ministério Cidade Ademar",
      "note": "Sem dados para mover para dentro da quadra 0500-0196P-9-2"
      },
      "geometry": {
         "type": "Point",
         "coordinates": [-38.2998515,-9.528423]
      }
    },
    {
      "type": "Feature",
      "properties": { 
      "IBGE:COD_UNICO_ENDERECO": "27470289",
      "addr:housenumber": "22",
      "addr:postcode": "48619-899",
      "addr:street": "Estrada Para Olho d'Água do Paulo",
      "addr:suburb": "Arrasta PE",
      "addr:unit": "Fundos",
      "building": "yes",
      "fixme": "Verificar coordenadas",
      "note": "Sem dados para mover para dentro da quadra 0500-0196P-9-2"
      },
      "geometry": {
         "type": "Point",
         "coordinates": [-38.2992737,-9.5285777]
      }
    },
    {
      "type": "Feature",
      "properties": { 
      "IBGE:COD_UNICO_ENDERECO": "27470296",
      "addr:housenumber": "89",
      "addr:postcode": "48619-899",
      "addr:street": "Estrada Para Olho d'Água do Paulo",
      "addr:suburb": "Arrasta PE",
      "building": "yes",
      "fixme": "Verificar coordenadas",
      "note": "Sem dados para mover para dentro da quadra 0500-0196P-9-2"
      },
      "geometry": {
         "type": "Point",
         "coordinates": [-38.3004497,-9.5283368]
      }
    },
    {
      "type": "Feature",
      "properties": { 
      "IBGE:COD_UNICO_ENDERECO": "191743581",
      "addr:housenumber": "448738",
      "addr:postcode": "48619-899",
      "addr:street": "Estrada Para O Sítio do Lúcio",
      "addr:suburb": "Arrasta PE",
      "building": "yes",
      "fixme": "Verificar coordenadas",
      "note": "Sem dados para mover para dentro da quadra 0500-0196P-4-1"
      },
      "geometry": {
         "type": "Point",
         "coordinates": [-38.3006102,-9.5304298]
      }
    },
    {
      "type": "Feature",
      "properties": { 
      "IBGE:COD_UNICO_ENDERECO": "27470310",
      "addr:housenumber": "65",
      "addr:postcode": "48619-899",
      "addr:street": "Estrada Para O Sítio do Lúcio",
      "addr:suburb": "Arrasta PE",
      "amenity": "pub",
      "building": "yes",
      "fixme": "Verificar coordenadas",
      "name": "Bar da Felicidade",
      "note": "Sem dados para mover para dentro da quadra 0500-0196P-4-1"
      },
      "geometry": {
         "type": "Point",
         "coordinates": [-38.300108,-9.5299254]
      }
    },
    {
      "type": "Feature",
      "properties": { 
      "IBGE:COD_UNICO_ENDERECO": "191743785",
      "addr:housenumber": "99",
      "addr:postcode": "48619-899",
      "addr:suburb": "Arrasta PE",
      "building": "yes"
      },
      "geometry": {
         "type": "Point",
         "coordinates": [-38.3019784,-9.5291886]
      }
    },
    {
      "type": "Feature",
      "properties": { 
      "IBGE:COD_UNICO_ENDERECO": "27470277",
      "addr:housenumber": "3",
      "addr:postcode": "48619-899",
      "addr:street": "Estrada Para O Sítio do Lúcio",
      "addr:suburb": "Arrasta PE",
      "building": "yes",
      "fixme": "Verificar coordenadas",
      "note": "Sem dados para mover para dentro da quadra 0500-0196P-2-1"
      },
      "geometry": {
         "type": "Point",
         "coordinates": [-38.295561955816,-9.5247499616562]
      }
    },
    {
      "type": "Feature",
      "properties": { 
      "IBGE:COD_UNICO_ENDERECO": "27470308",
      "addr:housenumber": "55",
      "addr:postcode": "48619-899",
      "addr:street": "Estrada Para O Sítio do Lúcio",
      "addr:suburb": "Arrasta PE",
      "building": "yes",
      "fixme": "Verificar coordenadas",
      "note": "Sem dados para mover para dentro da quadra 0500-0196P-4-1"
      },
      "geometry": {
         "type": "Point",
         "coordinates": [-38.2994846,-9.5294145]
      }
    },
    {
      "type": "Feature",
      "properties": { 
      "IBGE:COD_UNICO_ENDERECO": "27470306",
      "addr:housenumber": "3",
      "addr:postcode": "48619-899",
      "addr:street": "Estrada Para O Sítio do Lúcio",
      "addr:suburb": "Arrasta PE",
      "building": "yes",
      "fixme": "Verificar coordenadas",
      "note": "Sem dados para mover para dentro da quadra 0500-0196P-4-1"
      },
      "geometry": {
         "type": "Point",
         "coordinates": [-38.2994052,-9.529344]
      }
    },
    {
      "type": "Feature",
      "properties": { 
      "IBGE:COD_UNICO_ENDERECO": "27470316",
      "addr:housenumber": "13",
      "addr:postcode": "48619-899",
      "addr:street": "Estrada Para O Sítio do Lúcio",
      "addr:suburb": "Arrasta PE",
      "building": "yes",
      "fixme": "Verificar coordenadas",
      "note": "Sem dados para mover para dentro da quadra 0500-0196P-4-1"
      },
      "geometry": {
         "type": "Point",
         "coordinates": [-38.3011661,-9.5308832]
      }
    },
    {
      "type": "Feature",
      "properties": { 
      "IBGE:COD_UNICO_ENDERECO": "191744058",
      "addr:housenumber": "138",
      "addr:postcode": "48619-899",
      "addr:suburb": "Arrasta PE",
      "building": "yes",
      "fixme": "Verificar coordenadas",
      "note": "Sem dados para mover para dentro da quadra 0500-0196P-15-10"
      },
      "geometry": {
         "type": "Point",
         "coordinates": [-38.3059222,-9.5324551]
      }
    },
    {
      "type": "Feature",
      "properties": { 
      "IBGE:COD_UNICO_ENDERECO": "191744070",
      "addr:housenumber": "113",
      "addr:postcode": "48619-899",
      "addr:suburb": "Arrasta PE",
      "building": "yes",
      "fixme": "Verificar coordenadas",
      "note": "Sem dados para mover para dentro da quadra 0500-0196P-15-10"
      },
      "geometry": {
         "type": "Point",
         "coordinates": [-38.3061653,-9.5324608]
      }
    },
    {
      "type": "Feature",
      "properties": { 
      "IBGE:COD_UNICO_ENDERECO": "191744062",
      "addr:housenumber": "80",
      "addr:postcode": "48619-899",
      "addr:suburb": "Arrasta PE",
      "building": "yes",
      "fixme": "Verificar coordenadas",
      "note": "Sem dados para mover para dentro da quadra 0500-0196P-15-10"
      },
      "geometry": {
         "type": "Point",
         "coordinates": [-38.3059126,-9.5324549]
      }
    },
    {
      "type": "Feature",
      "properties": { 
      "IBGE:COD_UNICO_ENDERECO": "191743955",
      "addr:housenumber": "75",
      "addr:postcode": "48619-899",
      "addr:suburb": "Arrasta PE",
      "addr:unit": "Casa 2",
      "building": "yes"
      },
      "geometry": {
         "type": "Point",
         "coordinates": [-38.3035046,-9.5300919]
      }
    },
    {
      "type": "Feature",
      "properties": { 
      "IBGE:COD_UNICO_ENDERECO": "191743904",
      "addr:housenumber": "91",
      "addr:postcode": "48619-899",
      "addr:suburb": "Arrasta PE",
      "building": "yes"
      },
      "geometry": {
         "type": "Point",
         "coordinates": [-38.3018634,-9.5295367]
      }
    },
    {
      "type": "Feature",
      "properties": { 
      "IBGE:COD_UNICO_ENDERECO": "27470285",
      "addr:housenumber": "33",
      "addr:postcode": "48619-899",
      "addr:street": "Estrada Para O Sítio do Lúcio",
      "addr:suburb": "Arrasta PE",
      "building": "yes",
      "fixme": "Verificar coordenadas",
      "note": "Sem dados para mover para dentro da quadra 0500-0196P-2-1"
      },
      "geometry": {
         "type": "Point",
         "coordinates": [-38.2987257,-9.5287145]
      }
    },
    {
      "type": "Feature",
      "properties": { 
      "IBGE:COD_UNICO_ENDERECO": "27470297",
      "addr:housenumber": "30",
      "addr:postcode": "48619-899",
      "addr:street": "Povoado Arrastape",
      "addr:suburb": "Arrasta PE",
      "addr:unit": "Fundos",
      "building": "yes",
      "fixme": "Verificar coordenadas",
      "note": "Sem setor ou quadra no bayface do IBGE 0500-0168P-0-42"
      },
      "geometry": {
         "type": "Point",
         "coordinates": [-38.303515,-9.523772]
      }
    },
    {
      "type": "Feature",
      "properties": { 
      "IBGE:COD_UNICO_ENDERECO": "27470282",
      "addr:housenumber": "17",
      "addr:postcode": "48619-899",
      "addr:street": "Estrada Para O Sítio do Lúcio",
      "addr:suburb": "Arrasta PE",
      "building": "yes",
      "fixme": "Verificar coordenadas",
      "note": "Sem dados para mover para dentro da quadra 0500-0196P-2-1"
      },
      "geometry": {
         "type": "Point",
         "coordinates": [-38.2973182,-9.5274928]
      }
    },
    {
      "type": "Feature",
      "properties": { 
      "IBGE:COD_UNICO_ENDERECO": "191743842",
      "addr:housenumber": "101",
      "addr:postcode": "48619-899",
      "addr:suburb": "Arrasta PE",
      "building": "yes",
      "fixme": "Verificar coordenadas",
      "note": "Sem dados para mover para dentro da quadra 0500-0196P-11-2"
      },
      "geometry": {
         "type": "Point",
         "coordinates": [-38.3053159,-9.5282082]
      }
    },
    {
      "type": "Feature",
      "properties": { 
      "IBGE:COD_UNICO_ENDERECO": "191743505",
      "addr:housenumber": "15",
      "addr:postcode": "48619-899",
      "addr:street": "Estrada Para O Sítio do Lúcio",
      "addr:suburb": "Arrasta PE",
      "building": "yes",
      "fixme": "Verificar coordenadas",
      "note": "Sem dados para mover para dentro da quadra 0500-0196P-2-1"
      },
      "geometry": {
         "type": "Point",
         "coordinates": [-38.2970618,-9.5272997]
      }
    },
    {
      "type": "Feature",
      "properties": { 
      "IBGE:COD_UNICO_ENDERECO": "191743793",
      "addr:housenumber": "90",
      "addr:postcode": "48619-899",
      "addr:suburb": "Arrasta PE",
      "building": "yes"
      },
      "geometry": {
         "type": "Point",
         "coordinates": [-38.3019814,-9.5291896]
      }
    },
    {
      "type": "Feature",
      "properties": { 
      "IBGE:COD_UNICO_ENDERECO": "191743681",
      "addr:housenumber": "129",
      "addr:postcode": "48619-899",
      "addr:street": "Estrada Para O Sítio do Lúcio",
      "addr:suburb": "Arrasta PE",
      "building": "yes",
      "fixme": "Verificar coordenadas",
      "note": "Sem dados para mover para dentro da quadra 0500-0196P-8-1"
      },
      "geometry": {
         "type": "Point",
         "coordinates": [-38.3056333,-9.5333735]
      }
    },
    {
      "type": "Feature",
      "properties": { 
      "IBGE:COD_UNICO_ENDERECO": "27470317",
      "addr:housenumber": "12",
      "addr:postcode": "48619-899",
      "addr:street": "Estrada Para O Sítio do Lúcio",
      "addr:suburb": "Arrasta PE",
      "building": "yes",
      "fixme": "Verificar coordenadas",
      "note": "Sem dados para mover para dentro da quadra 0500-0196P-4-1"
      },
      "geometry": {
         "type": "Point",
         "coordinates": [-38.3012131,-9.5309178]
      }
    },
    {
      "type": "Feature",
      "properties": { 
      "IBGE:COD_UNICO_ENDERECO": "191743856",
      "addr:housenumber": "20",
      "addr:postcode": "48619-899",
      "addr:suburb": "Arrasta PE",
      "addr:unit": "Casa A",
      "building": "yes",
      "fixme": "Verificar coordenadas",
      "note": "Sem dados para mover para dentro da quadra 0500-0196P-11-3"
      },
      "geometry": {
         "type": "Point",
         "coordinates": [-38.3031598,-9.5287096]
      }
    },
    {
      "type": "Feature",
      "properties": { 
      "IBGE:COD_UNICO_ENDERECO": "191744007",
      "addr:housenumber": "40",
      "addr:postcode": "48619-899",
      "addr:suburb": "Arrasta PE",
      "building": "yes",
      "fixme": "Verificar coordenadas",
      "note": "Muito afastado da face: 41m 0500-0196P-15-1"
      },
      "geometry": {
         "type": "Point",
         "coordinates": [-38.303642,-9.532491]
      }
    },
    {
      "type": "Feature",
      "properties": { 
      "IBGE:COD_UNICO_ENDERECO": "27470287",
      "addr:housenumber": "20",
      "addr:postcode": "48619-899",
      "addr:street": "Estrada Para O Sítio do Lúcio",
      "addr:suburb": "Arrasta PE",
      "addr:unit": "Fundos",
      "building": "yes",
      "fixme": "Verificar coordenadas",
      "note": "Sem dados para mover para dentro da quadra 0500-0196P-2-1"
      },
      "geometry": {
         "type": "Point",
         "coordinates": [-38.2984928,-9.528493]
      }
    },
    {
      "type": "Feature",
      "properties": { 
      "IBGE:COD_UNICO_ENDERECO": "27470283",
      "addr:housenumber": "6",
      "addr:postcode": "48619-899",
      "addr:street": "Estrada Para O Sítio do Lúcio",
      "addr:suburb": "Arrasta PE",
      "addr:unit": "Fundos",
      "building": "yes",
      "fixme": "Verificar coordenadas",
      "note": "Sem dados para mover para dentro da quadra 0500-0196P-2-1"
      },
      "geometry": {
         "type": "Point",
         "coordinates": [-38.298464,-9.5284643]
      }
    },
    {
      "type": "Feature",
      "properties": { 
      "IBGE:COD_UNICO_ENDERECO": "191743773",
      "addr:housenumber": "10",
      "addr:postcode": "48619-899",
      "addr:suburb": "Arrasta PE",
      "building": "yes"
      },
      "geometry": {
         "type": "Point",
         "coordinates": [-38.3017533,-9.5283141]
      }
    },
    {
      "type": "Feature",
      "properties": { 
      "IBGE:COD_UNICO_ENDERECO": "191743860",
      "addr:housenumber": "10",
      "addr:postcode": "48619-899",
      "addr:suburb": "Arrasta PE",
      "addr:unit": "Casa A",
      "building": "yes",
      "fixme": "Verificar coordenadas",
      "note": "Sem dados para mover para dentro da quadra 0500-0196P-11-3"
      },
      "geometry": {
         "type": "Point",
         "coordinates": [-38.3034093,-9.5286621]
      }
    },
    {
      "type": "Feature",
      "properties": { 
      "IBGE:COD_UNICO_ENDERECO": "191743671",
      "addr:housenumber": "692",
      "addr:postcode": "48619-899",
      "addr:street": "Estrada Para O Sítio do Lúcio",
      "addr:suburb": "Arrasta PE",
      "building": "yes",
      "fixme": "Verificar coordenadas",
      "note": "Sem dados para mover para dentro da quadra 0500-0196P-7-1"
      },
      "geometry": {
         "type": "Point",
         "coordinates": [-38.3103308,-9.5392604]
      }
    },
    {
      "type": "Feature",
      "properties": { 
      "IBGE:COD_UNICO_ENDERECO": "191743676",
      "addr:housenumber": "176",
      "addr:postcode": "48619-899",
      "addr:street": "Estrada Para O Sítio do Lúcio",
      "addr:suburb": "Arrasta PE",
      "building": "yes",
      "fixme": "Verificar coordenadas",
      "note": "Sem dados para mover para dentro da quadra 0500-0196P-8-1"
      },
      "geometry": {
         "type": "Point",
         "coordinates": [-38.3056102,-9.5333611]
      }
    }
  ]
}
