{
  "type": "FeatureCollection",
  "source": "IBGE CNEFE + Faces de Logradouros - 2022",
  "generator": "CSV-CNEFE2GeoJSON.lua 1.5.7 - fidelis.assis@gmail.com",
  "date": "2025-02-02T09:05:06-0300",
  "features": [
    {
      "type": "Feature",
      "properties": { 
      "IBGE:COD_UNICO_ENDERECO": "191400423",
      "addr:housenumber": "48 A",
      "addr:postcode": "48608-565",
      "addr:street": "Avenida dos Encantos",
      "addr:suburb": "Alves de Sousa",
      "building": "yes",
      "fixme": "Verificar coordenadas",
      "note": "Sem face no bayface do IBGE 0500-0133P-1-3"
      },
      "geometry": {
         "type": "Point",
         "coordinates": [-38.209753,-9.40512]
      }
    },
    {
      "type": "Feature",
      "properties": { 
      "IBGE:COD_UNICO_ENDERECO": "27417670",
      "addr:housenumber": "52",
      "addr:postcode": "48608-410",
      "addr:street": "Rua Alagoinha",
      "addr:suburb": "Alves de Sousa",
      "building": "yes"
      },
      "geometry": {
         "type": "Point",
         "coordinates": [-38.2107544,-9.4057534]
      }
    },
    {
      "type": "Feature",
      "properties": { 
      "IBGE:COD_UNICO_ENDERECO": "27417744",
      "addr:housenumber": "25",
      "addr:postcode": "48608-560",
      "addr:street": "Rua dos Prazeres",
      "addr:suburb": "Alves de Sousa",
      "building": "yes",
      "fixme": "Verificar coordenadas",
      "note": "Sem dados para mover para dentro da quadra 0500-0133P-2-1"
      },
      "geometry": {
         "type": "Point",
         "coordinates": [-38.2100354,-9.4045158]
      }
    },
    {
      "type": "Feature",
      "properties": { 
      "IBGE:COD_UNICO_ENDERECO": "27417659",
      "addr:housenumber": "297",
      "addr:postcode": "48608-410",
      "addr:street": "Rua Alagoinha",
      "addr:suburb": "Alves de Sousa",
      "addr:unit": "Casa",
      "building": "construction"
      },
      "geometry": {
         "type": "Point",
         "coordinates": [-38.2109286,-9.405514]
      }
    },
    {
      "type": "Feature",
      "properties": { 
      "IBGE:COD_UNICO_ENDERECO": "191400719",
      "addr:housenumber": "71",
      "addr:postcode": "48608-560",
      "addr:street": "Rua dos Prazeres",
      "addr:suburb": "Alves de Sousa",
      "building": "yes",
      "fixme": "Verificar coordenadas",
      "note": "Sem face no bayface do IBGE 0500-0133P-1-8"
      },
      "geometry": {
         "type": "Point",
         "coordinates": [-38.211344,-9.404138]
      }
    },
    {
      "type": "Feature",
      "properties": { 
      "IBGE:COD_UNICO_ENDERECO": "191401032",
      "addr:housenumber": "1",
      "addr:postcode": "48608-465",
      "addr:street": "Rua Valença",
      "addr:suburb": "Alves de Sousa",
      "building": "yes",
      "fixme": "Verificar coordenadas",
      "note": "Sem face no bayface do IBGE 0500-0133P-4-6"
      },
      "geometry": {
         "type": "Point",
         "coordinates": [-38.212652,-9.404874]
      }
    },
    {
      "type": "Feature",
      "properties": { 
      "IBGE:COD_UNICO_ENDERECO": "27417746",
      "addr:housenumber": "64",
      "addr:postcode": "48608-560",
      "addr:street": "Rua dos Prazeres",
      "addr:suburb": "Alves de Sousa",
      "building": "yes",
      "fixme": "Verificar coordenadas",
      "note": "Sem dados para mover para dentro da quadra 0500-0133P-2-1"
      },
      "geometry": {
         "type": "Point",
         "coordinates": [-38.210133,-9.4044817]
      }
    },
    {
      "type": "Feature",
      "properties": { 
      "IBGE:COD_UNICO_ENDERECO": "27417833",
      "addr:housenumber": "13",
      "addr:postcode": "48608-385",
      "addr:street": "Travessa Aratu",
      "addr:suburb": "Alves de Sousa",
      "building": "yes"
      },
      "geometry": {
         "type": "Point",
         "coordinates": [-38.2123656,-9.4060291]
      }
    },
    {
      "type": "Feature",
      "properties": { 
      "IBGE:COD_UNICO_ENDERECO": "27417638",
      "addr:housenumber": "52 A",
      "addr:postcode": "48608-560",
      "addr:street": "Travessa dos Prazeres",
      "addr:suburb": "Alves de Sousa",
      "building": "yes",
      "fixme": "Verificar coordenadas",
      "note": "Sem face no bayface do IBGE 0500-0133P-1-1"
      },
      "geometry": {
         "type": "Point",
         "coordinates": [-38.210147,-9.404868]
      }
    },
    {
      "type": "Feature",
      "properties": { 
      "IBGE:COD_UNICO_ENDERECO": "27417842",
      "addr:housenumber": "12",
      "addr:postcode": "48608-385",
      "addr:street": "Travessa Aratu",
      "addr:suburb": "Alves de Sousa",
      "building": "yes"
      },
      "geometry": {
         "type": "Point",
         "coordinates": [-38.2125638,-9.4059742]
      }
    },
    {
      "type": "Feature",
      "properties": { 
      "IBGE:COD_UNICO_ENDERECO": "27417845",
      "addr:housenumber": "60",
      "addr:postcode": "48608-520",
      "addr:street": "Rua Aratu",
      "addr:suburb": "Alves de Sousa",
      "building": "yes"
      },
      "geometry": {
         "type": "Point",
         "coordinates": [-38.2113028,-9.4059641]
      }
    },
    {
      "type": "Feature",
      "properties": { 
      "IBGE:COD_UNICO_ENDERECO": "191401056",
      "addr:housenumber": "21",
      "addr:postcode": "48608-520",
      "addr:street": "Rua Aratu",
      "addr:suburb": "Alves de Sousa",
      "building": "yes"
      },
      "geometry": {
         "type": "Point",
         "coordinates": [-38.2119414,-9.4062021]
      }
    },
    {
      "type": "Feature",
      "properties": { 
      "IBGE:COD_UNICO_ENDERECO": "27417728",
      "addr:housenumber": "34 A",
      "addr:postcode": "48608-510",
      "addr:street": "Rua Pojuca",
      "addr:suburb": "Alves de Sousa",
      "building": "yes"
      },
      "geometry": {
         "type": "Point",
         "coordinates": [-38.2113124,-9.4057178]
      }
    },
    {
      "type": "Feature",
      "properties": { 
      "IBGE:COD_UNICO_ENDERECO": "27417637",
      "addr:housenumber": "53",
      "addr:postcode": "48608-560",
      "addr:street": "Travessa dos Prazeres",
      "addr:suburb": "Alves de Sousa",
      "building": "yes",
      "fixme": "Verificar coordenadas",
      "note": "Sem face no bayface do IBGE 0500-0133P-1-1"
      },
      "geometry": {
         "type": "Point",
         "coordinates": [-38.210186,-9.404888]
      }
    },
    {
      "type": "Feature",
      "properties": { 
      "IBGE:COD_UNICO_ENDERECO": "191400848",
      "addr:housenumber": "66 B",
      "addr:postcode": "48608-560",
      "addr:street": "Rua dos Prazeres",
      "addr:suburb": "Alves de Sousa",
      "building": "yes",
      "fixme": "Verificar coordenadas",
      "note": "Sem dados para mover para dentro da quadra 0500-0133P-2-1"
      },
      "geometry": {
         "type": "Point",
         "coordinates": [-38.2104612,-9.4043669]
      }
    },
    {
      "type": "Feature",
      "properties": { 
      "IBGE:COD_UNICO_ENDERECO": "191400393",
      "addr:housenumber": "12",
      "addr:postcode": "48608-560",
      "addr:street": "Rua dos Prazeres",
      "addr:suburb": "Alves de Sousa",
      "building": "construction",
      "fixme": "Verificar coordenadas",
      "note": "Sem dados para mover para dentro da quadra 0500-0133P-1-2"
      },
      "geometry": {
         "type": "Point",
         "coordinates": [-38.2097158,-9.4045314]
      }
    },
    {
      "type": "Feature",
      "properties": { 
      "IBGE:COD_UNICO_ENDERECO": "191401048",
      "addr:housenumber": "22",
      "addr:postcode": "48608-460",
      "addr:street": "Rua Salvador",
      "addr:suburb": "Alves de Sousa",
      "building": "yes"
      },
      "geometry": {
         "type": "Point",
         "coordinates": [-38.2118111,-9.4061774]
      }
    },
    {
      "type": "Feature",
      "properties": { 
      "IBGE:COD_UNICO_ENDERECO": "191400632",
      "addr:housenumber": "255",
      "addr:postcode": "48608-460",
      "addr:street": "Rua Salvador",
      "addr:suburb": "Alves de Sousa",
      "building": "yes",
      "fixme": "Verificar coordenadas",
      "name": "Siri Lounge",
      "note": "Sem face no bayface do IBGE 0500-0133P-1-4"
      },
      "geometry": {
         "type": "Point",
         "coordinates": [-38.211756,-9.406509]
      }
    },
    {
      "type": "Feature",
      "properties": { 
      "IBGE:COD_UNICO_ENDERECO": "27417668",
      "addr:housenumber": "11",
      "addr:postcode": "48608-410",
      "addr:street": "Rua Alagoinha",
      "addr:suburb": "Alves de Sousa",
      "building": "yes"
      },
      "geometry": {
         "type": "Point",
         "coordinates": [-38.2113131,-9.4047225]
      }
    },
    {
      "type": "Feature",
      "properties": { 
      "IBGE:COD_UNICO_ENDERECO": "27417797",
      "addr:housenumber": "4",
      "addr:postcode": "48608-460",
      "addr:street": "Rua Salvador",
      "addr:suburb": "Alves de Sousa",
      "building": "yes"
      },
      "geometry": {
         "type": "Point",
         "coordinates": [-38.2120818,-9.4056912]
      }
    },
    {
      "type": "Feature",
      "properties": { 
      "IBGE:COD_UNICO_ENDERECO": "27417717",
      "addr:housenumber": "144",
      "addr:postcode": "48608-510",
      "addr:street": "Rua Pojuca",
      "addr:suburb": "Alves de Sousa",
      "building": "yes"
      },
      "geometry": {
         "type": "Point",
         "coordinates": [-38.2118503,-9.4048197]
      }
    },
    {
      "type": "Feature",
      "properties": { 
      "IBGE:COD_UNICO_ENDERECO": "191401181",
      "addr:housenumber": "11",
      "addr:postcode": "48608-380",
      "addr:street": "Travessa Alagoinha",
      "addr:suburb": "Alves de Sousa",
      "building": "yes"
      },
      "geometry": {
         "type": "Point",
         "coordinates": [-38.2125844,-9.4061323]
      }
    },
    {
      "type": "Feature",
      "properties": { 
      "IBGE:COD_UNICO_ENDERECO": "27417702",
      "addr:housenumber": "90",
      "addr:postcode": "48608-520",
      "addr:street": "Rua Aratu",
      "addr:suburb": "Alves de Sousa",
      "building": "yes"
      },
      "geometry": {
         "type": "Point",
         "coordinates": [-38.2111069,-9.4058693]
      }
    },
    {
      "type": "Feature",
      "properties": { 
      "IBGE:COD_UNICO_ENDERECO": "27417633",
      "addr:housenumber": "58 Bc",
      "addr:postcode": "48608-560",
      "addr:street": "Travessa dos Prazeres",
      "addr:suburb": "Alves de Sousa",
      "building": "yes",
      "fixme": "Verificar coordenadas",
      "note": "Sem face no bayface do IBGE 0500-0133P-1-1"
      },
      "geometry": {
         "type": "Point",
         "coordinates": [-38.210505,-9.405177]
      }
    },
    {
      "type": "Feature",
      "properties": { 
      "IBGE:COD_UNICO_ENDERECO": "27417754",
      "addr:housenumber": "206",
      "addr:postcode": "48608-410",
      "addr:street": "Rua Alagoinha",
      "addr:suburb": "Alves de Sousa",
      "building": "yes"
      },
      "geometry": {
         "type": "Point",
         "coordinates": [-38.2114139,-9.4047052]
      }
    },
    {
      "type": "Feature",
      "properties": { 
      "IBGE:COD_UNICO_ENDERECO": "191400403",
      "addr:housenumber": "5",
      "addr:postcode": "48608-560",
      "addr:street": "Rua dos Prazeres",
      "addr:suburb": "Alves de Sousa",
      "amenity": "fast_food",
      "building": "yes",
      "fixme": "Verificar coordenadas",
      "name": "Pepito S Hamburgueria",
      "note": "Sem dados para mover para dentro da quadra 0500-0133P-1-2"
      },
      "geometry": {
         "type": "Point",
         "coordinates": [-38.2097134,-9.4045311]
      }
    },
    {
      "type": "Feature",
      "properties": { 
      "IBGE:COD_UNICO_ENDERECO": "27417661",
      "addr:housenumber": "63",
      "addr:postcode": "48608-410",
      "addr:street": "Rua Alagoinha",
      "addr:suburb": "Alves de Sousa",
      "building": "yes"
      },
      "geometry": {
         "type": "Point",
         "coordinates": [-38.2115574,-9.404438]
      }
    },
    {
      "type": "Feature",
      "properties": { 
      "IBGE:COD_UNICO_ENDERECO": "191400485",
      "addr:housenumber": "4",
      "addr:postcode": "48608-565",
      "addr:street": "Avenida dos Encantos",
      "addr:suburb": "Alves de Sousa",
      "building": "yes",
      "fixme": "Verificar coordenadas",
      "note": "Sem face no bayface do IBGE 0500-0133P-1-3"
      },
      "geometry": {
         "type": "Point",
         "coordinates": [-38.210532,-9.405861]
      }
    },
    {
      "type": "Feature",
      "properties": { 
      "IBGE:COD_UNICO_ENDERECO": "27417822",
      "addr:housenumber": "10",
      "addr:postcode": "48608-365",
      "addr:street": "Travessa Salvador",
      "addr:suburb": "Alves de Sousa",
      "building": "yes"
      },
      "geometry": {
         "type": "Point",
         "coordinates": [-38.2123546,-9.405893]
      }
    },
    {
      "type": "Feature",
      "properties": { 
      "IBGE:COD_UNICO_ENDERECO": "27417756",
      "addr:housenumber": "238",
      "addr:postcode": "48608-410",
      "addr:street": "Rua Alagoinha",
      "addr:suburb": "Alves de Sousa",
      "building": "yes"
      },
      "geometry": {
         "type": "Point",
         "coordinates": [-38.2112917,-9.4049486]
      }
    },
    {
      "type": "Feature",
      "properties": { 
      "IBGE:COD_UNICO_ENDERECO": "191400431",
      "addr:housenumber": "34",
      "addr:postcode": "48608-565",
      "addr:street": "Avenida dos Encantos",
      "addr:suburb": "Alves de Sousa",
      "building": "yes",
      "fixme": "Verificar coordenadas",
      "note": "Sem face no bayface do IBGE 0500-0133P-1-3"
      },
      "geometry": {
         "type": "Point",
         "coordinates": [-38.209996,-9.405347]
      }
    },
    {
      "type": "Feature",
      "properties": { 
      "IBGE:COD_UNICO_ENDERECO": "191400519",
      "addr:housenumber": "103 C",
      "addr:postcode": "48608-565",
      "addr:street": "Avenida dos Encantos",
      "addr:suburb": "Alves de Sousa",
      "building": "yes",
      "fixme": "Verificar coordenadas",
      "note": "Sem face no bayface do IBGE 0500-0133P-1-3"
      },
      "geometry": {
         "type": "Point",
         "coordinates": [-38.210791,-9.40628]
      }
    },
    {
      "type": "Feature",
      "properties": { 
      "IBGE:COD_UNICO_ENDERECO": "191400420",
      "addr:housenumber": "42",
      "addr:postcode": "48608-565",
      "addr:street": "Avenida dos Encantos",
      "addr:suburb": "Alves de Sousa",
      "building": "yes",
      "fixme": "Verificar coordenadas",
      "note": "Sem face no bayface do IBGE 0500-0133P-1-3"
      },
      "geometry": {
         "type": "Point",
         "coordinates": [-38.209648,-9.404953]
      }
    },
    {
      "type": "Feature",
      "properties": { 
      "IBGE:COD_UNICO_ENDERECO": "27417849",
      "addr:housenumber": "19",
      "addr:postcode": "48608-380",
      "addr:street": "Travessa Alagoinha",
      "addr:suburb": "Alves de Sousa",
      "building": "yes"
      },
      "geometry": {
         "type": "Point",
         "coordinates": [-38.2125108,-9.4062597]
      }
    },
    {
      "type": "Feature",
      "properties": { 
      "IBGE:COD_UNICO_ENDERECO": "27417671;27417682-27417684",
      "addr:flats": "101-202",
      "addr:housenumber": "137",
      "addr:postcode": "48608-410",
      "addr:street": "Rua Alagoinha",
      "addr:suburb": "Alves de Sousa",
      "building": "yes",
      "building:flats": "4",
      "building:levels": "2"
      },
      "geometry": {
         "type": "Point",
         "coordinates": [-38.2111029,-9.4051552]
      }
    },
    {
      "type": "Feature",
      "properties": { 
      "IBGE:COD_UNICO_ENDERECO": "27417767",
      "addr:housenumber": "76",
      "addr:postcode": "48608-510",
      "addr:street": "Rua Pojuca",
      "addr:suburb": "Alves de Sousa",
      "building": "yes"
      },
      "geometry": {
         "type": "Point",
         "coordinates": [-38.2115193,-9.4053078]
      }
    },
    {
      "type": "Feature",
      "properties": { 
      "IBGE:COD_UNICO_ENDERECO": "27417832",
      "addr:housenumber": "15",
      "addr:postcode": "48608-385",
      "addr:street": "Travessa Aratu",
      "addr:suburb": "Alves de Sousa",
      "building": "yes"
      },
      "geometry": {
         "type": "Point",
         "coordinates": [-38.2123096,-9.4061248]
      }
    },
    {
      "type": "Feature",
      "properties": { 
      "IBGE:COD_UNICO_ENDERECO": "27417805",
      "addr:housenumber": "30",
      "addr:postcode": "48608-520",
      "addr:street": "Rua Aratu",
      "addr:suburb": "Alves de Sousa",
      "building": "yes"
      },
      "geometry": {
         "type": "Point",
         "coordinates": [-38.2115916,-9.4061038]
      }
    },
    {
      "type": "Feature",
      "properties": { 
      "IBGE:COD_UNICO_ENDERECO": "191400943",
      "addr:housenumber": "25 A",
      "addr:postcode": "48608-520",
      "addr:street": "Rua Aratu",
      "addr:suburb": "Alves de Sousa",
      "building": "yes",
      "fixme": "Verificar coordenadas",
      "note": "Sem dados para mover para dentro da quadra 0500-0133P-4-3"
      },
      "geometry": {
         "type": "Point",
         "coordinates": [-38.2115678,-9.4060923]
      }
    },
    {
      "type": "Feature",
      "properties": { 
      "IBGE:COD_UNICO_ENDERECO": "191401160",
      "addr:housenumber": "21",
      "addr:postcode": "48608-520",
      "addr:street": "Rua Aratu",
      "addr:suburb": "Alves de Sousa",
      "building": "yes"
      },
      "geometry": {
         "type": "Point",
         "coordinates": [-38.2124057,-9.4063613]
      }
    },
    {
      "type": "Feature",
      "properties": { 
      "IBGE:COD_UNICO_ENDERECO": "27417664",
      "addr:housenumber": "292 Térreo 1",
      "addr:postcode": "48608-410",
      "addr:street": "Rua Alagoinha",
      "addr:suburb": "Alves de Sousa",
      "building": "yes"
      },
      "geometry": {
         "type": "Point",
         "coordinates": [-38.2111399,-9.4052508]
      }
    },
    {
      "type": "Feature",
      "properties": { 
      "IBGE:COD_UNICO_ENDERECO": "27417639",
      "addr:housenumber": "52",
      "addr:postcode": "48608-560",
      "addr:street": "Travessa dos Prazeres",
      "addr:suburb": "Alves de Sousa",
      "building": "yes",
      "fixme": "Verificar coordenadas",
      "note": "Sem face no bayface do IBGE 0500-0133P-1-1"
      },
      "geometry": {
         "type": "Point",
         "coordinates": [-38.210108,-9.404829]
      }
    },
    {
      "type": "Feature",
      "properties": { 
      "IBGE:COD_UNICO_ENDERECO": "27417779",
      "addr:housenumber": "26",
      "addr:postcode": "48608-520",
      "addr:street": "Rua Aratu",
      "addr:suburb": "Alves de Sousa",
      "building": "yes",
      "description": "CNEFE 2022 Salão",
      "fixme": "Verificar coordenadas",
      "note": "Sem dados para mover para dentro da quadra 0500-0133P-4-3",
      "shop": "beauty"
      },
      "geometry": {
         "type": "Point",
         "coordinates": [-38.2114302,-9.4060235]
      }
    },
    {
      "type": "Feature",
      "properties": { 
      "IBGE:COD_UNICO_ENDERECO": "27417729",
      "addr:housenumber": "6",
      "addr:postcode": "48608-510",
      "addr:street": "Rua Pojuca",
      "addr:suburb": "Alves de Sousa",
      "building": "construction"
      },
      "geometry": {
         "type": "Point",
         "coordinates": [-38.2116938,-9.4049955]
      }
    },
    {
      "type": "Feature",
      "properties": { 
      "IBGE:COD_UNICO_ENDERECO": "191400421",
      "addr:housenumber": "41",
      "addr:postcode": "48608-565",
      "addr:street": "Avenida dos Encantos",
      "addr:suburb": "Alves de Sousa",
      "building": "yes",
      "fixme": "Verificar coordenadas",
      "note": "Sem face no bayface do IBGE 0500-0133P-1-3"
      },
      "geometry": {
         "type": "Point",
         "coordinates": [-38.209651,-9.405056]
      }
    },
    {
      "type": "Feature",
      "properties": { 
      "IBGE:COD_UNICO_ENDERECO": "27417676",
      "addr:housenumber": "166",
      "addr:postcode": "48608-410",
      "addr:street": "Rua Alagoinha",
      "addr:suburb": "Alves de Sousa",
      "building": "yes"
      },
      "geometry": {
         "type": "Point",
         "coordinates": [-38.2116735,-9.4044266]
      }
    },
    {
      "type": "Feature",
      "properties": { 
      "IBGE:COD_UNICO_ENDERECO": "27417817;191401086;191401091",
      "addr:housenumber": "22",
      "addr:postcode": "48608-365",
      "addr:street": "Travessa Salvador",
      "addr:suburb": "Alves de Sousa",
      "building": "yes"
      },
      "geometry": {
         "type": "Point",
         "coordinates": [-38.2121582,-9.4062347]
      }
    },
    {
      "type": "Feature",
      "properties": { 
      "IBGE:COD_UNICO_ENDERECO": "27417720",
      "addr:housenumber": "17",
      "addr:postcode": "48608-510",
      "addr:street": "Rua Pojuca",
      "addr:suburb": "Alves de Sousa",
      "amenity": "place_of_worship",
      "building": "church",
      "denomination": "seventh_day_adventist",
      "fixme": "Verificar coordenadas",
      "name": "Igreja Adventista do Sétimo Dia",
      "note": "Sem face no bayface do IBGE 0500-0133P-4-2",
      "religion": "christian"
      },
      "geometry": {
         "type": "Point",
         "coordinates": [-38.212121,-9.404833]
      }
    },
    {
      "type": "Feature",
      "properties": { 
      "IBGE:COD_UNICO_ENDERECO": "27417853",
      "addr:housenumber": "5",
      "addr:postcode": "48608-380",
      "addr:street": "Travessa Alagoinha",
      "addr:suburb": "Alves de Sousa",
      "building": "yes"
      },
      "geometry": {
         "type": "Point",
         "coordinates": [-38.2127384,-9.4058659]
      }
    },
    {
      "type": "Feature",
      "properties": { 
      "IBGE:COD_UNICO_ENDERECO": "191401151",
      "addr:housenumber": "20",
      "addr:postcode": "48608-385",
      "addr:street": "Travessa Aratu",
      "addr:suburb": "Alves de Sousa",
      "building": "yes"
      },
      "geometry": {
         "type": "Point",
         "coordinates": [-38.2124295,-9.4062118]
      }
    },
    {
      "type": "Feature",
      "properties": { 
      "IBGE:COD_UNICO_ENDERECO": "27417740",
      "addr:housenumber": "264",
      "addr:postcode": "48608-560",
      "addr:street": "Rua dos Prazeres",
      "addr:suburb": "Alves de Sousa",
      "building": "yes",
      "fixme": "Verificar coordenadas",
      "note": "Sem dados para mover para dentro da quadra 0500-0133P-2-1"
      },
      "geometry": {
         "type": "Point",
         "coordinates": [-38.2105501,-9.4043414]
      }
    },
    {
      "type": "Feature",
      "properties": { 
      "IBGE:COD_UNICO_ENDERECO": "191400668",
      "addr:housenumber": "108",
      "addr:postcode": "48608-520",
      "addr:street": "Rua Aratu",
      "addr:suburb": "Alves de Sousa",
      "building": "yes"
      },
      "geometry": {
         "type": "Point",
         "coordinates": [-38.210877,-9.4057581]
      }
    },
    {
      "type": "Feature",
      "properties": { 
      "IBGE:COD_UNICO_ENDERECO": "27417801",
      "addr:housenumber": "14",
      "addr:postcode": "48608-460",
      "addr:street": "Rua Salvador",
      "addr:suburb": "Alves de Sousa",
      "building": "yes"
      },
      "geometry": {
         "type": "Point",
         "coordinates": [-38.2120035,-9.4058678]
      }
    },
    {
      "type": "Feature",
      "properties": { 
      "IBGE:COD_UNICO_ENDERECO": "27417766",
      "addr:housenumber": "54",
      "addr:postcode": "48608-510",
      "addr:street": "Rua Pojuca",
      "addr:suburb": "Alves de Sousa",
      "building": "yes"
      },
      "geometry": {
         "type": "Point",
         "coordinates": [-38.2114314,-9.4054812]
      }
    },
    {
      "type": "Feature",
      "properties": { 
      "IBGE:COD_UNICO_ENDERECO": "191400605",
      "addr:housenumber": "102",
      "addr:postcode": "48608-565",
      "addr:street": "Avenida dos Encantos",
      "addr:suburb": "Alves de Sousa",
      "building": "yes",
      "fixme": "Verificar coordenadas",
      "note": "Sem face no bayface do IBGE 0500-0133P-1-3"
      },
      "geometry": {
         "type": "Point",
         "coordinates": [-38.210949,-9.406914]
      }
    },
    {
      "type": "Feature",
      "properties": { 
      "IBGE:COD_UNICO_ENDERECO": "191401126",
      "addr:housenumber": "6",
      "addr:postcode": "48608-385",
      "addr:street": "Travessa Aratu",
      "addr:suburb": "Alves de Sousa",
      "building": "yes"
      },
      "geometry": {
         "type": "Point",
         "coordinates": [-38.2126515,-9.4058189]
      }
    },
    {
      "type": "Feature",
      "properties": { 
      "IBGE:COD_UNICO_ENDERECO": "27417826",
      "addr:housenumber": "4",
      "addr:postcode": "48608-365",
      "addr:street": "Travessa Salvador",
      "addr:suburb": "Alves de Sousa",
      "building": "yes"
      },
      "geometry": {
         "type": "Point",
         "coordinates": [-38.2124506,-9.4057166]
      }
    },
    {
      "type": "Feature",
      "properties": { 
      "IBGE:COD_UNICO_ENDERECO": "191400916",
      "addr:housenumber": "26",
      "addr:postcode": "48608-560",
      "addr:street": "Travessa dos Prazeres",
      "addr:suburb": "Alves de Sousa",
      "building": "construction",
      "fixme": "Verificar coordenadas",
      "note": "Sem face no bayface do IBGE 0500-0133P-2-3"
      },
      "geometry": {
         "type": "Point",
         "coordinates": [-38.210424,-9.404873]
      }
    },
    {
      "type": "Feature",
      "properties": { 
      "IBGE:COD_UNICO_ENDERECO": "191400390",
      "addr:housenumber": "12 A",
      "addr:postcode": "48608-560",
      "addr:street": "Rua dos Prazeres",
      "addr:suburb": "Alves de Sousa",
      "building": "yes",
      "fixme": "Verificar coordenadas",
      "note": "Sem dados para mover para dentro da quadra 0500-0133P-1-2"
      },
      "geometry": {
         "type": "Point",
         "coordinates": [-38.209554,-9.4044955]
      }
    },
    {
      "type": "Feature",
      "properties": { 
      "IBGE:COD_UNICO_ENDERECO": "191400863",
      "addr:housenumber": "16",
      "addr:postcode": "48608-560",
      "addr:street": "Rua dos Prazeres",
      "addr:suburb": "Alves de Sousa",
      "building": "construction",
      "fixme": "Verificar coordenadas",
      "note": "Sem dados para mover para dentro da quadra 0500-0133P-2-1"
      },
      "geometry": {
         "type": "Point",
         "coordinates": [-38.2102514,-9.4044403]
      }
    },
    {
      "type": "Feature",
      "properties": { 
      "IBGE:COD_UNICO_ENDERECO": "191400582",
      "addr:housenumber": "109",
      "addr:postcode": "48608-565",
      "addr:street": "Avenida dos Encantos",
      "addr:suburb": "Alves de Sousa",
      "amenity": "car_wash",
      "building": "yes",
      "fixme": "Verificar coordenadas",
      "name": "Van Van Lava Rápido",
      "note": "Sem face no bayface do IBGE 0500-0133P-1-3"
      },
      "geometry": {
         "type": "Point",
         "coordinates": [-38.210978,-9.406719]
      }
    },
    {
      "type": "Feature",
      "properties": { 
      "IBGE:COD_UNICO_ENDERECO": "27417827",
      "addr:housenumber": "2",
      "addr:postcode": "48608-365",
      "addr:street": "Travessa Salvador",
      "addr:suburb": "Alves de Sousa",
      "building": "yes"
      },
      "geometry": {
         "type": "Point",
         "coordinates": [-38.2124817,-9.4056595]
      }
    },
    {
      "type": "Feature",
      "properties": { 
      "IBGE:COD_UNICO_ENDERECO": "27417844",
      "addr:housenumber": "4",
      "addr:postcode": "48608-385",
      "addr:street": "Travessa Aratu",
      "addr:suburb": "Alves de Sousa",
      "building": "yes"
      },
      "geometry": {
         "type": "Point",
         "coordinates": [-38.2126935,-9.4057445]
      }
    },
    {
      "type": "Feature",
      "properties": { 
      "IBGE:COD_UNICO_ENDERECO": "27417753",
      "addr:housenumber": "222",
      "addr:postcode": "48608-410",
      "addr:street": "Rua Alagoinha",
      "addr:suburb": "Alves de Sousa",
      "building": "yes"
      },
      "geometry": {
         "type": "Point",
         "coordinates": [-38.2113601,-9.4048123]
      }
    },
    {
      "type": "Feature",
      "properties": { 
      "IBGE:COD_UNICO_ENDERECO": "191400704",
      "addr:housenumber": "71 A",
      "addr:postcode": "48608-560",
      "addr:street": "Rua dos Prazeres",
      "addr:suburb": "Alves de Sousa",
      "building": "yes",
      "fixme": "Verificar coordenadas",
      "note": "Sem face no bayface do IBGE 0500-0133P-1-8"
      },
      "geometry": {
         "type": "Point",
         "coordinates": [-38.211464,-9.404116]
      }
    },
    {
      "type": "Feature",
      "properties": { 
      "IBGE:COD_UNICO_ENDERECO": "191400886",
      "addr:housenumber": "76 B",
      "addr:postcode": "48608-560",
      "addr:street": "Travessa dos Prazeres",
      "addr:suburb": "Alves de Sousa",
      "building": "yes",
      "fixme": "Verificar coordenadas",
      "note": "Sem face no bayface do IBGE 0500-0133P-2-2"
      },
      "geometry": {
         "type": "Point",
         "coordinates": [-38.210166,-9.404863]
      }
    },
    {
      "type": "Feature",
      "properties": { 
      "IBGE:COD_UNICO_ENDERECO": "27417848",
      "addr:housenumber": "13",
      "addr:postcode": "48608-380",
      "addr:street": "Travessa Alagoinha",
      "addr:suburb": "Alves de Sousa",
      "building": "yes"
      },
      "geometry": {
         "type": "Point",
         "coordinates": [-38.2125679,-9.4061608]
      }
    },
    {
      "type": "Feature",
      "properties": { 
      "IBGE:COD_UNICO_ENDERECO": "191400877",
      "addr:housenumber": "77",
      "addr:postcode": "48608-560",
      "addr:street": "Travessa dos Prazeres",
      "addr:suburb": "Alves de Sousa",
      "building": "yes",
      "fixme": "Verificar coordenadas",
      "note": "Sem face no bayface do IBGE 0500-0133P-2-2"
      },
      "geometry": {
         "type": "Point",
         "coordinates": [-38.210134,-9.404836]
      }
    },
    {
      "type": "Feature",
      "properties": { 
      "IBGE:COD_UNICO_ENDERECO": "191400419",
      "addr:housenumber": "43",
      "addr:postcode": "48608-565",
      "addr:street": "Avenida dos Encantos",
      "addr:suburb": "Alves de Sousa",
      "building": "yes",
      "fixme": "Verificar coordenadas",
      "note": "Sem face no bayface do IBGE 0500-0133P-1-3"
      },
      "geometry": {
         "type": "Point",
         "coordinates": [-38.209589,-9.404904]
      }
    },
    {
      "type": "Feature",
      "properties": { 
      "IBGE:COD_UNICO_ENDERECO": "191400843",
      "addr:housenumber": "66 A",
      "addr:postcode": "48608-560",
      "addr:street": "Rua dos Prazeres",
      "addr:suburb": "Alves de Sousa",
      "building": "yes",
      "fixme": "Verificar coordenadas",
      "note": "Sem dados para mover para dentro da quadra 0500-0133P-2-1"
      },
      "geometry": {
         "type": "Point",
         "coordinates": [-38.2104021,-9.4043875]
      }
    },
    {
      "type": "Feature",
      "properties": { 
      "IBGE:COD_UNICO_ENDERECO": "191400371",
      "addr:housenumber": "49 B",
      "addr:postcode": "48608-560",
      "addr:street": "Rua dos Prazeres",
      "addr:suburb": "Alves de Sousa",
      "building": "yes",
      "fixme": "Verificar coordenadas",
      "note": "Sem dados para mover para dentro da quadra 0500-0133P-1-2"
      },
      "geometry": {
         "type": "Point",
         "coordinates": [-38.2096815,-9.4045266]
      }
    },
    {
      "type": "Feature",
      "properties": { 
      "IBGE:COD_UNICO_ENDERECO": "27417733",
      "addr:housenumber": "86",
      "addr:postcode": "48608-560",
      "addr:street": "Rua dos Prazeres",
      "addr:suburb": "Alves de Sousa",
      "building": "yes",
      "fixme": "Verificar coordenadas",
      "note": "Sem dados para mover para dentro da quadra 0500-0133P-2-1"
      },
      "geometry": {
         "type": "Point",
         "coordinates": [-38.2107958,-9.404272]
      }
    },
    {
      "type": "Feature",
      "properties": { 
      "IBGE:COD_UNICO_ENDERECO": "191400438",
      "addr:housenumber": "32",
      "addr:postcode": "48608-565",
      "addr:street": "Avenida dos Encantos",
      "addr:suburb": "Alves de Sousa",
      "building": "yes",
      "fixme": "Verificar coordenadas",
      "note": "Sem face no bayface do IBGE 0500-0133P-1-3"
      },
      "geometry": {
         "type": "Point",
         "coordinates": [-38.210129,-9.405518]
      }
    },
    {
      "type": "Feature",
      "properties": { 
      "IBGE:COD_UNICO_ENDERECO": "27417724",
      "addr:housenumber": "4",
      "addr:postcode": "48608-465",
      "addr:street": "Rua Valença",
      "addr:suburb": "Alves de Sousa",
      "building": "yes",
      "fixme": "Verificar coordenadas",
      "note": "Sem face no bayface do IBGE 0500-0133P-4-6"
      },
      "geometry": {
         "type": "Point",
         "coordinates": [-38.212452,-9.404954]
      }
    },
    {
      "type": "Feature",
      "properties": { 
      "IBGE:COD_UNICO_ENDERECO": "191400563",
      "addr:housenumber": "100 Térreo 1",
      "addr:postcode": "48608-565",
      "addr:street": "Avenida dos Encantos",
      "addr:suburb": "Alves de Sousa",
      "building": "yes",
      "fixme": "Verificar coordenadas",
      "note": "Sem face no bayface do IBGE 0500-0133P-1-3"
      },
      "geometry": {
         "type": "Point",
         "coordinates": [-38.210918,-9.406586]
      }
    },
    {
      "type": "Feature",
      "properties": { 
      "IBGE:COD_UNICO_ENDERECO": "27417791",
      "addr:housenumber": "73",
      "addr:postcode": "48608-460",
      "addr:street": "Rua Salvador",
      "addr:suburb": "Alves de Sousa",
      "building": "yes",
      "fixme": "Verificar coordenadas",
      "note": "Sem face no bayface do IBGE 0500-0133P-4-4"
      },
      "geometry": {
         "type": "Point",
         "coordinates": [-38.212665,-9.405344]
      }
    },
    {
      "type": "Feature",
      "properties": { 
      "IBGE:COD_UNICO_ENDERECO": "191400576",
      "addr:housenumber": "103",
      "addr:postcode": "48608-565",
      "addr:street": "Avenida dos Encantos",
      "addr:suburb": "Alves de Sousa",
      "building": "yes",
      "fixme": "Verificar coordenadas",
      "note": "Sem face no bayface do IBGE 0500-0133P-1-3"
      },
      "geometry": {
         "type": "Point",
         "coordinates": [-38.210919,-9.406647]
      }
    },
    {
      "type": "Feature",
      "properties": { 
      "IBGE:COD_UNICO_ENDERECO": "191400902",
      "addr:housenumber": "82",
      "addr:postcode": "48608-560",
      "addr:street": "Travessa dos Prazeres",
      "addr:suburb": "Alves de Sousa",
      "building": "yes",
      "fixme": "Verificar coordenadas",
      "note": "Sem face no bayface do IBGE 0500-0133P-2-3"
      },
      "geometry": {
         "type": "Point",
         "coordinates": [-38.210955,-9.404457]
      }
    },
    {
      "type": "Feature",
      "properties": { 
      "IBGE:COD_UNICO_ENDERECO": "27417634",
      "addr:housenumber": "161 A",
      "addr:postcode": "48608-460",
      "addr:street": "Rua Salvador",
      "addr:suburb": "Alves de Sousa",
      "building": "yes",
      "fixme": "Verificar coordenadas",
      "note": "Sem face no bayface do IBGE 0500-0133P-4-4"
      },
      "geometry": {
         "type": "Point",
         "coordinates": [-38.210443,-9.405151]
      }
    },
    {
      "type": "Feature",
      "properties": { 
      "IBGE:COD_UNICO_ENDERECO": "27417789",
      "addr:housenumber": "91",
      "addr:postcode": "48608-460",
      "addr:street": "Rua Salvador",
      "addr:suburb": "Alves de Sousa",
      "building": "yes",
      "fixme": "Verificar coordenadas",
      "note": "Sem face no bayface do IBGE 0500-0133P-4-4"
      },
      "geometry": {
         "type": "Point",
         "coordinates": [-38.212512,-9.405391]
      }
    },
    {
      "type": "Feature",
      "properties": { 
      "IBGE:COD_UNICO_ENDERECO": "191400687",
      "addr:housenumber": "75",
      "addr:postcode": "48608-560",
      "addr:street": "Rua dos Prazeres",
      "addr:suburb": "Alves de Sousa",
      "building": "yes",
      "fixme": "Verificar coordenadas",
      "note": "Sem face no bayface do IBGE 0500-0133P-1-8"
      },
      "geometry": {
         "type": "Point",
         "coordinates": [-38.211788,-9.404072]
      }
    },
    {
      "type": "Feature",
      "properties": { 
      "IBGE:COD_UNICO_ENDERECO": "191400743",
      "addr:housenumber": "80",
      "addr:postcode": "48608-560",
      "addr:street": "Rua dos Prazeres",
      "addr:suburb": "Alves de Sousa",
      "building": "yes",
      "fixme": "Verificar coordenadas",
      "note": "Sem face no bayface do IBGE 0500-0133P-1-8"
      },
      "geometry": {
         "type": "Point",
         "coordinates": [-38.211145,-9.404168]
      }
    },
    {
      "type": "Feature",
      "properties": { 
      "IBGE:COD_UNICO_ENDERECO": "191401230",
      "addr:housenumber": "28 A",
      "addr:postcode": "48608-380",
      "addr:street": "Travessa Alagoinha",
      "addr:suburb": "Alves de Sousa",
      "building": "yes"
      },
      "geometry": {
         "type": "Point",
         "coordinates": [-38.212607,-9.4063656]
      }
    },
    {
      "type": "Feature",
      "properties": { 
      "IBGE:COD_UNICO_ENDERECO": "27417657",
      "addr:housenumber": "57",
      "addr:postcode": "48608-410",
      "addr:street": "Rua Alagoinha",
      "addr:suburb": "Alves de Sousa",
      "building": "yes"
      },
      "geometry": {
         "type": "Point",
         "coordinates": [-38.2113526,-9.4046503]
      }
    },
    {
      "type": "Feature",
      "properties": { 
      "IBGE:COD_UNICO_ENDERECO": "191400429",
      "addr:housenumber": "34 A",
      "addr:postcode": "48608-565",
      "addr:street": "Avenida dos Encantos",
      "addr:suburb": "Alves de Sousa",
      "building": "yes",
      "fixme": "Verificar coordenadas",
      "note": "Sem face no bayface do IBGE 0500-0133P-1-3"
      },
      "geometry": {
         "type": "Point",
         "coordinates": [-38.209966,-9.405326]
      }
    },
    {
      "type": "Feature",
      "properties": { 
      "IBGE:COD_UNICO_ENDERECO": "27417799",
      "addr:housenumber": "10",
      "addr:postcode": "48608-460",
      "addr:street": "Rua Salvador",
      "addr:suburb": "Alves de Sousa",
      "building": "yes"
      },
      "geometry": {
         "type": "Point",
         "coordinates": [-38.2120295,-9.4058095]
      }
    },
    {
      "type": "Feature",
      "properties": { 
      "IBGE:COD_UNICO_ENDERECO": "27417841;191401133",
      "addr:housenumber": "10",
      "addr:postcode": "48608-385",
      "addr:street": "Travessa Aratu",
      "addr:suburb": "Alves de Sousa",
      "building": "yes"
      },
      "geometry": {
         "type": "Point",
         "coordinates": [-38.212581,-9.4059438]
      }
    },
    {
      "type": "Feature",
      "properties": { 
      "IBGE:COD_UNICO_ENDERECO": "27417835",
      "addr:housenumber": "9",
      "addr:postcode": "48608-385",
      "addr:street": "Travessa Aratu",
      "addr:suburb": "Alves de Sousa",
      "building": "yes"
      },
      "geometry": {
         "type": "Point",
         "coordinates": [-38.2124535,-9.4058789]
      }
    },
    {
      "type": "Feature",
      "properties": { 
      "IBGE:COD_UNICO_ENDERECO": "191400817",
      "addr:housenumber": "65 Andar Térreo",
      "addr:postcode": "48608-560",
      "addr:street": "Rua dos Prazeres",
      "addr:suburb": "Alves de Sousa",
      "building": "yes",
      "fixme": "Verificar coordenadas",
      "note": "Sem dados para mover para dentro da quadra 0500-0133P-2-1"
      },
      "geometry": {
         "type": "Point",
         "coordinates": [-38.2106172,-9.4043222]
      }
    },
    {
      "type": "Feature",
      "properties": { 
      "IBGE:COD_UNICO_ENDERECO": "27417810",
      "addr:housenumber": "7",
      "addr:postcode": "48608-365",
      "addr:street": "Travessa Salvador",
      "addr:suburb": "Alves de Sousa",
      "building": "yes"
      },
      "geometry": {
         "type": "Point",
         "coordinates": [-38.2122217,-9.4058461]
      }
    },
    {
      "type": "Feature",
      "properties": { 
      "IBGE:COD_UNICO_ENDERECO": "191400555",
      "addr:housenumber": "100",
      "addr:postcode": "48608-565",
      "addr:street": "Avenida dos Encantos",
      "addr:suburb": "Alves de Sousa",
      "building": "yes",
      "fixme": "Verificar coordenadas",
      "note": "Sem face no bayface do IBGE 0500-0133P-1-3"
      },
      "geometry": {
         "type": "Point",
         "coordinates": [-38.2109,-9.406585]
      }
    },
    {
      "type": "Feature",
      "properties": { 
      "IBGE:COD_UNICO_ENDERECO": "27417738",
      "addr:housenumber": "69 Subsolo 1",
      "addr:postcode": "48608-560",
      "addr:street": "Rua dos Prazeres",
      "addr:suburb": "Alves de Sousa",
      "building": "yes",
      "fixme": "Verificar coordenadas",
      "note": "Sem dados para mover para dentro da quadra 0500-0133P-2-1"
      },
      "geometry": {
         "type": "Point",
         "coordinates": [-38.2104583,-9.4043674]
      }
    },
    {
      "type": "Feature",
      "properties": { 
      "IBGE:COD_UNICO_ENDERECO": "27417782",
      "addr:housenumber": "207",
      "addr:postcode": "48608-460",
      "addr:street": "Rua Salvador",
      "addr:suburb": "Alves de Sousa",
      "building": "yes",
      "fixme": "Verificar coordenadas",
      "note": "Sem face no bayface do IBGE 0500-0133P-4-4"
      },
      "geometry": {
         "type": "Point",
         "coordinates": [-38.211812,-9.405969]
      }
    },
    {
      "type": "Feature",
      "properties": { 
      "IBGE:COD_UNICO_ENDERECO": "191400882",
      "addr:housenumber": "76 A",
      "addr:postcode": "48608-560",
      "addr:street": "Travessa dos Prazeres",
      "addr:suburb": "Alves de Sousa",
      "building": "yes",
      "fixme": "Verificar coordenadas",
      "note": "Sem face no bayface do IBGE 0500-0133P-2-2"
      },
      "geometry": {
         "type": "Point",
         "coordinates": [-38.210125,-9.404882]
      }
    },
    {
      "type": "Feature",
      "properties": { 
      "IBGE:COD_UNICO_ENDERECO": "27417820",
      "addr:housenumber": "16",
      "addr:postcode": "48608-365",
      "addr:street": "Travessa Salvador",
      "addr:suburb": "Alves de Sousa",
      "building": "yes"
      },
      "geometry": {
         "type": "Point",
         "coordinates": [-38.2122625,-9.4060621]
      }
    },
    {
      "type": "Feature",
      "properties": { 
      "IBGE:COD_UNICO_ENDERECO": "191400381",
      "addr:housenumber": "49 A",
      "addr:postcode": "48608-560",
      "addr:street": "Rua dos Prazeres",
      "addr:suburb": "Alves de Sousa",
      "building": "yes",
      "fixme": "Verificar coordenadas",
      "note": "Sem dados para mover para dentro da quadra 0500-0133P-1-2"
      },
      "geometry": {
         "type": "Point",
         "coordinates": [-38.2098176,-9.404542]
      }
    },
    {
      "type": "Feature",
      "properties": { 
      "IBGE:COD_UNICO_ENDERECO": "191400375",
      "addr:housenumber": "50",
      "addr:postcode": "48608-560",
      "addr:street": "Rua dos Prazeres",
      "addr:suburb": "Alves de Sousa",
      "building": "yes",
      "fixme": "Verificar coordenadas",
      "note": "Sem dados para mover para dentro da quadra 0500-0133P-1-2"
      },
      "geometry": {
         "type": "Point",
         "coordinates": [-38.209876,-9.4045353]
      }
    },
    {
      "type": "Feature",
      "properties": { 
      "IBGE:COD_UNICO_ENDERECO": "191400899",
      "addr:housenumber": "79 A",
      "addr:postcode": "48608-560",
      "addr:street": "Travessa dos Prazeres",
      "addr:suburb": "Alves de Sousa",
      "building": "yes",
      "fixme": "Verificar coordenadas",
      "note": "Sem face no bayface do IBGE 0500-0133P-2-3"
      },
      "geometry": {
         "type": "Point",
         "coordinates": [-38.210929,-9.404545]
      }
    },
    {
      "type": "Feature",
      "properties": { 
      "IBGE:COD_UNICO_ENDERECO": "27417815",
      "addr:housenumber": "17",
      "addr:postcode": "48608-365",
      "addr:street": "Travessa Salvador",
      "addr:suburb": "Alves de Sousa",
      "building": "yes"
      },
      "geometry": {
         "type": "Point",
         "coordinates": [-38.2120807,-9.406105]
      }
    },
    {
      "type": "Feature",
      "properties": { 
      "IBGE:COD_UNICO_ENDERECO": "191400398",
      "addr:housenumber": "14",
      "addr:postcode": "48608-560",
      "addr:street": "Rua dos Prazeres",
      "addr:suburb": "Alves de Sousa",
      "building": "yes",
      "fixme": "Verificar coordenadas",
      "note": "Sem dados para mover para dentro da quadra 0500-0133P-1-2"
      },
      "geometry": {
         "type": "Point",
         "coordinates": [-38.2095886,-9.4045047]
      }
    },
    {
      "type": "Feature",
      "properties": { 
      "IBGE:COD_UNICO_ENDERECO": "27417642",
      "addr:housenumber": "45",
      "addr:postcode": "48608-560",
      "addr:street": "Travessa dos Prazeres",
      "addr:suburb": "Alves de Sousa",
      "building": "yes",
      "fixme": "Verificar coordenadas",
      "note": "Sem face no bayface do IBGE 0500-0133P-1-1"
      },
      "geometry": {
         "type": "Point",
         "coordinates": [-38.210035,-9.404693]
      }
    },
    {
      "type": "Feature",
      "properties": { 
      "IBGE:COD_UNICO_ENDERECO": "191400655",
      "addr:housenumber": "104",
      "addr:postcode": "48608-520",
      "addr:street": "Rua Aratu",
      "addr:suburb": "Alves de Sousa",
      "building": "yes"
      },
      "geometry": {
         "type": "Point",
         "coordinates": [-38.2109973,-9.4058163]
      }
    },
    {
      "type": "Feature",
      "properties": { 
      "IBGE:COD_UNICO_ENDERECO": "27417732",
      "addr:housenumber": "84",
      "addr:postcode": "48608-560",
      "addr:street": "Rua dos Prazeres",
      "addr:suburb": "Alves de Sousa",
      "building": "yes",
      "fixme": "Verificar coordenadas",
      "note": "Sem dados para mover para dentro da quadra 0500-0133P-2-1"
      },
      "geometry": {
         "type": "Point",
         "coordinates": [-38.2109112,-9.4042395]
      }
    },
    {
      "type": "Feature",
      "properties": { 
      "IBGE:COD_UNICO_ENDERECO": "191401027",
      "addr:housenumber": "2",
      "addr:postcode": "48608-465",
      "addr:street": "Rua Valença",
      "addr:suburb": "Alves de Sousa",
      "building": "yes",
      "fixme": "Verificar coordenadas",
      "note": "Sem face no bayface do IBGE 0500-0133P-4-6"
      },
      "geometry": {
         "type": "Point",
         "coordinates": [-38.212633,-9.404958]
      }
    },
    {
      "type": "Feature",
      "properties": { 
      "IBGE:COD_UNICO_ENDERECO": "27417877",
      "addr:housenumber": "23",
      "addr:postcode": "48608-490",
      "addr:street": "Rua da Harmonia",
      "addr:suburb": "Alves de Sousa",
      "amenity": "events_venue",
      "building": "yes",
      "name": "Espaço Mais Festa"
      },
      "geometry": {
         "type": "Point",
         "coordinates": [-38.2130694,-9.4062213]
      }
    },
    {
      "type": "Feature",
      "properties": { 
      "IBGE:COD_UNICO_ENDERECO": "27417837",
      "addr:housenumber": "5",
      "addr:postcode": "48608-385",
      "addr:street": "Travessa Aratu",
      "addr:suburb": "Alves de Sousa",
      "building": "yes"
      },
      "geometry": {
         "type": "Point",
         "coordinates": [-38.2125023,-9.4057955]
      }
    },
    {
      "type": "Feature",
      "properties": { 
      "IBGE:COD_UNICO_ENDERECO": "27417831",
      "addr:housenumber": "16",
      "addr:postcode": "48608-385",
      "addr:street": "Travessa Aratu",
      "addr:suburb": "Alves de Sousa",
      "building": "yes"
      },
      "geometry": {
         "type": "Point",
         "coordinates": [-38.2122864,-9.4061644]
      }
    },
    {
      "type": "Feature",
      "properties": { 
      "IBGE:COD_UNICO_ENDERECO": "27417825",
      "addr:housenumber": "6",
      "addr:postcode": "48608-365",
      "addr:street": "Travessa Salvador",
      "addr:suburb": "Alves de Sousa",
      "building": "yes"
      },
      "geometry": {
         "type": "Point",
         "coordinates": [-38.2124227,-9.4057678]
      }
    },
    {
      "type": "Feature",
      "properties": { 
      "IBGE:COD_UNICO_ENDERECO": "27417812",
      "addr:housenumber": "11",
      "addr:postcode": "48608-365",
      "addr:street": "Travessa Salvador",
      "addr:suburb": "Alves de Sousa",
      "building": "yes"
      },
      "geometry": {
         "type": "Point",
         "coordinates": [-38.2121639,-9.4059522]
      }
    },
    {
      "type": "Feature",
      "properties": { 
      "IBGE:COD_UNICO_ENDERECO": "191400413",
      "addr:housenumber": "44 Térreo 1",
      "addr:postcode": "48608-565",
      "addr:street": "Avenida dos Encantos",
      "addr:suburb": "Alves de Sousa",
      "building": "yes",
      "fixme": "Verificar coordenadas",
      "note": "Sem face no bayface do IBGE 0500-0133P-1-3"
      },
      "geometry": {
         "type": "Point",
         "coordinates": [-38.209563,-9.404886]
      }
    },
    {
      "type": "Feature",
      "properties": { 
      "IBGE:COD_UNICO_ENDERECO": "27417830",
      "addr:housenumber": "19",
      "addr:postcode": "48608-385",
      "addr:street": "Travessa Aratu",
      "addr:suburb": "Alves de Sousa",
      "building": "yes"
      },
      "geometry": {
         "type": "Point",
         "coordinates": [-38.2122426,-9.4062393]
      }
    },
    {
      "type": "Feature",
      "properties": { 
      "IBGE:COD_UNICO_ENDERECO": "27417698",
      "addr:housenumber": "223",
      "addr:postcode": "48608-410",
      "addr:street": "Rua Alagoinha",
      "addr:suburb": "Alves de Sousa",
      "building": "yes"
      },
      "geometry": {
         "type": "Point",
         "coordinates": [-38.2112666,-9.4048184]
      }
    },
    {
      "type": "Feature",
      "properties": { 
      "IBGE:COD_UNICO_ENDERECO": "27417807",
      "addr:housenumber": "1",
      "addr:postcode": "48608-375",
      "addr:street": "Rua Jeremoabo",
      "addr:suburb": "Alves de Sousa",
      "building": "yes"
      },
      "geometry": {
         "type": "Point",
         "coordinates": [-38.2123907,-9.4055356]
      }
    },
    {
      "type": "Feature",
      "properties": { 
      "IBGE:COD_UNICO_ENDERECO": "191400642",
      "addr:housenumber": "223 A",
      "addr:postcode": "48608-460",
      "addr:street": "Rua Salvador",
      "addr:suburb": "Alves de Sousa",
      "building": "yes",
      "fixme": "Verificar coordenadas",
      "note": "Sem face no bayface do IBGE 0500-0133P-1-4"
      },
      "geometry": {
         "type": "Point",
         "coordinates": [-38.211759,-9.406312]
      }
    },
    {
      "type": "Feature",
      "properties": { 
      "IBGE:COD_UNICO_ENDERECO": "191400786",
      "addr:housenumber": "73",
      "addr:postcode": "48608-560",
      "addr:street": "Travessa dos Prazeres",
      "addr:suburb": "Alves de Sousa",
      "building": "yes",
      "fixme": "Verificar coordenadas",
      "note": "Sem face no bayface do IBGE 0500-0133P-1-11"
      },
      "geometry": {
         "type": "Point",
         "coordinates": [-38.210556,-9.40482]
      }
    },
    {
      "type": "Feature",
      "properties": { 
      "IBGE:COD_UNICO_ENDERECO": "27417719",
      "addr:housenumber": "7",
      "addr:postcode": "48608-560",
      "addr:street": "Travessa dos Prazeres",
      "addr:suburb": "Alves de Sousa",
      "building": "yes",
      "fixme": "Verificar coordenadas",
      "note": "Sem face no bayface do IBGE 0500-0133P-1-11"
      },
      "geometry": {
         "type": "Point",
         "coordinates": [-38.21069,-9.404802]
      }
    },
    {
      "type": "Feature",
      "properties": { 
      "IBGE:COD_UNICO_ENDERECO": "27417850",
      "addr:housenumber": "21",
      "addr:postcode": "48608-380",
      "addr:street": "Travessa Alagoinha",
      "addr:suburb": "Alves de Sousa",
      "building": "yes",
      "fixme": "Verificar coordenadas",
      "note": "Muito afastado da face: 62m 0500-0133P-7-4"
      },
      "geometry": {
         "type": "Point",
         "coordinates": [-38.21199,-9.406137]
      }
    },
    {
      "type": "Feature",
      "properties": { 
      "IBGE:COD_UNICO_ENDERECO": "27417658",
      "addr:housenumber": "60",
      "addr:postcode": "48608-410",
      "addr:street": "Rua Alagoinha",
      "addr:suburb": "Alves de Sousa",
      "building": "yes"
      },
      "geometry": {
         "type": "Point",
         "coordinates": [-38.2113337,-9.4046791]
      }
    },
    {
      "type": "Feature",
      "properties": { 
      "IBGE:COD_UNICO_ENDERECO": "27417843",
      "addr:housenumber": "14",
      "addr:postcode": "48608-385",
      "addr:street": "Travessa Aratu",
      "addr:suburb": "Alves de Sousa",
      "building": "yes"
      },
      "geometry": {
         "type": "Point",
         "coordinates": [-38.2125257,-9.4060416]
      }
    },
    {
      "type": "Feature",
      "properties": { 
      "IBGE:COD_UNICO_ENDERECO": "191400589",
      "addr:housenumber": "111 G",
      "addr:postcode": "48608-565",
      "addr:street": "Avenida dos Encantos",
      "addr:suburb": "Alves de Sousa",
      "building": "yes",
      "fixme": "Verificar coordenadas",
      "note": "Sem face no bayface do IBGE 0500-0133P-1-3"
      },
      "geometry": {
         "type": "Point",
         "coordinates": [-38.21093,-9.406754]
      }
    },
    {
      "type": "Feature",
      "properties": { 
      "IBGE:COD_UNICO_ENDERECO": "191400735",
      "addr:housenumber": "78",
      "addr:postcode": "48608-560",
      "addr:street": "Rua dos Prazeres",
      "addr:suburb": "Alves de Sousa",
      "building": "yes",
      "fixme": "Verificar coordenadas",
      "note": "Sem face no bayface do IBGE 0500-0133P-1-8"
      },
      "geometry": {
         "type": "Point",
         "coordinates": [-38.211209,-9.404155]
      }
    },
    {
      "type": "Feature",
      "properties": { 
      "IBGE:COD_UNICO_ENDERECO": "27417697",
      "addr:housenumber": "7",
      "addr:postcode": "48608-410",
      "addr:street": "Rua Alagoinha",
      "addr:suburb": "Alves de Sousa",
      "building": "yes"
      },
      "geometry": {
         "type": "Point",
         "coordinates": [-38.2111536,-9.4050507]
      }
    },
    {
      "type": "Feature",
      "properties": { 
      "IBGE:COD_UNICO_ENDERECO": "191400542",
      "addr:housenumber": "103 G",
      "addr:postcode": "48608-565",
      "addr:street": "Avenida dos Encantos",
      "addr:suburb": "Alves de Sousa",
      "building": "yes",
      "fixme": "Verificar coordenadas",
      "note": "Sem face no bayface do IBGE 0500-0133P-1-3"
      },
      "geometry": {
         "type": "Point",
         "coordinates": [-38.210865,-9.40647]
      }
    },
    {
      "type": "Feature",
      "properties": { 
      "IBGE:COD_UNICO_ENDERECO": "27417765",
      "addr:housenumber": "34",
      "addr:postcode": "48608-510",
      "addr:street": "Rua Pojuca",
      "addr:suburb": "Alves de Sousa",
      "building": "yes"
      },
      "geometry": {
         "type": "Point",
         "coordinates": [-38.2113097,-9.4057223]
      }
    },
    {
      "type": "Feature",
      "properties": { 
      "IBGE:COD_UNICO_ENDERECO": "27417803",
      "addr:housenumber": "16",
      "addr:postcode": "48608-460",
      "addr:street": "Rua Salvador",
      "addr:suburb": "Alves de Sousa",
      "building": "yes"
      },
      "geometry": {
         "type": "Point",
         "coordinates": [-38.2119725,-9.4059372]
      }
    },
    {
      "type": "Feature",
      "properties": { 
      "IBGE:COD_UNICO_ENDERECO": "191400872",
      "addr:housenumber": "18",
      "addr:postcode": "48608-560",
      "addr:street": "Rua dos Prazeres",
      "addr:suburb": "Alves de Sousa",
      "building": "yes",
      "fixme": "Verificar coordenadas",
      "note": "Sem dados para mover para dentro da quadra 0500-0133P-2-1"
      },
      "geometry": {
         "type": "Point",
         "coordinates": [-38.2101971,-9.4044593]
      }
    },
    {
      "type": "Feature",
      "properties": { 
      "IBGE:COD_UNICO_ENDERECO": "27417814",
      "addr:housenumber": "15",
      "addr:postcode": "48608-365",
      "addr:street": "Travessa Salvador",
      "addr:suburb": "Alves de Sousa",
      "building": "yes"
      },
      "geometry": {
         "type": "Point",
         "coordinates": [-38.2121056,-9.4060593]
      }
    },
    {
      "type": "Feature",
      "properties": { 
      "IBGE:COD_UNICO_ENDERECO": "191400620;191400627",
      "addr:housenumber": "101",
      "addr:postcode": "48608-460",
      "addr:street": "Rua Salvador",
      "addr:suburb": "Alves de Sousa",
      "building": "yes",
      "fixme": "Verificar coordenadas",
      "note": "Sem face no bayface do IBGE 0500-0133P-1-4"
      },
      "geometry": {
         "type": "Point",
         "coordinates": [-38.21123,-9.4071425]
      }
    },
    {
      "type": "Feature",
      "properties": { 
      "IBGE:COD_UNICO_ENDERECO": "27417818",
      "addr:housenumber": "20",
      "addr:postcode": "48608-365",
      "addr:street": "Travessa Salvador",
      "addr:suburb": "Alves de Sousa",
      "building": "yes"
      },
      "geometry": {
         "type": "Point",
         "coordinates": [-38.2122057,-9.4061665]
      }
    },
    {
      "type": "Feature",
      "properties": { 
      "IBGE:COD_UNICO_ENDERECO": "191400601",
      "addr:housenumber": "112",
      "addr:postcode": "48608-565",
      "addr:street": "Avenida dos Encantos",
      "addr:suburb": "Alves de Sousa",
      "building": "yes",
      "fixme": "Verificar coordenadas",
      "note": "Sem face no bayface do IBGE 0500-0133P-1-3"
      },
      "geometry": {
         "type": "Point",
         "coordinates": [-38.210887,-9.406856]
      }
    },
    {
      "type": "Feature",
      "properties": { 
      "IBGE:COD_UNICO_ENDERECO": "191400513",
      "addr:housenumber": "418",
      "addr:postcode": "48608-565",
      "addr:street": "Avenida dos Encantos",
      "addr:suburb": "Alves de Sousa",
      "building": "yes",
      "fixme": "Verificar coordenadas",
      "note": "Sem face no bayface do IBGE 0500-0133P-1-3"
      },
      "geometry": {
         "type": "Point",
         "coordinates": [-38.210803,-9.406121]
      }
    },
    {
      "type": "Feature",
      "properties": { 
      "IBGE:COD_UNICO_ENDERECO": "191400500",
      "addr:housenumber": "2",
      "addr:postcode": "48608-565",
      "addr:street": "Avenida dos Encantos",
      "addr:suburb": "Alves de Sousa",
      "building": "yes",
      "description": "CNEFE 2022 Sn",
      "fixme": "Verificar coordenadas",
      "note": "Sem face no bayface do IBGE 0500-0133P-1-3"
      },
      "geometry": {
         "type": "Point",
         "coordinates": [-38.210642,-9.405879]
      }
    },
    {
      "type": "Feature",
      "properties": { 
      "IBGE:COD_UNICO_ENDERECO": "27417768",
      "addr:housenumber": "100",
      "addr:postcode": "48608-510",
      "addr:street": "Rua Pojuca",
      "addr:suburb": "Alves de Sousa",
      "building": "yes"
      },
      "geometry": {
         "type": "Point",
         "coordinates": [-38.2115719,-9.4052028]
      }
    },
    {
      "type": "Feature",
      "properties": { 
      "IBGE:COD_UNICO_ENDERECO": "191400434",
      "addr:housenumber": "31",
      "addr:postcode": "48608-565",
      "addr:street": "Avenida dos Encantos",
      "addr:suburb": "Alves de Sousa",
      "building": "construction",
      "fixme": "Verificar coordenadas",
      "note": "Sem face no bayface do IBGE 0500-0133P-1-3"
      },
      "geometry": {
         "type": "Point",
         "coordinates": [-38.210127,-9.405403]
      }
    },
    {
      "type": "Feature",
      "properties": { 
      "IBGE:COD_UNICO_ENDERECO": "191400570",
      "addr:housenumber": "105",
      "addr:postcode": "48608-565",
      "addr:street": "Avenida dos Encantos",
      "addr:suburb": "Alves de Sousa",
      "building": "yes",
      "fixme": "Verificar coordenadas",
      "note": "Sem face no bayface do IBGE 0500-0133P-1-3"
      },
      "geometry": {
         "type": "Point",
         "coordinates": [-38.210958,-9.406565]
      }
    },
    {
      "type": "Feature",
      "properties": { 
      "IBGE:COD_UNICO_ENDERECO": "27417772",
      "addr:housenumber": "125",
      "addr:postcode": "48608-510",
      "addr:street": "Rua Pojuca",
      "addr:suburb": "Alves de Sousa",
      "building": "yes",
      "fixme": "Verificar coordenadas",
      "note": "Sem face no bayface do IBGE 0500-0133P-4-2"
      },
      "geometry": {
         "type": "Point",
         "coordinates": [-38.211989,-9.404935]
      }
    },
    {
      "type": "Feature",
      "properties": { 
      "IBGE:COD_UNICO_ENDERECO": "27417867",
      "addr:housenumber": "2",
      "addr:postcode": "48608-380",
      "addr:street": "Travessa Alagoinha",
      "addr:suburb": "Alves de Sousa",
      "building": "yes"
      },
      "geometry": {
         "type": "Point",
         "coordinates": [-38.212948,-9.4057483]
      }
    },
    {
      "type": "Feature",
      "properties": { 
      "IBGE:COD_UNICO_ENDERECO": "27417750",
      "addr:housenumber": "150 A",
      "addr:postcode": "48608-410",
      "addr:street": "Rua Alagoinha",
      "addr:suburb": "Alves de Sousa",
      "building": "yes"
      },
      "geometry": {
         "type": "Point",
         "coordinates": [-38.2118484,-9.4043272]
      }
    },
    {
      "type": "Feature",
      "properties": { 
      "IBGE:COD_UNICO_ENDERECO": "191401155",
      "addr:housenumber": "22",
      "addr:postcode": "48608-520",
      "addr:street": "Rua Aratu",
      "addr:suburb": "Alves de Sousa",
      "building": "yes"
      },
      "geometry": {
         "type": "Point",
         "coordinates": [-38.212303,-9.40638]
      }
    },
    {
      "type": "Feature",
      "properties": { 
      "IBGE:COD_UNICO_ENDERECO": "27417774",
      "addr:housenumber": "101",
      "addr:postcode": "48608-510",
      "addr:street": "Rua Pojuca",
      "addr:suburb": "Alves de Sousa",
      "building": "yes",
      "fixme": "Verificar coordenadas",
      "note": "Sem face no bayface do IBGE 0500-0133P-4-2"
      },
      "geometry": {
         "type": "Point",
         "coordinates": [-38.211748,-9.405159]
      }
    },
    {
      "type": "Feature",
      "properties": { 
      "IBGE:COD_UNICO_ENDERECO": "191400759",
      "addr:housenumber": "72",
      "addr:postcode": "48608-560",
      "addr:street": "Rua dos Prazeres",
      "addr:suburb": "Alves de Sousa",
      "building": "yes",
      "fixme": "Verificar coordenadas",
      "note": "Sem face no bayface do IBGE 0500-0133P-1-8"
      },
      "geometry": {
         "type": "Point",
         "coordinates": [-38.211631,-9.404145]
      }
    },
    {
      "type": "Feature",
      "properties": { 
      "IBGE:COD_UNICO_ENDERECO": "191400895;191400905;191400908;191400912",
      "addr:housenumber": "80 A",
      "addr:postcode": "48608-560",
      "addr:street": "Travessa dos Prazeres",
      "addr:suburb": "Alves de Sousa",
      "building": "yes",
      "fixme": "Verificar coordenadas",
      "note": "Sem face no bayface do IBGE 0500-0133P-2-3"
      },
      "geometry": {
         "type": "Point",
         "coordinates": [-38.210906,-9.4047]
      }
    },
    {
      "type": "Feature",
      "properties": { 
      "IBGE:COD_UNICO_ENDERECO": "27417839",
      "addr:housenumber": "2",
      "addr:postcode": "48608-375",
      "addr:street": "Rua Jeremoabo",
      "addr:suburb": "Alves de Sousa",
      "building": "yes"
      },
      "geometry": {
         "type": "Point",
         "coordinates": [-38.2127505,-9.4057061]
      }
    },
    {
      "type": "Feature",
      "properties": { 
      "IBGE:COD_UNICO_ENDERECO": "191400693",
      "addr:housenumber": "73 A",
      "addr:postcode": "48608-560",
      "addr:street": "Rua dos Prazeres",
      "addr:suburb": "Alves de Sousa",
      "building": "yes",
      "fixme": "Verificar coordenadas",
      "note": "Sem face no bayface do IBGE 0500-0133P-1-8"
      },
      "geometry": {
         "type": "Point",
         "coordinates": [-38.211628,-9.404119]
      }
    },
    {
      "type": "Feature",
      "properties": { 
      "IBGE:COD_UNICO_ENDERECO": "27417861",
      "addr:housenumber": "14",
      "addr:postcode": "48608-380",
      "addr:street": "Travessa Alagoinha",
      "addr:suburb": "Alves de Sousa",
      "building": "yes"
      },
      "geometry": {
         "type": "Point",
         "coordinates": [-38.2127403,-9.4061614]
      }
    },
    {
      "type": "Feature",
      "properties": { 
      "IBGE:COD_UNICO_ENDERECO": "27417636",
      "addr:housenumber": "54",
      "addr:postcode": "48608-560",
      "addr:street": "Travessa dos Prazeres",
      "addr:suburb": "Alves de Sousa",
      "building": "yes",
      "fixme": "Verificar coordenadas",
      "note": "Sem face no bayface do IBGE 0500-0133P-1-1"
      },
      "geometry": {
         "type": "Point",
         "coordinates": [-38.210237,-9.404931]
      }
    },
    {
      "type": "Feature",
      "properties": { 
      "IBGE:COD_UNICO_ENDERECO": "27417632",
      "addr:housenumber": "32",
      "addr:postcode": "48608-560",
      "addr:street": "Travessa dos Prazeres",
      "addr:suburb": "Alves de Sousa",
      "building": "yes",
      "fixme": "Verificar coordenadas",
      "note": "Sem face no bayface do IBGE 0500-0133P-1-1"
      },
      "geometry": {
         "type": "Point",
         "coordinates": [-38.210652,-9.405365]
      }
    },
    {
      "type": "Feature",
      "properties": { 
      "IBGE:COD_UNICO_ENDERECO": "27417852",
      "addr:housenumber": "24",
      "addr:postcode": "48608-380",
      "addr:street": "Travessa Alagoinha",
      "addr:suburb": "Alves de Sousa",
      "building": "yes"
      },
      "geometry": {
         "type": "Point",
         "coordinates": [-38.2127644,-9.405821]
      }
    },
    {
      "type": "Feature",
      "properties": { 
      "IBGE:COD_UNICO_ENDERECO": "27417838",
      "addr:housenumber": "23",
      "addr:postcode": "48608-385",
      "addr:street": "Travessa Aratu",
      "addr:suburb": "Alves de Sousa",
      "building": "yes"
      },
      "geometry": {
         "type": "Point",
         "coordinates": [-38.2125022,-9.4057957]
      }
    },
    {
      "type": "Feature",
      "properties": { 
      "IBGE:COD_UNICO_ENDERECO": "27417800",
      "addr:housenumber": "12",
      "addr:postcode": "48608-460",
      "addr:street": "Rua Salvador",
      "addr:suburb": "Alves de Sousa",
      "building": "construction"
      },
      "geometry": {
         "type": "Point",
         "coordinates": [-38.2120151,-9.4058418]
      }
    },
    {
      "type": "Feature",
      "properties": { 
      "IBGE:COD_UNICO_ENDERECO": "27417653",
      "addr:housenumber": "49",
      "addr:postcode": "48608-410",
      "addr:street": "Rua Alagoinha",
      "addr:suburb": "Alves de Sousa",
      "building": "yes"
      },
      "geometry": {
         "type": "Point",
         "coordinates": [-38.2108644,-9.4056459]
      }
    },
    {
      "type": "Feature",
      "properties": { 
      "IBGE:COD_UNICO_ENDERECO": "27417646",
      "addr:housenumber": "113 AB",
      "addr:postcode": "48608-460",
      "addr:street": "Rua Salvador",
      "addr:suburb": "Alves de Sousa",
      "building": "garage",
      "description": "CNEFE 2022 Garagem",
      "fixme": "Verificar coordenadas",
      "note": "Sem face no bayface do IBGE 0500-0133P-1-4"
      },
      "geometry": {
         "type": "Point",
         "coordinates": [-38.211034,-9.407075]
      }
    },
    {
      "type": "Feature",
      "properties": { 
      "IBGE:COD_UNICO_ENDERECO": "27417793",
      "addr:housenumber": "53",
      "addr:postcode": "48608-460",
      "addr:street": "Rua Salvador",
      "addr:suburb": "Alves de Sousa",
      "amenity": "pub;restaurant",
      "building": "yes",
      "fixme": "Verificar coordenadas",
      "name": "Bar e Restaurante Bate Papo",
      "note": "Sem face no bayface do IBGE 0500-0133P-4-4"
      },
      "geometry": {
         "type": "Point",
         "coordinates": [-38.212844,-9.405202]
      }
    },
    {
      "type": "Feature",
      "properties": { 
      "IBGE:COD_UNICO_ENDERECO": "27417780",
      "addr:housenumber": "25",
      "addr:postcode": "48608-520",
      "addr:street": "Rua Aratu",
      "addr:suburb": "Alves de Sousa",
      "building": "yes",
      "fixme": "Verificar coordenadas",
      "note": "Sem dados para mover para dentro da quadra 0500-0133P-4-3"
      },
      "geometry": {
         "type": "Point",
         "coordinates": [-38.211549,-9.4060829]
      }
    },
    {
      "type": "Feature",
      "properties": { 
      "IBGE:COD_UNICO_ENDERECO": "27417783",
      "addr:housenumber": "193",
      "addr:postcode": "48608-460",
      "addr:street": "Rua Salvador",
      "addr:suburb": "Alves de Sousa",
      "building": "yes",
      "fixme": "Verificar coordenadas",
      "note": "Sem face no bayface do IBGE 0500-0133P-4-4"
      },
      "geometry": {
         "type": "Point",
         "coordinates": [-38.211852,-9.405822]
      }
    },
    {
      "type": "Feature",
      "properties": { 
      "IBGE:COD_UNICO_ENDERECO": "191400387",
      "addr:housenumber": "12 C",
      "addr:postcode": "48608-560",
      "addr:street": "Rua dos Prazeres",
      "addr:suburb": "Alves de Sousa",
      "building": "yes",
      "fixme": "Verificar coordenadas",
      "note": "Sem dados para mover para dentro da quadra 0500-0133P-1-2"
      },
      "geometry": {
         "type": "Point",
         "coordinates": [-38.2096672,-9.4045232]
      }
    },
    {
      "type": "Feature",
      "properties": { 
      "IBGE:COD_UNICO_ENDERECO": "191400422",
      "addr:housenumber": "48",
      "addr:postcode": "48608-565",
      "addr:street": "Avenida dos Encantos",
      "addr:suburb": "Alves de Sousa",
      "building": "yes",
      "fixme": "Verificar coordenadas",
      "note": "Sem face no bayface do IBGE 0500-0133P-1-3"
      },
      "geometry": {
         "type": "Point",
         "coordinates": [-38.209749,-9.405077]
      }
    },
    {
      "type": "Feature",
      "properties": { 
      "IBGE:COD_UNICO_ENDERECO": "27417854",
      "addr:housenumber": "23",
      "addr:postcode": "48608-380",
      "addr:street": "Travessa Alagoinha",
      "addr:suburb": "Alves de Sousa",
      "building": "yes"
      },
      "geometry": {
         "type": "Point",
         "coordinates": [-38.2127001,-9.4059321]
      }
    },
    {
      "type": "Feature",
      "properties": { 
      "IBGE:COD_UNICO_ENDERECO": "27417795",
      "addr:housenumber": "17",
      "addr:postcode": "48608-460",
      "addr:street": "Rua Salvador",
      "addr:suburb": "Alves de Sousa",
      "building": "yes",
      "fixme": "Verificar coordenadas",
      "note": "Sem face no bayface do IBGE 0500-0133P-4-4"
      },
      "geometry": {
         "type": "Point",
         "coordinates": [-38.212979,-9.404949]
      }
    },
    {
      "type": "Feature",
      "properties": { 
      "IBGE:COD_UNICO_ENDERECO": "191400614",
      "addr:housenumber": "101 A",
      "addr:postcode": "48608-460",
      "addr:street": "Rua Salvador",
      "addr:suburb": "Alves de Sousa",
      "building": "yes",
      "fixme": "Verificar coordenadas",
      "note": "Sem face no bayface do IBGE 0500-0133P-1-4"
      },
      "geometry": {
         "type": "Point",
         "coordinates": [-38.211181,-9.407092]
      }
    },
    {
      "type": "Feature",
      "properties": { 
      "IBGE:COD_UNICO_ENDERECO": "27417806",
      "addr:housenumber": "44",
      "addr:postcode": "48608-520",
      "addr:street": "Rua Aratu",
      "addr:suburb": "Alves de Sousa",
      "building": "yes"
      },
      "geometry": {
         "type": "Point",
         "coordinates": [-38.2115558,-9.4060865]
      }
    },
    {
      "type": "Feature",
      "properties": { 
      "IBGE:COD_UNICO_ENDERECO": "191400711",
      "addr:housenumber": "72 A",
      "addr:postcode": "48608-560",
      "addr:street": "Rua dos Prazeres",
      "addr:suburb": "Alves de Sousa",
      "building": "yes",
      "fixme": "Verificar coordenadas",
      "note": "Sem face no bayface do IBGE 0500-0133P-1-8"
      },
      "geometry": {
         "type": "Point",
         "coordinates": [-38.211419,-9.404108]
      }
    },
    {
      "type": "Feature",
      "properties": { 
      "IBGE:COD_UNICO_ENDERECO": "191401035",
      "addr:housenumber": "2",
      "addr:postcode": "48608-375",
      "addr:street": "Rua Jeremoabo",
      "addr:suburb": "Alves de Sousa",
      "building": "yes"
      },
      "geometry": {
         "type": "Point",
         "coordinates": [-38.2123178,-9.405542]
      }
    },
    {
      "type": "Feature",
      "properties": { 
      "IBGE:COD_UNICO_ENDERECO": "27417851",
      "addr:housenumber": "1",
      "addr:postcode": "48608-380",
      "addr:street": "Travessa Alagoinha",
      "addr:suburb": "Alves de Sousa",
      "building": "yes"
      },
      "geometry": {
         "type": "Point",
         "coordinates": [-38.2128145,-9.4057661]
      }
    },
    {
      "type": "Feature",
      "properties": { 
      "IBGE:COD_UNICO_ENDERECO": "27417652",
      "addr:housenumber": "80",
      "addr:postcode": "48608-460",
      "addr:street": "Rua Salvador",
      "addr:suburb": "Alves de Sousa",
      "building": "yes",
      "fixme": "Verificar coordenadas",
      "name": "Casa Castelli",
      "note": "Sem face no bayface do IBGE 0500-0133P-1-4"
      },
      "geometry": {
         "type": "Point",
         "coordinates": [-38.211779,-9.406722]
      }
    },
    {
      "type": "Feature",
      "properties": { 
      "IBGE:COD_UNICO_ENDERECO": "191400427",
      "addr:housenumber": "34 B",
      "addr:postcode": "48608-565",
      "addr:street": "Avenida dos Encantos",
      "addr:suburb": "Alves de Sousa",
      "building": "yes",
      "fixme": "Verificar coordenadas",
      "note": "Sem face no bayface do IBGE 0500-0133P-1-3"
      },
      "geometry": {
         "type": "Point",
         "coordinates": [-38.209952,-9.405258]
      }
    },
    {
      "type": "Feature",
      "properties": { 
      "IBGE:COD_UNICO_ENDERECO": "27417680-27417681;27417686",
      "addr:housenumber": "143",
      "addr:postcode": "48608-410",
      "addr:street": "Rua Alagoinha",
      "addr:suburb": "Alves de Sousa",
      "building": "yes"
      },
      "geometry": {
         "type": "Point",
         "coordinates": [-38.2110622,-9.4052389]
      }
    },
    {
      "type": "Feature",
      "properties": { 
      "IBGE:COD_UNICO_ENDERECO": "27417781",
      "addr:housenumber": "221",
      "addr:postcode": "48608-460",
      "addr:street": "Rua Salvador",
      "addr:suburb": "Alves de Sousa",
      "building": "yes",
      "fixme": "Verificar coordenadas",
      "note": "Sem face no bayface do IBGE 0500-0133P-4-4"
      },
      "geometry": {
         "type": "Point",
         "coordinates": [-38.21173,-9.406071]
      }
    },
    {
      "type": "Feature",
      "properties": { 
      "IBGE:COD_UNICO_ENDERECO": "27417748",
      "addr:housenumber": "126",
      "addr:postcode": "48608-410",
      "addr:street": "Rua Alagoinha",
      "addr:suburb": "Alves de Sousa",
      "building": "yes"
      },
      "geometry": {
         "type": "Point",
         "coordinates": [-38.2118464,-9.4042937]
      }
    },
    {
      "type": "Feature",
      "properties": { 
      "IBGE:COD_UNICO_ENDERECO": "27417821",
      "addr:housenumber": "14",
      "addr:postcode": "48608-365",
      "addr:street": "Travessa Salvador",
      "addr:suburb": "Alves de Sousa",
      "building": "yes"
      },
      "geometry": {
         "type": "Point",
         "coordinates": [-38.2122928,-9.4060065]
      }
    },
    {
      "type": "Feature",
      "properties": { 
      "IBGE:COD_UNICO_ENDERECO": "191400727",
      "addr:housenumber": "76",
      "addr:postcode": "48608-560",
      "addr:street": "Rua dos Prazeres",
      "addr:suburb": "Alves de Sousa",
      "building": "yes",
      "fixme": "Verificar coordenadas",
      "note": "Sem face no bayface do IBGE 0500-0133P-1-8"
      },
      "geometry": {
         "type": "Point",
         "coordinates": [-38.211258,-9.404194]
      }
    },
    {
      "type": "Feature",
      "properties": { 
      "IBGE:COD_UNICO_ENDERECO": "191401067",
      "addr:housenumber": "1",
      "addr:postcode": "48608-375",
      "addr:street": "Rua Jeremoabo",
      "addr:suburb": "Alves de Sousa",
      "building": "yes"
      },
      "geometry": {
         "type": "Point",
         "coordinates": [-38.2125562,-9.4056337]
      }
    },
    {
      "type": "Feature",
      "properties": { 
      "IBGE:COD_UNICO_ENDERECO": "191400447",
      "addr:housenumber": "33",
      "addr:postcode": "48608-565",
      "addr:street": "Avenida dos Encantos",
      "addr:suburb": "Alves de Sousa",
      "building": "yes",
      "fixme": "Verificar coordenadas",
      "note": "Sem face no bayface do IBGE 0500-0133P-1-3"
      },
      "geometry": {
         "type": "Point",
         "coordinates": [-38.210228,-9.405552]
      }
    },
    {
      "type": "Feature",
      "properties": { 
      "IBGE:COD_UNICO_ENDERECO": "191400454",
      "addr:housenumber": "33 A",
      "addr:postcode": "48608-565",
      "addr:street": "Avenida dos Encantos",
      "addr:suburb": "Alves de Sousa",
      "building": "yes",
      "fixme": "Verificar coordenadas",
      "note": "Sem face no bayface do IBGE 0500-0133P-1-3"
      },
      "geometry": {
         "type": "Point",
         "coordinates": [-38.210304,-9.405565]
      }
    },
    {
      "type": "Feature",
      "properties": { 
      "IBGE:COD_UNICO_ENDERECO": "27417758",
      "addr:housenumber": "250",
      "addr:postcode": "48608-410",
      "addr:street": "Rua Alagoinha",
      "addr:suburb": "Alves de Sousa",
      "building": "yes"
      },
      "geometry": {
         "type": "Point",
         "coordinates": [-38.2112545,-9.4050225]
      }
    },
    {
      "type": "Feature",
      "properties": { 
      "IBGE:COD_UNICO_ENDERECO": "27417678",
      "addr:housenumber": "150",
      "addr:postcode": "48608-410",
      "addr:street": "Rua Alagoinha",
      "addr:suburb": "Alves de Sousa",
      "building": "yes"
      },
      "geometry": {
         "type": "Point",
         "coordinates": [-38.2118595,-9.4043331]
      }
    },
    {
      "type": "Feature",
      "properties": { 
      "IBGE:COD_UNICO_ENDERECO": "27417834",
      "addr:housenumber": "11",
      "addr:postcode": "48608-385",
      "addr:street": "Travessa Aratu",
      "addr:suburb": "Alves de Sousa",
      "building": "yes"
      },
      "geometry": {
         "type": "Point",
         "coordinates": [-38.212389,-9.4059891]
      }
    },
    {
      "type": "Feature",
      "properties": { 
      "IBGE:COD_UNICO_ENDERECO": "27417759",
      "addr:housenumber": "282",
      "addr:postcode": "48608-410",
      "addr:street": "Rua Alagoinha",
      "addr:suburb": "Alves de Sousa",
      "building": "yes",
      "craft": "hvac",
      "name": "Refrigeração Diofrio"
      },
      "geometry": {
         "type": "Point",
         "coordinates": [-38.2110871,-9.405355]
      }
    },
    {
      "type": "Feature",
      "properties": { 
      "IBGE:COD_UNICO_ENDERECO": "191400779",
      "addr:housenumber": "77 A",
      "addr:postcode": "48608-560",
      "addr:street": "Travessa dos Prazeres",
      "addr:suburb": "Alves de Sousa",
      "building": "yes",
      "fixme": "Verificar coordenadas",
      "note": "Sem face no bayface do IBGE 0500-0133P-1-11"
      },
      "geometry": {
         "type": "Point",
         "coordinates": [-38.210777,-9.404718]
      }
    },
    {
      "type": "Feature",
      "properties": { 
      "IBGE:COD_UNICO_ENDERECO": "27417752",
      "addr:housenumber": "188",
      "addr:postcode": "48608-410",
      "addr:street": "Rua Alagoinha",
      "addr:suburb": "Alves de Sousa",
      "building": "yes"
      },
      "geometry": {
         "type": "Point",
         "coordinates": [-38.2115201,-9.4045548]
      }
    },
    {
      "type": "Feature",
      "properties": { 
      "IBGE:COD_UNICO_ENDERECO": "27417828",
      "addr:housenumber": "13",
      "addr:postcode": "48608-520",
      "addr:street": "Rua Aratu",
      "addr:suburb": "Alves de Sousa",
      "building": "yes"
      },
      "geometry": {
         "type": "Point",
         "coordinates": [-38.2121091,-9.4063006]
      }
    },
    {
      "type": "Feature",
      "properties": { 
      "IBGE:COD_UNICO_ENDERECO": "27417655",
      "addr:housenumber": "143",
      "addr:postcode": "48608-410",
      "addr:street": "Rua Alagoinha",
      "addr:suburb": "Alves de Sousa",
      "addr:unit": "Casa",
      "building": "yes"
      },
      "geometry": {
         "type": "Point",
         "coordinates": [-38.2110467,-9.4052708]
      }
    },
    {
      "type": "Feature",
      "properties": { 
      "IBGE:COD_UNICO_ENDERECO": "27417699",
      "addr:housenumber": "51",
      "addr:postcode": "48608-410",
      "addr:street": "Rua Alagoinha",
      "addr:suburb": "Alves de Sousa",
      "building": "yes"
      },
      "geometry": {
         "type": "Point",
         "coordinates": [-38.2107828,-9.4057322]
      }
    },
    {
      "type": "Feature",
      "properties": { 
      "IBGE:COD_UNICO_ENDERECO": "27417666-27417667;27417751",
      "addr:housenumber": "292",
      "addr:postcode": "48608-410",
      "addr:street": "Rua Alagoinha",
      "addr:suburb": "Alves de Sousa",
      "building": "yes"
      },
      "geometry": {
         "type": "Point",
         "coordinates": [-38.2111498,-9.4052312]
      }
    },
    {
      "type": "Feature",
      "properties": { 
      "IBGE:COD_UNICO_ENDERECO": "27417677",
      "addr:housenumber": "150 B",
      "addr:postcode": "48608-410",
      "addr:street": "Rua Alagoinha",
      "addr:suburb": "Alves de Sousa",
      "building": "yes"
      },
      "geometry": {
         "type": "Point",
         "coordinates": [-38.211771,-9.4043817]
      }
    },
    {
      "type": "Feature",
      "properties": { 
      "IBGE:COD_UNICO_ENDERECO": "27417819",
      "addr:housenumber": "18",
      "addr:postcode": "48608-365",
      "addr:street": "Travessa Salvador",
      "addr:suburb": "Alves de Sousa",
      "building": "yes"
      },
      "geometry": {
         "type": "Point",
         "coordinates": [-38.2122295,-9.4061228]
      }
    },
    {
      "type": "Feature",
      "properties": { 
      "IBGE:COD_UNICO_ENDERECO": "191400408",
      "addr:housenumber": "44",
      "addr:postcode": "48608-565",
      "addr:street": "Avenida dos Encantos",
      "addr:suburb": "Alves de Sousa",
      "building": "yes",
      "fixme": "Verificar coordenadas",
      "note": "Sem face no bayface do IBGE 0500-0133P-1-3"
      },
      "geometry": {
         "type": "Point",
         "coordinates": [-38.209574,-9.404865]
      }
    },
    {
      "type": "Feature",
      "properties": { 
      "IBGE:COD_UNICO_ENDERECO": "191400433",
      "addr:housenumber": "30",
      "addr:postcode": "48608-565",
      "addr:street": "Avenida dos Encantos",
      "addr:suburb": "Alves de Sousa",
      "building": "yes",
      "fixme": "Verificar coordenadas",
      "note": "Sem face no bayface do IBGE 0500-0133P-1-3"
      },
      "geometry": {
         "type": "Point",
         "coordinates": [-38.210082,-9.405365]
      }
    },
    {
      "type": "Feature",
      "properties": { 
      "IBGE:COD_UNICO_ENDERECO": "27417660",
      "addr:housenumber": "75",
      "addr:postcode": "48608-410",
      "addr:street": "Rua Alagoinha",
      "addr:suburb": "Alves de Sousa",
      "building": "yes"
      },
      "geometry": {
         "type": "Point",
         "coordinates": [-38.2114622,-9.4045098]
      }
    },
    {
      "type": "Feature",
      "properties": { 
      "IBGE:COD_UNICO_ENDERECO": "27417656",
      "addr:housenumber": "47",
      "addr:postcode": "48608-410",
      "addr:street": "Rua Alagoinha",
      "addr:suburb": "Alves de Sousa",
      "building": "yes"
      },
      "geometry": {
         "type": "Point",
         "coordinates": [-38.2109132,-9.4055457]
      }
    },
    {
      "type": "Feature",
      "properties": { 
      "IBGE:COD_UNICO_ENDERECO": "27417859",
      "addr:housenumber": "1",
      "addr:postcode": "48608-375",
      "addr:street": "Rua Jeremoabo",
      "addr:suburb": "Alves de Sousa",
      "building": "yes"
      },
      "geometry": {
         "type": "Point",
         "coordinates": [-38.2129994,-9.4057651]
      }
    },
    {
      "type": "Feature",
      "properties": { 
      "IBGE:COD_UNICO_ENDERECO": "27417776",
      "addr:housenumber": "57",
      "addr:postcode": "48608-510",
      "addr:street": "Rua Pojuca",
      "addr:suburb": "Alves de Sousa",
      "building": "yes",
      "fixme": "Verificar coordenadas",
      "note": "Sem face no bayface do IBGE 0500-0133P-4-2"
      },
      "geometry": {
         "type": "Point",
         "coordinates": [-38.211492,-9.4055]
      }
    },
    {
      "type": "Feature",
      "properties": { 
      "IBGE:COD_UNICO_ENDERECO": "27417755",
      "addr:housenumber": "200",
      "addr:postcode": "48608-410",
      "addr:street": "Rua Alagoinha",
      "addr:suburb": "Alves de Sousa",
      "building": "yes"
      },
      "geometry": {
         "type": "Point",
         "coordinates": [-38.2114599,-9.4046335]
      }
    },
    {
      "type": "Feature",
      "properties": { 
      "IBGE:COD_UNICO_ENDERECO": "191401247",
      "addr:housenumber": "25",
      "addr:postcode": "48608-490",
      "addr:street": "Rua da Harmonia",
      "addr:suburb": "Alves de Sousa",
      "building": "yes"
      },
      "geometry": {
         "type": "Point",
         "coordinates": [-38.2129595,-9.4062985]
      }
    },
    {
      "type": "Feature",
      "properties": { 
      "IBGE:COD_UNICO_ENDERECO": "27417701",
      "addr:housenumber": "11 A",
      "addr:postcode": "48608-410",
      "addr:street": "Rua Alagoinha",
      "addr:suburb": "Alves de Sousa",
      "building": "yes"
      },
      "geometry": {
         "type": "Point",
         "coordinates": [-38.2113629,-9.404636]
      }
    },
    {
      "type": "Feature",
      "properties": { 
      "IBGE:COD_UNICO_ENDERECO": "27417669",
      "addr:housenumber": "10",
      "addr:postcode": "48608-410",
      "addr:street": "Rua Alagoinha",
      "addr:suburb": "Alves de Sousa",
      "building": "yes"
      },
      "geometry": {
         "type": "Point",
         "coordinates": [-38.2112898,-9.4047705]
      }
    },
    {
      "type": "Feature",
      "properties": { 
      "IBGE:COD_UNICO_ENDERECO": "27417824",
      "addr:housenumber": "8",
      "addr:postcode": "48608-365",
      "addr:street": "Travessa Salvador",
      "addr:suburb": "Alves de Sousa",
      "building": "yes"
      },
      "geometry": {
         "type": "Point",
         "coordinates": [-38.2123704,-9.4058638]
      }
    },
    {
      "type": "Feature",
      "properties": { 
      "IBGE:COD_UNICO_ENDERECO": "191401247",
      "addr:housenumber": "25",
      "addr:postcode": "48608-490",
      "addr:street": "Rua da Harmonia",
      "addr:suburb": "Alves de Sousa",
      "building": "yes",
      "name": "Autoelétrica e Mecânica",
      "shop": "car_repair"
      },
      "geometry": {
         "type": "Point",
         "coordinates": [-38.212959455832,-9.4062986616562]
      }
    },
    {
      "type": "Feature",
      "properties": { 
      "IBGE:COD_UNICO_ENDERECO": "191400796",
      "addr:housenumber": "87",
      "addr:postcode": "48608-560",
      "addr:street": "Travessa dos Prazeres",
      "addr:suburb": "Alves de Sousa",
      "building": "yes",
      "fixme": "Verificar coordenadas",
      "note": "Sem face no bayface do IBGE 0500-0133P-1-12"
      },
      "geometry": {
         "type": "Point",
         "coordinates": [-38.210462,-9.405175]
      }
    },
    {
      "type": "Feature",
      "properties": { 
      "IBGE:COD_UNICO_ENDERECO": "27417757",
      "addr:housenumber": "266",
      "addr:postcode": "48608-410",
      "addr:street": "Rua Alagoinha",
      "addr:suburb": "Alves de Sousa",
      "building": "yes"
      },
      "geometry": {
         "type": "Point",
         "coordinates": [-38.2111883,-9.4051544]
      }
    },
    {
      "type": "Feature",
      "properties": { 
      "IBGE:COD_UNICO_ENDERECO": "191400463",
      "addr:housenumber": "7",
      "addr:postcode": "48608-565",
      "addr:street": "Avenida dos Encantos",
      "addr:suburb": "Alves de Sousa",
      "building": "yes",
      "fixme": "Verificar coordenadas",
      "name": "Suporte Vidros",
      "note": "Sem face no bayface do IBGE 0500-0133P-1-3"
      },
      "geometry": {
         "type": "Point",
         "coordinates": [-38.210339,-9.405567]
      }
    },
    {
      "type": "Feature",
      "properties": { 
      "IBGE:COD_UNICO_ENDERECO": "27417700",
      "addr:housenumber": "235",
      "addr:postcode": "48608-410",
      "addr:street": "Rua Alagoinha",
      "addr:suburb": "Alves de Sousa",
      "building": "construction"
      },
      "geometry": {
         "type": "Point",
         "coordinates": [-38.2112268,-9.4049002]
      }
    },
    {
      "type": "Feature",
      "properties": { 
      "IBGE:COD_UNICO_ENDERECO": "27417703",
      "addr:housenumber": "61",
      "addr:postcode": "48608-410",
      "addr:street": "Rua Alagoinha",
      "addr:suburb": "Alves de Sousa",
      "building": "yes"
      },
      "geometry": {
         "type": "Point",
         "coordinates": [-38.2114516,-9.4045188]
      }
    },
    {
      "type": "Feature",
      "properties": { 
      "IBGE:COD_UNICO_ENDERECO": "27417762",
      "addr:housenumber": "328",
      "addr:postcode": "48608-410",
      "addr:street": "Rua Alagoinha",
      "addr:suburb": "Alves de Sousa",
      "building": "yes"
      },
      "geometry": {
         "type": "Point",
         "coordinates": [-38.2109485,-9.4056483]
      }
    },
    {
      "type": "Feature",
      "properties": { 
      "IBGE:COD_UNICO_ENDERECO": "27417640",
      "addr:housenumber": "50 D",
      "addr:postcode": "48608-560",
      "addr:street": "Travessa dos Prazeres",
      "addr:suburb": "Alves de Sousa",
      "building": "yes",
      "fixme": "Verificar coordenadas",
      "note": "Sem face no bayface do IBGE 0500-0133P-1-1"
      },
      "geometry": {
         "type": "Point",
         "coordinates": [-38.210069,-9.404757]
      }
    },
    {
      "type": "Feature",
      "properties": { 
      "IBGE:COD_UNICO_ENDERECO": "27417679",
      "addr:housenumber": "295",
      "addr:postcode": "48608-410",
      "addr:street": "Rua Alagoinha",
      "addr:suburb": "Alves de Sousa",
      "building": "yes"
      },
      "geometry": {
         "type": "Point",
         "coordinates": [-38.2109805,-9.405407]
      }
    },
    {
      "type": "Feature",
      "properties": { 
      "IBGE:COD_UNICO_ENDERECO": "191401194",
      "addr:housenumber": "26",
      "addr:postcode": "48608-375",
      "addr:street": "Rua Jeremoabo",
      "addr:suburb": "Alves de Sousa",
      "building": "warehouse",
      "description": "CNEFE 2022 Depósito"
      },
      "geometry": {
         "type": "Point",
         "coordinates": [-38.2131466,-9.4057553]
      }
    },
    {
      "type": "Feature",
      "properties": { 
      "IBGE:COD_UNICO_ENDERECO": "27417769",
      "addr:housenumber": "122",
      "addr:postcode": "48608-510",
      "addr:street": "Rua Pojuca",
      "addr:suburb": "Alves de Sousa",
      "building": "yes"
      },
      "geometry": {
         "type": "Point",
         "coordinates": [-38.2117558,-9.4049183]
      }
    },
    {
      "type": "Feature",
      "properties": { 
      "IBGE:COD_UNICO_ENDERECO": "27417856",
      "addr:housenumber": "22",
      "addr:postcode": "48608-380",
      "addr:street": "Travessa Alagoinha",
      "addr:suburb": "Alves de Sousa",
      "building": "yes"
      },
      "geometry": {
         "type": "Point",
         "coordinates": [-38.2127032,-9.4059268]
      }
    },
    {
      "type": "Feature",
      "properties": { 
      "IBGE:COD_UNICO_ENDERECO": "27417687",
      "addr:housenumber": "283",
      "addr:postcode": "48608-410",
      "addr:street": "Rua Alagoinha",
      "addr:suburb": "Alves de Sousa",
      "building": "yes"
      },
      "geometry": {
         "type": "Point",
         "coordinates": [-38.2110217,-9.4053222]
      }
    },
    {
      "type": "Feature",
      "properties": { 
      "IBGE:COD_UNICO_ENDERECO": "27417662",
      "addr:housenumber": "64",
      "addr:postcode": "48608-410",
      "addr:street": "Rua Alagoinha",
      "addr:suburb": "Alves de Sousa",
      "building": "yes"
      },
      "geometry": {
         "type": "Point",
         "coordinates": [-38.2115569,-9.4044383]
      }
    },
    {
      "type": "Feature",
      "properties": { 
      "IBGE:COD_UNICO_ENDERECO": "27417675",
      "addr:housenumber": "327",
      "addr:postcode": "48608-410",
      "addr:street": "Rua Alagoinha",
      "addr:suburb": "Alves de Sousa",
      "building": "yes"
      },
      "geometry": {
         "type": "Point",
         "coordinates": [-38.2108879,-9.4055977]
      }
    },
    {
      "type": "Feature",
      "properties": { 
      "IBGE:COD_UNICO_ENDERECO": "27417654",
      "addr:housenumber": "50",
      "addr:postcode": "48608-410",
      "addr:street": "Rua Alagoinha",
      "addr:suburb": "Alves de Sousa",
      "building": "yes"
      },
      "geometry": {
         "type": "Point",
         "coordinates": [-38.2108405,-9.405689]
      }
    },
    {
      "type": "Feature",
      "properties": { 
      "IBGE:COD_UNICO_ENDERECO": "27417735",
      "addr:housenumber": "69 A",
      "addr:postcode": "48608-560",
      "addr:street": "Rua dos Prazeres",
      "addr:suburb": "Alves de Sousa",
      "building": "yes",
      "fixme": "Verificar coordenadas",
      "note": "Sem dados para mover para dentro da quadra 0500-0133P-2-1"
      },
      "geometry": {
         "type": "Point",
         "coordinates": [-38.2106798,-9.4043046]
      }
    },
    {
      "type": "Feature",
      "properties": { 
      "IBGE:COD_UNICO_ENDERECO": "27417747",
      "addr:housenumber": "84 A",
      "addr:postcode": "48608-560",
      "addr:street": "Travessa dos Prazeres",
      "addr:suburb": "Alves de Sousa",
      "building": "yes",
      "fixme": "Verificar coordenadas",
      "note": "Sem face no bayface do IBGE 0500-0133P-2-3"
      },
      "geometry": {
         "type": "Point",
         "coordinates": [-38.211027,-9.40437]
      }
    },
    {
      "type": "Feature",
      "properties": { 
      "IBGE:COD_UNICO_ENDERECO": "27417829",
      "addr:housenumber": "21",
      "addr:postcode": "48608-520",
      "addr:street": "Rua Aratu",
      "addr:suburb": "Alves de Sousa",
      "building": "yes"
      },
      "geometry": {
         "type": "Point",
         "coordinates": [-38.2121818,-9.4063013]
      }
    },
    {
      "type": "Feature",
      "properties": { 
      "IBGE:COD_UNICO_ENDERECO": "27417846",
      "addr:housenumber": "74",
      "addr:postcode": "48608-520",
      "addr:street": "Rua Aratu",
      "addr:suburb": "Alves de Sousa",
      "building": "yes"
      },
      "geometry": {
         "type": "Point",
         "coordinates": [-38.2111897,-9.4059094]
      }
    },
    {
      "type": "Feature",
      "properties": { 
      "IBGE:COD_UNICO_ENDERECO": "27417775",
      "addr:housenumber": "73",
      "addr:postcode": "48608-510",
      "addr:street": "Rua Pojuca",
      "addr:suburb": "Alves de Sousa",
      "building": "yes",
      "fixme": "Verificar coordenadas",
      "note": "Sem face no bayface do IBGE 0500-0133P-4-2"
      },
      "geometry": {
         "type": "Point",
         "coordinates": [-38.21164,-9.405292]
      }
    },
    {
      "type": "Feature",
      "properties": { 
      "IBGE:COD_UNICO_ENDERECO": "27417792",
      "addr:housenumber": "73 A",
      "addr:postcode": "48608-460",
      "addr:street": "Rua Salvador",
      "addr:suburb": "Alves de Sousa",
      "building": "yes",
      "fixme": "Verificar coordenadas",
      "note": "Sem face no bayface do IBGE 0500-0133P-4-4"
      },
      "geometry": {
         "type": "Point",
         "coordinates": [-38.212726,-9.405308]
      }
    },
    {
      "type": "Feature",
      "properties": { 
      "IBGE:COD_UNICO_ENDERECO": "27417647",
      "addr:housenumber": "103",
      "addr:postcode": "48608-460",
      "addr:street": "Rua Salvador",
      "addr:suburb": "Alves de Sousa",
      "building": "yes",
      "fixme": "Verificar coordenadas",
      "note": "Sem face no bayface do IBGE 0500-0133P-1-4"
      },
      "geometry": {
         "type": "Point",
         "coordinates": [-38.211173,-9.407098]
      }
    },
    {
      "type": "Feature",
      "properties": { 
      "IBGE:COD_UNICO_ENDERECO": "27417862",
      "addr:housenumber": "13 A",
      "addr:postcode": "48608-380",
      "addr:street": "Travessa Alagoinha",
      "addr:suburb": "Alves de Sousa",
      "building": "yes"
      },
      "geometry": {
         "type": "Point",
         "coordinates": [-38.2127015,-9.40623]
      }
    },
    {
      "type": "Feature",
      "properties": { 
      "IBGE:COD_UNICO_ENDERECO": "191400698",
      "addr:housenumber": "72 B",
      "addr:postcode": "48608-560",
      "addr:street": "Rua dos Prazeres",
      "addr:suburb": "Alves de Sousa",
      "building": "yes",
      "fixme": "Verificar coordenadas",
      "note": "Sem face no bayface do IBGE 0500-0133P-1-8"
      },
      "geometry": {
         "type": "Point",
         "coordinates": [-38.21158,-9.40409]
      }
    },
    {
      "type": "Feature",
      "properties": { 
      "IBGE:COD_UNICO_ENDERECO": "27417773",
      "addr:housenumber": "123",
      "addr:postcode": "48608-510",
      "addr:street": "Rua Pojuca",
      "addr:suburb": "Alves de Sousa",
      "building": "yes",
      "fixme": "Verificar coordenadas",
      "note": "Sem face no bayface do IBGE 0500-0133P-4-2"
      },
      "geometry": {
         "type": "Point",
         "coordinates": [-38.21189,-9.405016]
      }
    },
    {
      "type": "Feature",
      "properties": { 
      "IBGE:COD_UNICO_ENDERECO": "27417663",
      "addr:housenumber": "165",
      "addr:postcode": "48608-410",
      "addr:street": "Rua Alagoinha",
      "addr:suburb": "Alves de Sousa",
      "building": "yes"
      },
      "geometry": {
         "type": "Point",
         "coordinates": [-38.2116173,-9.4044042]
      }
    },
    {
      "type": "Feature",
      "properties": { 
      "IBGE:COD_UNICO_ENDERECO": "27417836",
      "addr:housenumber": "7",
      "addr:postcode": "48608-385",
      "addr:street": "Travessa Aratu",
      "addr:suburb": "Alves de Sousa",
      "building": "yes"
      },
      "geometry": {
         "type": "Point",
         "coordinates": [-38.2124817,-9.4058306]
      }
    },
    {
      "type": "Feature",
      "properties": { 
      "IBGE:COD_UNICO_ENDERECO": "27417723",
      "addr:housenumber": "147 A",
      "addr:postcode": "48608-460",
      "addr:street": "Rua Salvador",
      "addr:suburb": "Alves de Sousa",
      "building": "yes",
      "fixme": "Verificar coordenadas",
      "note": "Sem face no bayface do IBGE 0500-0133P-4-4"
      },
      "geometry": {
         "type": "Point",
         "coordinates": [-38.212025,-9.405488]
      }
    },
    {
      "type": "Feature",
      "properties": { 
      "IBGE:COD_UNICO_ENDERECO": "27417840",
      "addr:housenumber": "8",
      "addr:postcode": "48608-385",
      "addr:street": "Travessa Aratu",
      "addr:suburb": "Alves de Sousa",
      "building": "yes"
      },
      "geometry": {
         "type": "Point",
         "coordinates": [-38.2126341,-9.4058496]
      }
    },
    {
      "type": "Feature",
      "properties": { 
      "IBGE:COD_UNICO_ENDERECO": "27417760",
      "addr:housenumber": "296",
      "addr:postcode": "48608-410",
      "addr:street": "Rua Alagoinha",
      "addr:suburb": "Alves de Sousa",
      "building": "yes"
      },
      "geometry": {
         "type": "Point",
         "coordinates": [-38.2111041,-9.4053231]
      }
    },
    {
      "type": "Feature",
      "properties": { 
      "IBGE:COD_UNICO_ENDERECO": "191400370",
      "addr:housenumber": "56",
      "addr:postcode": "48608-560",
      "addr:street": "Travessa dos Prazeres",
      "addr:suburb": "Alves de Sousa",
      "building": "yes",
      "fixme": "Verificar coordenadas",
      "note": "Sem face no bayface do IBGE 0500-0133P-1-1"
      },
      "geometry": {
         "type": "Point",
         "coordinates": [-38.210332,-9.404989]
      }
    },
    {
      "type": "Feature",
      "properties": { 
      "IBGE:COD_UNICO_ENDERECO": "27417784",
      "addr:housenumber": "177",
      "addr:postcode": "48608-460",
      "addr:street": "Rua Salvador",
      "addr:suburb": "Alves de Sousa",
      "building": "yes",
      "fixme": "Verificar coordenadas",
      "note": "Sem face no bayface do IBGE 0500-0133P-4-4"
      },
      "geometry": {
         "type": "Point",
         "coordinates": [-38.211897,-9.405743]
      }
    },
    {
      "type": "Feature",
      "properties": { 
      "IBGE:COD_UNICO_ENDERECO": "27417734",
      "addr:housenumber": "69 B",
      "addr:postcode": "48608-560",
      "addr:street": "Rua dos Prazeres",
      "addr:suburb": "Alves de Sousa",
      "building": "yes",
      "fixme": "Verificar coordenadas",
      "note": "Sem dados para mover para dentro da quadra 0500-0133P-2-1"
      },
      "geometry": {
         "type": "Point",
         "coordinates": [-38.2107922,-9.404273]
      }
    },
    {
      "type": "Feature",
      "properties": { 
      "IBGE:COD_UNICO_ENDERECO": "191400751",
      "addr:housenumber": "82",
      "addr:postcode": "48608-560",
      "addr:street": "Rua dos Prazeres",
      "addr:suburb": "Alves de Sousa",
      "building": "yes",
      "fixme": "Verificar coordenadas",
      "note": "Sem face no bayface do IBGE 0500-0133P-1-8"
      },
      "geometry": {
         "type": "Point",
         "coordinates": [-38.211065,-9.404213]
      }
    },
    {
      "type": "Feature",
      "properties": { 
      "IBGE:COD_UNICO_ENDERECO": "27417802",
      "addr:housenumber": "18",
      "addr:postcode": "48608-460",
      "addr:street": "Rua Salvador",
      "addr:suburb": "Alves de Sousa",
      "building": "yes"
      },
      "geometry": {
         "type": "Point",
         "coordinates": [-38.2119273,-9.4060322]
      }
    },
    {
      "type": "Feature",
      "properties": { 
      "IBGE:COD_UNICO_ENDERECO": "27417853",
      "addr:housenumber": "5",
      "addr:postcode": "48608-380",
      "addr:street": "Travessa Alagoinha",
      "addr:suburb": "Alves de Sousa",
      "building": "yes",
      "name": "Dedé do Gás"
      },
      "geometry": {
         "type": "Point",
         "coordinates": [-38.212730699463,-9.4058674613881]
      }
    },
    {
      "type": "Feature",
      "properties": { 
      "IBGE:COD_UNICO_ENDERECO": "27417785",
      "addr:housenumber": "147",
      "addr:postcode": "48608-460",
      "addr:street": "Rua Salvador",
      "addr:suburb": "Alves de Sousa",
      "building": "yes",
      "fixme": "Verificar coordenadas",
      "note": "Sem face no bayface do IBGE 0500-0133P-4-4"
      },
      "geometry": {
         "type": "Point",
         "coordinates": [-38.212028,-9.405497]
      }
    },
    {
      "type": "Feature",
      "properties": { 
      "IBGE:COD_UNICO_ENDERECO": "27417858;191401187",
      "addr:housenumber": "9",
      "addr:postcode": "48608-380",
      "addr:street": "Travessa Alagoinha",
      "addr:suburb": "Alves de Sousa",
      "building": "yes"
      },
      "geometry": {
         "type": "Point",
         "coordinates": [-38.2126397,-9.4060367]
      }
    },
    {
      "type": "Feature",
      "properties": { 
      "IBGE:COD_UNICO_ENDERECO": "191400596",
      "addr:housenumber": "111 G",
      "addr:postcode": "48608-565",
      "addr:street": "Avenida dos Encantos",
      "addr:suburb": "Alves de Sousa",
      "addr:unit": "Térreo 1",
      "building": "yes",
      "fixme": "Verificar coordenadas",
      "note": "Sem face no bayface do IBGE 0500-0133P-1-3"
      },
      "geometry": {
         "type": "Point",
         "coordinates": [-38.21094,-9.406781]
      }
    },
    {
      "type": "Feature",
      "properties": { 
      "IBGE:COD_UNICO_ENDERECO": "27417649",
      "addr:housenumber": "103 U",
      "addr:postcode": "48608-460",
      "addr:street": "Rua Salvador",
      "addr:suburb": "Alves de Sousa",
      "building": "yes",
      "fixme": "Verificar coordenadas",
      "note": "Sem face no bayface do IBGE 0500-0133P-1-4"
      },
      "geometry": {
         "type": "Point",
         "coordinates": [-38.211295,-9.407088]
      }
    },
    {
      "type": "Feature",
      "properties": { 
      "IBGE:COD_UNICO_ENDERECO": "191400548",
      "addr:housenumber": "125",
      "addr:postcode": "48608-565",
      "addr:street": "Avenida dos Encantos",
      "addr:suburb": "Alves de Sousa",
      "building": "yes",
      "fixme": "Verificar coordenadas",
      "note": "Sem face no bayface do IBGE 0500-0133P-1-3"
      },
      "geometry": {
         "type": "Point",
         "coordinates": [-38.210916,-9.40648]
      }
    },
    {
      "type": "Feature",
      "properties": { 
      "IBGE:COD_UNICO_ENDERECO": "191401145",
      "addr:housenumber": "18",
      "addr:postcode": "48608-385",
      "addr:street": "Travessa Aratu",
      "addr:suburb": "Alves de Sousa",
      "building": "yes"
      },
      "geometry": {
         "type": "Point",
         "coordinates": [-38.2124675,-9.4061445]
      }
    },
    {
      "type": "Feature",
      "properties": { 
      "IBGE:COD_UNICO_ENDERECO": "27417865",
      "addr:housenumber": "4 C",
      "addr:postcode": "48608-380",
      "addr:street": "Travessa Alagoinha",
      "addr:suburb": "Alves de Sousa",
      "building": "yes"
      },
      "geometry": {
         "type": "Point",
         "coordinates": [-38.2128216,-9.4060177]
      }
    },
    {
      "type": "Feature",
      "properties": { 
      "IBGE:COD_UNICO_ENDERECO": "191400823",
      "addr:housenumber": "68 Térreo 1",
      "addr:postcode": "48608-560",
      "addr:street": "Rua dos Prazeres",
      "addr:suburb": "Alves de Sousa",
      "building": "yes",
      "fixme": "Verificar coordenadas",
      "note": "Sem dados para mover para dentro da quadra 0500-0133P-2-1"
      },
      "geometry": {
         "type": "Point",
         "coordinates": [-38.2106057,-9.4043254]
      }
    },
    {
      "type": "Feature",
      "properties": { 
      "IBGE:COD_UNICO_ENDERECO": "27417808",
      "addr:housenumber": "3",
      "addr:postcode": "48608-365",
      "addr:street": "Travessa Salvador",
      "addr:suburb": "Alves de Sousa",
      "building": "yes"
      },
      "geometry": {
         "type": "Point",
         "coordinates": [-38.2122982,-9.4057057]
      }
    },
    {
      "type": "Feature",
      "properties": { 
      "IBGE:COD_UNICO_ENDERECO": "27417798",
      "addr:housenumber": "8",
      "addr:postcode": "48608-460",
      "addr:street": "Rua Salvador",
      "addr:suburb": "Alves de Sousa",
      "building": "yes"
      },
      "geometry": {
         "type": "Point",
         "coordinates": [-38.2120697,-9.4056655]
      }
    },
    {
      "type": "Feature",
      "properties": { 
      "IBGE:COD_UNICO_ENDERECO": "27417685",
      "addr:housenumber": "141",
      "addr:postcode": "48608-410",
      "addr:street": "Rua Alagoinha",
      "addr:suburb": "Alves de Sousa",
      "building": "yes"
      },
      "geometry": {
         "type": "Point",
         "coordinates": [-38.2110918,-9.4051779]
      }
    },
    {
      "type": "Feature",
      "properties": { 
      "IBGE:COD_UNICO_ENDERECO": "27417788",
      "addr:housenumber": "111",
      "addr:postcode": "48608-460",
      "addr:street": "Rua Salvador",
      "addr:suburb": "Alves de Sousa",
      "building": "yes",
      "fixme": "Verificar coordenadas",
      "note": "Sem face no bayface do IBGE 0500-0133P-4-4"
      },
      "geometry": {
         "type": "Point",
         "coordinates": [-38.212333,-9.40541]
      }
    },
    {
      "type": "Feature",
      "properties": { 
      "IBGE:COD_UNICO_ENDERECO": "27417704",
      "addr:housenumber": "14",
      "addr:postcode": "48608-520",
      "addr:street": "Rua Aratu",
      "addr:suburb": "Alves de Sousa",
      "building": "yes"
      },
      "geometry": {
         "type": "Point",
         "coordinates": [-38.2116619,-9.4061378]
      }
    },
    {
      "type": "Feature",
      "properties": { 
      "IBGE:COD_UNICO_ENDERECO": "27417809;191401065",
      "addr:housenumber": "5",
      "addr:postcode": "48608-365",
      "addr:street": "Travessa Salvador",
      "addr:suburb": "Alves de Sousa",
      "building": "yes"
      },
      "geometry": {
         "type": "Point",
         "coordinates": [-38.2122419,-9.405809]
      }
    },
    {
      "type": "Feature",
      "properties": { 
      "IBGE:COD_UNICO_ENDERECO": "191400636",
      "addr:housenumber": "223",
      "addr:postcode": "48608-460",
      "addr:street": "Rua Salvador",
      "addr:suburb": "Alves de Sousa",
      "building": "yes",
      "fixme": "Verificar coordenadas",
      "note": "Sem face no bayface do IBGE 0500-0133P-1-4"
      },
      "geometry": {
         "type": "Point",
         "coordinates": [-38.211748,-9.406434]
      }
    },
    {
      "type": "Feature",
      "properties": { 
      "IBGE:COD_UNICO_ENDERECO": "27417816",
      "addr:housenumber": "19",
      "addr:postcode": "48608-365",
      "addr:street": "Travessa Salvador",
      "addr:suburb": "Alves de Sousa",
      "building": "yes"
      },
      "geometry": {
         "type": "Point",
         "coordinates": [-38.2120502,-9.4061609]
      }
    },
    {
      "type": "Feature",
      "properties": { 
      "IBGE:COD_UNICO_ENDERECO": "191400608",
      "addr:housenumber": "113",
      "addr:postcode": "48608-565",
      "addr:street": "Avenida dos Encantos",
      "addr:suburb": "Alves de Sousa",
      "building": "yes",
      "fixme": "Verificar coordenadas",
      "note": "Sem face no bayface do IBGE 0500-0133P-1-3"
      },
      "geometry": {
         "type": "Point",
         "coordinates": [-38.210993,-9.406968]
      }
    },
    {
      "type": "Feature",
      "properties": { 
      "IBGE:COD_UNICO_ENDERECO": "27417716",
      "addr:housenumber": "140",
      "addr:postcode": "48608-510",
      "addr:street": "Rua Pojuca",
      "addr:suburb": "Alves de Sousa",
      "building": "yes"
      },
      "geometry": {
         "type": "Point",
         "coordinates": [-38.2117938,-9.4048784]
      }
    },
    {
      "type": "Feature",
      "properties": { 
      "IBGE:COD_UNICO_ENDERECO": "27417777",
      "addr:housenumber": "35",
      "addr:postcode": "48608-510",
      "addr:street": "Rua Pojuca",
      "addr:suburb": "Alves de Sousa",
      "building": "yes",
      "fixme": "Verificar coordenadas",
      "note": "Sem face no bayface do IBGE 0500-0133P-4-2"
      },
      "geometry": {
         "type": "Point",
         "coordinates": [-38.211454,-9.405624]
      }
    },
    {
      "type": "Feature",
      "properties": { 
      "IBGE:COD_UNICO_ENDERECO": "27417811",
      "addr:housenumber": "9",
      "addr:postcode": "48608-365",
      "addr:street": "Travessa Salvador",
      "addr:suburb": "Alves de Sousa",
      "building": "yes"
      },
      "geometry": {
         "type": "Point",
         "coordinates": [-38.2121963,-9.4058927]
      }
    },
    {
      "type": "Feature",
      "properties": { 
      "IBGE:COD_UNICO_ENDERECO": "27417864",
      "addr:housenumber": "4 A",
      "addr:postcode": "48608-380",
      "addr:street": "Travessa Alagoinha",
      "addr:suburb": "Alves de Sousa",
      "addr:unit": "Térreo",
      "amenity": "pub",
      "building": "yes",
      "name": "Bar da Moça"
      },
      "geometry": {
         "type": "Point",
         "coordinates": [-38.212823346049,-9.4060226000032]
      }
    },
    {
      "type": "Feature",
      "properties": { 
      "IBGE:COD_UNICO_ENDERECO": "191400531",
      "addr:housenumber": "103 E",
      "addr:postcode": "48608-565",
      "addr:street": "Avenida dos Encantos",
      "addr:suburb": "Alves de Sousa",
      "building": "yes",
      "fixme": "Verificar coordenadas",
      "note": "Sem face no bayface do IBGE 0500-0133P-1-3"
      },
      "geometry": {
         "type": "Point",
         "coordinates": [-38.2109,-9.406346]
      }
    },
    {
      "type": "Feature",
      "properties": { 
      "IBGE:COD_UNICO_ENDERECO": "27417871",
      "addr:housenumber": "27 A",
      "addr:postcode": "48608-490",
      "addr:street": "Rua da Harmonia",
      "addr:suburb": "Alves de Sousa",
      "building": "yes"
      },
      "geometry": {
         "type": "Point",
         "coordinates": [-38.2128083,-9.4063762]
      }
    },
    {
      "type": "Feature",
      "properties": { 
      "IBGE:COD_UNICO_ENDERECO": "27417787",
      "addr:housenumber": "129",
      "addr:postcode": "48608-460",
      "addr:street": "Rua Salvador",
      "addr:suburb": "Alves de Sousa",
      "building": "yes",
      "fixme": "Verificar coordenadas",
      "note": "Sem face no bayface do IBGE 0500-0133P-4-4"
      },
      "geometry": {
         "type": "Point",
         "coordinates": [-38.212217,-9.405471]
      }
    },
    {
      "type": "Feature",
      "properties": { 
      "IBGE:COD_UNICO_ENDERECO": "27417866",
      "addr:housenumber": "4 B",
      "addr:postcode": "48608-380",
      "addr:street": "Travessa Alagoinha",
      "addr:suburb": "Alves de Sousa",
      "building": "yes"
      },
      "geometry": {
         "type": "Point",
         "coordinates": [-38.21282510768,-9.4060184951224]
      }
    },
    {
      "type": "Feature",
      "properties": { 
      "IBGE:COD_UNICO_ENDERECO": "191401139",
      "addr:housenumber": "16",
      "addr:postcode": "48608-385",
      "addr:street": "Travessa Aratu",
      "addr:suburb": "Alves de Sousa",
      "building": "yes"
      },
      "geometry": {
         "type": "Point",
         "coordinates": [-38.2124916,-9.4061019]
      }
    },
    {
      "type": "Feature",
      "properties": { 
      "IBGE:COD_UNICO_ENDERECO": "191401255",
      "addr:housenumber": "27",
      "addr:postcode": "48608-490",
      "addr:street": "Rua da Harmonia",
      "addr:suburb": "Alves de Sousa",
      "building": "yes"
      },
      "geometry": {
         "type": "Point",
         "coordinates": [-38.2129035,-9.4063313]
      }
    },
    {
      "type": "Feature",
      "properties": { 
      "IBGE:COD_UNICO_ENDERECO": "191400425",
      "addr:housenumber": "38",
      "addr:postcode": "48608-565",
      "addr:street": "Avenida dos Encantos",
      "addr:suburb": "Alves de Sousa",
      "building": "yes",
      "fixme": "Verificar coordenadas",
      "note": "Sem face no bayface do IBGE 0500-0133P-1-3"
      },
      "geometry": {
         "type": "Point",
         "coordinates": [-38.209827,-9.405239]
      }
    },
    {
      "type": "Feature",
      "properties": { 
      "IBGE:COD_UNICO_ENDERECO": "27417823",
      "addr:housenumber": "12",
      "addr:postcode": "48608-365",
      "addr:street": "Travessa Salvador",
      "addr:suburb": "Alves de Sousa",
      "building": "yes"
      },
      "geometry": {
         "type": "Point",
         "coordinates": [-38.2123245,-9.4059482]
      }
    },
    {
      "type": "Feature",
      "properties": { 
      "IBGE:COD_UNICO_ENDERECO": "27417868",
      "addr:housenumber": "2 A",
      "addr:postcode": "48608-380",
      "addr:street": "Travessa Alagoinha",
      "addr:suburb": "Alves de Sousa",
      "building": "yes"
      },
      "geometry": {
         "type": "Point",
         "coordinates": [-38.2129052,-9.4058697]
      }
    },
    {
      "type": "Feature",
      "properties": { 
      "IBGE:COD_UNICO_ENDERECO": "27417741-27417743;191400868",
      "addr:housenumber": "260",
      "addr:postcode": "48608-560",
      "addr:street": "Rua dos Prazeres",
      "addr:suburb": "Alves de Sousa",
      "building": "construction",
      "fixme": "Verificar coordenadas",
      "note": "Sem dados para mover para dentro da quadra 0500-0133P-2-1"
      },
      "geometry": {
         "type": "Point",
         "coordinates": [-38.2103496,-9.4044059]
      }
    },
    {
      "type": "Feature",
      "properties": { 
      "IBGE:COD_UNICO_ENDERECO": "27417635",
      "addr:housenumber": "50",
      "addr:postcode": "48608-560",
      "addr:street": "Travessa dos Prazeres",
      "addr:suburb": "Alves de Sousa",
      "building": "yes",
      "fixme": "Verificar coordenadas",
      "note": "Sem face no bayface do IBGE 0500-0133P-1-1"
      },
      "geometry": {
         "type": "Point",
         "coordinates": [-38.21042,-9.405119]
      }
    },
    {
      "type": "Feature",
      "properties": { 
      "IBGE:COD_UNICO_ENDERECO": "191400791",
      "addr:housenumber": "73 C",
      "addr:postcode": "48608-560",
      "addr:street": "Travessa dos Prazeres",
      "addr:suburb": "Alves de Sousa",
      "addr:unit": "Habitação C",
      "building": "yes",
      "fixme": "Verificar coordenadas",
      "note": "Sem face no bayface do IBGE 0500-0133P-1-11"
      },
      "geometry": {
         "type": "Point",
         "coordinates": [-38.210595,-9.404928]
      }
    },
    {
      "type": "Feature",
      "properties": { 
      "IBGE:COD_UNICO_ENDERECO": "27417764",
      "addr:housenumber": "16",
      "addr:postcode": "48608-510",
      "addr:street": "Rua Pojuca",
      "addr:suburb": "Alves de Sousa",
      "building": "yes"
      },
      "geometry": {
         "type": "Point",
         "coordinates": [-38.2112751,-9.4057943]
      }
    },
    {
      "type": "Feature",
      "properties": { 
      "IBGE:COD_UNICO_ENDERECO": "27417813",
      "addr:housenumber": "13",
      "addr:postcode": "48608-365",
      "addr:street": "Travessa Salvador",
      "addr:suburb": "Alves de Sousa",
      "building": "yes"
      },
      "geometry": {
         "type": "Point",
         "coordinates": [-38.2121361,-9.4060033]
      }
    },
    {
      "type": "Feature",
      "properties": { 
      "IBGE:COD_UNICO_ENDERECO": "27417878",
      "addr:housenumber": "1",
      "addr:postcode": "48608-490",
      "addr:street": "Rua da Harmonia",
      "addr:suburb": "Alves de Sousa",
      "building": "yes",
      "name": "Auto Peças Mandacaru",
      "shop": "car_parts"
      },
      "geometry": {
         "type": "Point",
         "coordinates": [-38.2131422,-9.4057777]
      }
    },
    {
      "type": "Feature",
      "properties": { 
      "IBGE:COD_UNICO_ENDERECO": "27417688",
      "addr:housenumber": "287",
      "addr:postcode": "48608-410",
      "addr:street": "Rua Alagoinha",
      "addr:suburb": "Alves de Sousa",
      "building": "yes"
      },
      "geometry": {
         "type": "Point",
         "coordinates": [-38.2109344,-9.405502]
      }
    },
    {
      "type": "Feature",
      "properties": { 
      "IBGE:COD_UNICO_ENDERECO": "27417634",
      "addr:housenumber": "161 A",
      "addr:postcode": "48608-460",
      "addr:street": "Rua Salvador",
      "addr:suburb": "Alves de Sousa",
      "building": "yes",
      "fixme": "Verificar coordenadas",
      "name": "Econ Consultoria Contábil",
      "note": "Sem face no bayface do IBGE 0500-0133P-4-4",
      "office": "accountant"
      },
      "geometry": {
         "type": "Point",
         "coordinates": [-38.210447787288,-9.405143622981]
      }
    },
    {
      "type": "Feature",
      "properties": { 
      "IBGE:COD_UNICO_ENDERECO": "191400538",
      "addr:housenumber": "103 F",
      "addr:postcode": "48608-565",
      "addr:street": "Avenida dos Encantos",
      "addr:suburb": "Alves de Sousa",
      "building": "yes",
      "fixme": "Verificar coordenadas",
      "note": "Sem face no bayface do IBGE 0500-0133P-1-3"
      },
      "geometry": {
         "type": "Point",
         "coordinates": [-38.21091,-9.406377]
      }
    },
    {
      "type": "Feature",
      "properties": { 
      "IBGE:COD_UNICO_ENDERECO": "191401175",
      "addr:housenumber": "17",
      "addr:postcode": "48608-380",
      "addr:street": "Travessa Alagoinha",
      "addr:suburb": "Alves de Sousa",
      "building": "yes"
      },
      "geometry": {
         "type": "Point",
         "coordinates": [-38.2125616,-9.4061717]
      }
    },
    {
      "type": "Feature",
      "properties": { 
      "IBGE:COD_UNICO_ENDERECO": "27417763",
      "addr:housenumber": "12",
      "addr:postcode": "48608-510",
      "addr:street": "Rua Pojuca",
      "addr:suburb": "Alves de Sousa",
      "building": "yes"
      },
      "geometry": {
         "type": "Point",
         "coordinates": [-38.2112652,-9.4058401]
      }
    },
    {
      "type": "Feature",
      "properties": { 
      "IBGE:COD_UNICO_ENDERECO": "27417804",
      "addr:housenumber": "20",
      "addr:postcode": "48608-460",
      "addr:street": "Rua Salvador",
      "addr:suburb": "Alves de Sousa",
      "building": "yes"
      },
      "geometry": {
         "type": "Point",
         "coordinates": [-38.2119106,-9.4060658]
      }
    },
    {
      "type": "Feature",
      "properties": { 
      "IBGE:COD_UNICO_ENDERECO": "27417796",
      "addr:housenumber": "6",
      "addr:postcode": "48608-460",
      "addr:street": "Rua Salvador",
      "addr:suburb": "Alves de Sousa",
      "building": "yes"
      },
      "geometry": {
         "type": "Point",
         "coordinates": [-38.2120728,-9.4057124]
      }
    },
    {
      "type": "Feature",
      "properties": { 
      "IBGE:COD_UNICO_ENDERECO": "27417786",
      "addr:housenumber": "161",
      "addr:postcode": "48608-460",
      "addr:street": "Rua Salvador",
      "addr:suburb": "Alves de Sousa",
      "building": "yes",
      "fixme": "Verificar coordenadas",
      "note": "Sem face no bayface do IBGE 0500-0133P-4-4"
      },
      "geometry": {
         "type": "Point",
         "coordinates": [-38.211978,-9.405596]
      }
    },
    {
      "type": "Feature",
      "properties": { 
      "IBGE:COD_UNICO_ENDERECO": "191400369",
      "addr:housenumber": "48",
      "addr:postcode": "48608-560",
      "addr:street": "Travessa dos Prazeres",
      "addr:suburb": "Alves de Sousa",
      "building": "yes",
      "fixme": "Verificar coordenadas",
      "note": "Sem face no bayface do IBGE 0500-0133P-1-1"
      },
      "geometry": {
         "type": "Point",
         "coordinates": [-38.21045,-9.405079]
      }
    },
    {
      "type": "Feature",
      "properties": { 
      "IBGE:COD_UNICO_ENDERECO": "27417650",
      "addr:housenumber": "103 V",
      "addr:postcode": "48608-460",
      "addr:street": "Rua Salvador",
      "addr:suburb": "Alves de Sousa",
      "building": "yes",
      "fixme": "Verificar coordenadas",
      "note": "Sem face no bayface do IBGE 0500-0133P-1-4"
      },
      "geometry": {
         "type": "Point",
         "coordinates": [-38.211371,-9.407065]
      }
    },
    {
      "type": "Feature",
      "properties": { 
      "IBGE:COD_UNICO_ENDERECO": "191400471",
      "addr:housenumber": "32",
      "addr:postcode": "48608-565",
      "addr:street": "Avenida dos Encantos",
      "addr:suburb": "Alves de Sousa",
      "building": "yes",
      "fixme": "Verificar coordenadas",
      "man_made": "water_works",
      "name": "Embasa Eee 03 Bacia Centro",
      "note": "Sem face no bayface do IBGE 0500-0133P-1-3"
      },
      "geometry": {
         "type": "Point",
         "coordinates": [-38.210392,-9.405659]
      }
    },
    {
      "type": "Feature",
      "properties": { 
      "IBGE:COD_UNICO_ENDERECO": "191401052",
      "addr:housenumber": "22 A",
      "addr:postcode": "48608-520",
      "addr:street": "Rua Aratu",
      "addr:suburb": "Alves de Sousa",
      "building": "yes"
      },
      "geometry": {
         "type": "Point",
         "coordinates": [-38.2119141,-9.4061921]
      }
    },
    {
      "type": "Feature",
      "properties": { 
      "IBGE:COD_UNICO_ENDERECO": "27417863;191401223",
      "addr:housenumber": "4",
      "addr:postcode": "48608-380",
      "addr:street": "Travessa Alagoinha",
      "addr:suburb": "Alves de Sousa",
      "building": "yes"
      },
      "geometry": {
         "type": "Point",
         "coordinates": [-38.2128381,-9.4059884]
      }
    },
    {
      "type": "Feature",
      "properties": { 
      "IBGE:COD_UNICO_ENDERECO": "191400525",
      "addr:housenumber": "422",
      "addr:postcode": "48608-565",
      "addr:street": "Avenida dos Encantos",
      "addr:suburb": "Alves de Sousa",
      "building": "yes",
      "fixme": "Verificar coordenadas",
      "note": "Sem face no bayface do IBGE 0500-0133P-1-3"
      },
      "geometry": {
         "type": "Point",
         "coordinates": [-38.210886,-9.406314]
      }
    },
    {
      "type": "Feature",
      "properties": { 
      "IBGE:COD_UNICO_ENDERECO": "191400426",
      "addr:housenumber": "36",
      "addr:postcode": "48608-565",
      "addr:street": "Avenida dos Encantos",
      "addr:suburb": "Alves de Sousa",
      "building": "yes",
      "fixme": "Verificar coordenadas",
      "note": "Sem face no bayface do IBGE 0500-0133P-1-3"
      },
      "geometry": {
         "type": "Point",
         "coordinates": [-38.209847,-9.405278]
      }
    },
    {
      "type": "Feature",
      "properties": { 
      "IBGE:COD_UNICO_ENDERECO": "191400384",
      "addr:housenumber": "12 B",
      "addr:postcode": "48608-560",
      "addr:street": "Rua dos Prazeres",
      "addr:suburb": "Alves de Sousa",
      "addr:unit": "Térreo 1",
      "building": "yes",
      "fixme": "Verificar coordenadas",
      "note": "Sem dados para mover para dentro da quadra 0500-0133P-1-2"
      },
      "geometry": {
         "type": "Point",
         "coordinates": [-38.209709,-9.4045306]
      }
    },
    {
      "type": "Feature",
      "properties": { 
      "IBGE:COD_UNICO_ENDERECO": "27417651",
      "addr:housenumber": "56",
      "addr:postcode": "48608-460",
      "addr:street": "Rua Salvador",
      "addr:suburb": "Alves de Sousa",
      "building": "yes",
      "fixme": "Verificar coordenadas",
      "note": "Sem face no bayface do IBGE 0500-0133P-1-4"
      },
      "geometry": {
         "type": "Point",
         "coordinates": [-38.211452,-9.407028]
      }
    },
    {
      "type": "Feature",
      "properties": { 
      "IBGE:COD_UNICO_ENDERECO": "27417847",
      "addr:housenumber": "15",
      "addr:postcode": "48608-380",
      "addr:street": "Travessa Alagoinha",
      "addr:suburb": "Alves de Sousa",
      "building": "yes"
      },
      "geometry": {
         "type": "Point",
         "coordinates": [-38.2125406,-9.4062081]
      }
    },
    {
      "type": "Feature",
      "properties": { 
      "IBGE:COD_UNICO_ENDERECO": "191400772",
      "addr:housenumber": "78 A",
      "addr:postcode": "48608-560",
      "addr:street": "Travessa dos Prazeres",
      "addr:suburb": "Alves de Sousa",
      "building": "yes",
      "fixme": "Verificar coordenadas",
      "note": "Sem face no bayface do IBGE 0500-0133P-1-11"
      },
      "geometry": {
         "type": "Point",
         "coordinates": [-38.210803,-9.404753]
      }
    },
    {
      "type": "Feature",
      "properties": { 
      "IBGE:COD_UNICO_ENDERECO": "191400889",
      "addr:housenumber": "76 C",
      "addr:postcode": "48608-560",
      "addr:street": "Travessa dos Prazeres",
      "addr:suburb": "Alves de Sousa",
      "building": "yes",
      "fixme": "Verificar coordenadas",
      "note": "Sem face no bayface do IBGE 0500-0133P-2-2"
      },
      "geometry": {
         "type": "Point",
         "coordinates": [-38.210201,-9.404926]
      }
    },
    {
      "type": "Feature",
      "properties": { 
      "IBGE:COD_UNICO_ENDERECO": "27417771",
      "addr:housenumber": "156",
      "addr:postcode": "48608-510",
      "addr:street": "Rua Pojuca",
      "addr:suburb": "Alves de Sousa",
      "building": "yes"
      },
      "geometry": {
         "type": "Point",
         "coordinates": [-38.2119237,-9.4047498]
      }
    },
    {
      "type": "Feature",
      "properties": { 
      "IBGE:COD_UNICO_ENDERECO": "191400378",
      "addr:housenumber": "50 B",
      "addr:postcode": "48608-560",
      "addr:street": "Rua dos Prazeres",
      "addr:suburb": "Alves de Sousa",
      "building": "yes",
      "fixme": "Verificar coordenadas",
      "note": "Sem dados para mover para dentro da quadra 0500-0133P-1-2"
      },
      "geometry": {
         "type": "Point",
         "coordinates": [-38.2099631,-9.4045216]
      }
    },
    {
      "type": "Feature",
      "properties": { 
      "IBGE:COD_UNICO_ENDERECO": "191400478",
      "addr:housenumber": "6",
      "addr:postcode": "48608-565",
      "addr:street": "Avenida dos Encantos",
      "addr:suburb": "Alves de Sousa",
      "building": "yes",
      "fixme": "Verificar coordenadas",
      "note": "Sem face no bayface do IBGE 0500-0133P-1-3"
      },
      "geometry": {
         "type": "Point",
         "coordinates": [-38.210547,-9.405808]
      }
    },
    {
      "type": "Feature",
      "properties": { 
      "IBGE:COD_UNICO_ENDERECO": "27417857",
      "addr:housenumber": "7",
      "addr:postcode": "48608-380",
      "addr:street": "Travessa Alagoinha",
      "addr:suburb": "Alves de Sousa",
      "building": "yes"
      },
      "geometry": {
         "type": "Point",
         "coordinates": [-38.2126974,-9.4059368]
      }
    },
    {
      "type": "Feature",
      "properties": { 
      "IBGE:COD_UNICO_ENDERECO": "27417860",
      "addr:housenumber": "8",
      "addr:postcode": "48608-380",
      "addr:street": "Travessa Alagoinha",
      "addr:suburb": "Alves de Sousa",
      "building": "yes"
      },
      "geometry": {
         "type": "Point",
         "coordinates": [-38.2126793,-9.4062693]
      }
    },
    {
      "type": "Feature",
      "properties": { 
      "IBGE:COD_UNICO_ENDERECO": "27417794",
      "addr:housenumber": "33",
      "addr:postcode": "48608-460",
      "addr:street": "Rua Salvador",
      "addr:suburb": "Alves de Sousa",
      "building": "yes",
      "fixme": "Verificar coordenadas",
      "note": "Sem face no bayface do IBGE 0500-0133P-4-4"
      },
      "geometry": {
         "type": "Point",
         "coordinates": [-38.212943,-9.405055]
      }
    },
    {
      "type": "Feature",
      "properties": { 
      "IBGE:COD_UNICO_ENDERECO": "27417736",
      "addr:housenumber": "65",
      "addr:postcode": "48608-560",
      "addr:street": "Rua dos Prazeres",
      "addr:suburb": "Alves de Sousa",
      "building": "yes",
      "fixme": "Verificar coordenadas",
      "note": "Sem dados para mover para dentro da quadra 0500-0133P-2-1"
      },
      "geometry": {
         "type": "Point",
         "coordinates": [-38.2106399,-9.4043158]
      }
    },
    {
      "type": "Feature",
      "properties": { 
      "IBGE:COD_UNICO_ENDERECO": "27417739",
      "addr:housenumber": "222",
      "addr:postcode": "48608-560",
      "addr:street": "Rua dos Prazeres",
      "addr:suburb": "Alves de Sousa",
      "building": "yes",
      "fixme": "Verificar coordenadas",
      "note": "Sem dados para mover para dentro da quadra 0500-0133P-2-1"
      },
      "geometry": {
         "type": "Point",
         "coordinates": [-38.2104431,-9.4043728]
      }
    },
    {
      "type": "Feature",
      "properties": { 
      "IBGE:COD_UNICO_ENDERECO": "27417778",
      "addr:housenumber": "15",
      "addr:postcode": "48608-510",
      "addr:street": "Rua Pojuca",
      "addr:suburb": "Alves de Sousa",
      "building": "yes",
      "fixme": "Verificar coordenadas",
      "note": "Sem face no bayface do IBGE 0500-0133P-4-2"
      },
      "geometry": {
         "type": "Point",
         "coordinates": [-38.211372,-9.40591]
      }
    },
    {
      "type": "Feature",
      "properties": { 
      "IBGE:COD_UNICO_ENDERECO": "27417770",
      "addr:housenumber": "142",
      "addr:postcode": "48608-510",
      "addr:street": "Rua Pojuca",
      "addr:suburb": "Alves de Sousa",
      "building": "yes"
      },
      "geometry": {
         "type": "Point",
         "coordinates": [-38.2118436,-9.4048267]
      }
    },
    {
      "type": "Feature",
      "properties": { 
      "IBGE:COD_UNICO_ENDERECO": "191400492",
      "addr:housenumber": "46",
      "addr:postcode": "48608-565",
      "addr:street": "Avenida dos Encantos",
      "addr:suburb": "Alves de Sousa",
      "building": "yes",
      "fixme": "Verificar coordenadas",
      "note": "Sem face no bayface do IBGE 0500-0133P-1-3"
      },
      "geometry": {
         "type": "Point",
         "coordinates": [-38.21056,-9.40586]
      }
    },
    {
      "type": "Feature",
      "properties": { 
      "IBGE:COD_UNICO_ENDERECO": "27417648",
      "addr:housenumber": "103 T",
      "addr:postcode": "48608-460",
      "addr:street": "Rua Salvador",
      "addr:suburb": "Alves de Sousa",
      "building": "yes",
      "fixme": "Verificar coordenadas",
      "note": "Sem face no bayface do IBGE 0500-0133P-1-4"
      },
      "geometry": {
         "type": "Point",
         "coordinates": [-38.211272,-9.407096]
      }
    },
    {
      "type": "Feature",
      "properties": { 
      "IBGE:COD_UNICO_ENDERECO": "191400367",
      "addr:housenumber": "59",
      "addr:postcode": "48608-560",
      "addr:street": "Travessa dos Prazeres",
      "addr:suburb": "Alves de Sousa",
      "building": "yes",
      "fixme": "Verificar coordenadas",
      "note": "Sem face no bayface do IBGE 0500-0133P-1-1"
      },
      "geometry": {
         "type": "Point",
         "coordinates": [-38.210551,-9.40531]
      }
    },
    {
      "type": "Feature",
      "properties": { 
      "IBGE:COD_UNICO_ENDERECO": "27417745",
      "addr:housenumber": "26",
      "addr:postcode": "48608-560",
      "addr:street": "Rua dos Prazeres",
      "addr:suburb": "Alves de Sousa",
      "building": "yes",
      "fixme": "Verificar coordenadas",
      "note": "Sem dados para mover para dentro da quadra 0500-0133P-2-1"
      },
      "geometry": {
         "type": "Point",
         "coordinates": [-38.2101469,-9.4044768]
      }
    },
    {
      "type": "Feature",
      "properties": { 
      "IBGE:COD_UNICO_ENDERECO": "27417790",
      "addr:housenumber": "74",
      "addr:postcode": "48608-460",
      "addr:street": "Rua Salvador",
      "addr:suburb": "Alves de Sousa",
      "building": "yes",
      "fixme": "Verificar coordenadas",
      "note": "Sem face no bayface do IBGE 0500-0133P-4-4"
      },
      "geometry": {
         "type": "Point",
         "coordinates": [-38.212599,-9.405379]
      }
    },
    {
      "type": "Feature",
      "properties": { 
      "IBGE:COD_UNICO_ENDERECO": "27417759",
      "addr:housenumber": "282",
      "addr:postcode": "48608-410",
      "addr:street": "Rua Alagoinha",
      "addr:suburb": "Alves de Sousa",
      "building": "yes"
      },
      "geometry": {
         "type": "Point",
         "coordinates": [-38.211078859371,-9.4053513955181]
      }
    },
    {
      "type": "Feature",
      "properties": { 
      "IBGE:COD_UNICO_ENDERECO": "191400917",
      "addr:housenumber": "80 A",
      "addr:postcode": "48608-560",
      "addr:street": "Travessa dos Prazeres",
      "addr:suburb": "Alves de Sousa",
      "building": "yes",
      "description": "CNEFE 2022 Oficina",
      "fixme": "Verificar coordenadas",
      "note": "Sem face no bayface do IBGE 0500-0133P-2-3",
      "shop": "car_repair"
      },
      "geometry": {
         "type": "Point",
         "coordinates": [-38.210878,-9.404625]
      }
    },
    {
      "type": "Feature",
      "properties": { 
      "IBGE:COD_UNICO_ENDERECO": "27417641",
      "addr:housenumber": "50 C",
      "addr:postcode": "48608-560",
      "addr:street": "Travessa dos Prazeres",
      "addr:suburb": "Alves de Sousa",
      "building": "yes",
      "fixme": "Verificar coordenadas",
      "note": "Sem face no bayface do IBGE 0500-0133P-1-1"
      },
      "geometry": {
         "type": "Point",
         "coordinates": [-38.210044,-9.40466]
      }
    },
    {
      "type": "Feature",
      "properties": { 
      "IBGE:COD_UNICO_ENDERECO": "27417761",
      "addr:housenumber": "312",
      "addr:postcode": "48608-410",
      "addr:street": "Rua Alagoinha",
      "addr:suburb": "Alves de Sousa",
      "building": "yes"
      },
      "geometry": {
         "type": "Point",
         "coordinates": [-38.2110034,-9.4055325]
      }
    }
  ]
}
