{
  "type": "FeatureCollection",
  "source": "IBGE CNEFE + Faces de Logradouros - 2022",
  "generator": "CSV-CNEFE2GeoJSON.lua 1.5.7 - fidelis.assis@gmail.com",
  "date": "2025-02-02T09:05:07-0300",
  "features": [
    {
      "type": "Feature",
      "properties": { 
      "IBGE:COD_UNICO_ENDERECO": "27415644",
      "addr:housenumber": "28",
      "addr:postcode": "48619-899",
      "addr:street": "Povoado Baixa da Onça",
      "addr:suburb": "Baixa da Onça",
      "building": "yes",
      "fixme": "Verificar coordenadas",
      "note": "Sem setor ou quadra no bayface do IBGE 0500-0217P-0-114"
      },
      "geometry": {
         "type": "Point",
         "coordinates": [-38.302031,-9.644662]
      }
    },
    {
      "type": "Feature",
      "properties": { 
      "IBGE:COD_UNICO_ENDERECO": "27415654",
      "addr:housenumber": "198",
      "addr:postcode": "48619-899",
      "addr:street": "Povoado Baixa da Onça",
      "addr:suburb": "Baixa da Onça",
      "building": "yes",
      "fixme": "Verificar coordenadas",
      "note": "Sem setor ou quadra no bayface do IBGE 0500-0217P-0-114"
      },
      "geometry": {
         "type": "Point",
         "coordinates": [-38.305141,-9.646048]
      }
    },
    {
      "type": "Feature",
      "properties": { 
      "IBGE:COD_UNICO_ENDERECO": "112589601",
      "addr:housenumber": "59",
      "addr:postcode": "48619-899",
      "addr:street": "Estrada da Baixa da Onça para Baixa do Aracha",
      "addr:suburb": "Baixa da Onça",
      "building": "yes",
      "fixme": "Verificar coordenadas",
      "note": "Sem setor ou quadra no bayface do IBGE 0500-0217P-0-115"
      },
      "geometry": {
         "type": "Point",
         "coordinates": [-38.307674,-9.643975]
      }
    },
    {
      "type": "Feature",
      "properties": { 
      "IBGE:COD_UNICO_ENDERECO": "27415640",
      "addr:housenumber": "12",
      "addr:postcode": "48619-899",
      "addr:street": "Povoado Baixa da Onça",
      "addr:suburb": "Baixa da Onça",
      "building": "yes",
      "fixme": "Verificar coordenadas",
      "note": "Sem setor ou quadra no bayface do IBGE 0500-0217P-0-114"
      },
      "geometry": {
         "type": "Point",
         "coordinates": [-38.299631,-9.645991]
      }
    },
    {
      "type": "Feature",
      "properties": { 
      "IBGE:COD_UNICO_ENDERECO": "27415651",
      "addr:housenumber": "37",
      "addr:postcode": "48619-899",
      "addr:street": "Povoado Baixa da Onça",
      "addr:suburb": "Baixa da Onça",
      "building": "yes",
      "fixme": "Verificar coordenadas",
      "note": "Sem setor ou quadra no bayface do IBGE 0500-0217P-0-114"
      },
      "geometry": {
         "type": "Point",
         "coordinates": [-38.304678,-9.645374]
      }
    },
    {
      "type": "Feature",
      "properties": { 
      "IBGE:COD_UNICO_ENDERECO": "112590262",
      "addr:housenumber": "11",
      "addr:postcode": "48619-899",
      "addr:street": "Estrada Serrte Santo Antônio",
      "addr:suburb": "Baixa da Onça",
      "building": "yes",
      "fixme": "Verificar coordenadas",
      "note": "Sem setor ou quadra no bayface do IBGE 0500-0217P-0-117"
      },
      "geometry": {
         "type": "Point",
         "coordinates": [-38.298433,-9.646165]
      }
    },
    {
      "type": "Feature",
      "properties": { 
      "IBGE:COD_UNICO_ENDERECO": "194564915",
      "addr:housenumber": "21",
      "addr:postcode": "48619-899",
      "addr:street": "Povoado Baixa da Onça",
      "addr:suburb": "Baixa da Onça",
      "building": "yes",
      "fixme": "Verificar coordenadas",
      "note": "Sem setor ou quadra no bayface do IBGE 0500-0217P-0-114"
      },
      "geometry": {
         "type": "Point",
         "coordinates": [-38.300268,-9.643259]
      }
    },
    {
      "type": "Feature",
      "properties": { 
      "IBGE:COD_UNICO_ENDERECO": "112589269",
      "addr:housenumber": "51",
      "addr:postcode": "48619-899",
      "addr:street": "Povoado Baixa da Onça",
      "addr:suburb": "Baixa da Onça",
      "building": "yes",
      "fixme": "Verificar coordenadas",
      "note": "Sem setor ou quadra no bayface do IBGE 0500-0217P-0-114"
      },
      "geometry": {
         "type": "Point",
         "coordinates": [-38.306334,-9.64614]
      }
    },
    {
      "type": "Feature",
      "properties": { 
      "IBGE:COD_UNICO_ENDERECO": "27415665",
      "addr:housenumber": "80",
      "addr:postcode": "48619-899",
      "addr:street": "Povoado Baixa da Onça",
      "addr:suburb": "Baixa da Onça",
      "building": "yes",
      "fixme": "Verificar coordenadas",
      "note": "Sem setor ou quadra no bayface do IBGE 0500-0217P-0-114"
      },
      "geometry": {
         "type": "Point",
         "coordinates": [-38.308701,-9.642915]
      }
    },
    {
      "type": "Feature",
      "properties": { 
      "IBGE:COD_UNICO_ENDERECO": "194564904",
      "addr:housenumber": "38",
      "addr:postcode": "48619-899",
      "addr:street": "Povoado Baixa da Onça",
      "addr:suburb": "Baixa da Onça",
      "building": "yes",
      "fixme": "Verificar coordenadas",
      "note": "Sem setor ou quadra no bayface do IBGE 0500-0217P-0-114"
      },
      "geometry": {
         "type": "Point",
         "coordinates": [-38.304634,-9.644922]
      }
    },
    {
      "type": "Feature",
      "properties": { 
      "IBGE:COD_UNICO_ENDERECO": "112590160",
      "addr:housenumber": "20",
      "addr:postcode": "48619-899",
      "addr:street": "Povoado Baixa da Onça",
      "addr:suburb": "Baixa da Onça",
      "building": "yes",
      "fixme": "Verificar coordenadas",
      "note": "Sem setor ou quadra no bayface do IBGE 0500-0217P-0-114"
      },
      "geometry": {
         "type": "Point",
         "coordinates": [-38.299374,-9.643926]
      }
    },
    {
      "type": "Feature",
      "properties": { 
      "IBGE:COD_UNICO_ENDERECO": "112585760",
      "addr:housenumber": "91",
      "addr:postcode": "48619-899",
      "addr:street": "Estrada da Baixa da Onça para O Barro Vermelho",
      "addr:suburb": "Baixa da Onça",
      "building": "yes",
      "fixme": "Verificar coordenadas",
      "note": "Sem setor ou quadra no bayface do IBGE 0500-0123P-0-91"
      },
      "geometry": {
         "type": "Point",
         "coordinates": [-38.303894,-9.646552]
      }
    },
    {
      "type": "Feature",
      "properties": { 
      "IBGE:COD_UNICO_ENDERECO": "112590320",
      "addr:housenumber": "4",
      "addr:postcode": "48619-899",
      "addr:street": "Estrada da Baixa da Onça para Baixa do Aracha",
      "addr:suburb": "Baixa da Onça",
      "building": "yes",
      "fixme": "Verificar coordenadas",
      "note": "Sem setor ou quadra no bayface do IBGE 0500-0217P-0-115"
      },
      "geometry": {
         "type": "Point",
         "coordinates": [-38.306508,-9.646067]
      }
    },
    {
      "type": "Feature",
      "properties": { 
      "IBGE:COD_UNICO_ENDERECO": "27415638",
      "addr:housenumber": "6",
      "addr:postcode": "48619-899",
      "addr:street": "Povoado Baixa da Onça",
      "addr:suburb": "Baixa da Onça",
      "building": "yes",
      "fixme": "Verificar coordenadas",
      "note": "Sem setor ou quadra no bayface do IBGE 0500-0217P-0-114"
      },
      "geometry": {
         "type": "Point",
         "coordinates": [-38.297247,-9.646818]
      }
    },
    {
      "type": "Feature",
      "properties": { 
      "IBGE:COD_UNICO_ENDERECO": "27415636",
      "addr:housenumber": "4",
      "addr:postcode": "48619-899",
      "addr:street": "Povoado Baixa da Onça",
      "addr:suburb": "Baixa da Onça",
      "building": "yes",
      "fixme": "Verificar coordenadas",
      "note": "Sem setor ou quadra no bayface do IBGE 0500-0217P-0-114"
      },
      "geometry": {
         "type": "Point",
         "coordinates": [-38.296447,-9.647039]
      }
    },
    {
      "type": "Feature",
      "properties": { 
      "IBGE:COD_UNICO_ENDERECO": "194564939",
      "addr:housenumber": "58",
      "addr:postcode": "48619-899",
      "addr:street": "Estrada da Baixa da Onça para Baixa do Aracha",
      "addr:suburb": "Baixa da Onça",
      "building": "yes",
      "fixme": "Verificar coordenadas",
      "note": "Sem setor ou quadra no bayface do IBGE 0500-0217P-0-115"
      },
      "geometry": {
         "type": "Point",
         "coordinates": [-38.307283,-9.64518]
      }
    },
    {
      "type": "Feature",
      "properties": { 
      "IBGE:COD_UNICO_ENDERECO": "27415649",
      "addr:housenumber": "34",
      "addr:postcode": "48619-899",
      "addr:street": "Povoado Baixa da Onça",
      "addr:suburb": "Baixa da Onça",
      "building": "yes",
      "fixme": "Verificar coordenadas",
      "note": "Sem setor ou quadra no bayface do IBGE 0500-0217P-0-114"
      },
      "geometry": {
         "type": "Point",
         "coordinates": [-38.304496,-9.646018]
      }
    },
    {
      "type": "Feature",
      "properties": { 
      "IBGE:COD_UNICO_ENDERECO": "27415653;194564906",
      "addr:housenumber": "40",
      "addr:postcode": "48619-899",
      "addr:street": "Povoado Baixa da Onça",
      "addr:suburb": "Baixa da Onça",
      "building": "yes",
      "fixme": "Verificar coordenadas",
      "note": "Sem setor ou quadra no bayface do IBGE 0500-0217P-0-114"
      },
      "geometry": {
         "type": "Point",
         "coordinates": [-38.3048405,-9.643038]
      }
    },
    {
      "type": "Feature",
      "properties": { 
      "IBGE:COD_UNICO_ENDERECO": "27414911",
      "addr:housenumber": "99",
      "addr:postcode": "48619-899",
      "addr:street": "Povoado Baixa da Onça",
      "addr:suburb": "Baixa da Onça",
      "building": "yes",
      "fixme": "Verificar coordenadas",
      "note": "Sem setor ou quadra no bayface do IBGE 0500-0123P-0-89"
      },
      "geometry": {
         "type": "Point",
         "coordinates": [-38.30343,-9.646222]
      }
    },
    {
      "type": "Feature",
      "properties": { 
      "IBGE:COD_UNICO_ENDERECO": "27414925",
      "addr:housenumber": "114",
      "addr:postcode": "48619-899",
      "addr:street": "Povoado Baixa da Onça",
      "addr:suburb": "Baixa da Onça",
      "building": "yes",
      "fixme": "Verificar coordenadas",
      "note": "Sem setor ou quadra no bayface do IBGE 0500-0123P-0-89"
      },
      "geometry": {
         "type": "Point",
         "coordinates": [-38.297266,-9.646889]
      }
    },
    {
      "type": "Feature",
      "properties": { 
      "IBGE:COD_UNICO_ENDERECO": "194564925",
      "addr:housenumber": "22",
      "addr:postcode": "48619-899",
      "addr:street": "Povoado Baixa da Onça",
      "addr:suburb": "Baixa da Onça",
      "building": "yes",
      "fixme": "Verificar coordenadas",
      "note": "Sem setor ou quadra no bayface do IBGE 0500-0217P-0-114"
      },
      "geometry": {
         "type": "Point",
         "coordinates": [-38.29981,-9.645398]
      }
    },
    {
      "type": "Feature",
      "properties": { 
      "IBGE:COD_UNICO_ENDERECO": "194564928",
      "addr:housenumber": "11",
      "addr:postcode": "48619-899",
      "addr:street": "Povoado Baixa da Onça",
      "addr:suburb": "Baixa da Onça",
      "building": "yes",
      "fixme": "Verificar coordenadas",
      "note": "Sem setor ou quadra no bayface do IBGE 0500-0217P-0-114"
      },
      "geometry": {
         "type": "Point",
         "coordinates": [-38.299448,-9.645973]
      }
    },
    {
      "type": "Feature",
      "properties": { 
      "IBGE:COD_UNICO_ENDERECO": "27415655",
      "addr:housenumber": "42",
      "addr:postcode": "48619-899",
      "addr:street": "Povoado Baixa da Onça",
      "addr:suburb": "Baixa da Onça",
      "amenity": "place_of_worship",
      "building": "yes",
      "description": "CNEFE 2022 Igreja",
      "fixme": "Verificar coordenadas",
      "note": "Sem setor ou quadra no bayface do IBGE 0500-0217P-0-114"
      },
      "geometry": {
         "type": "Point",
         "coordinates": [-38.305374,-9.646062]
      }
    },
    {
      "type": "Feature",
      "properties": { 
      "IBGE:COD_UNICO_ENDERECO": "27415659",
      "addr:housenumber": "47",
      "addr:postcode": "48619-899",
      "addr:street": "Povoado Baixa da Onça",
      "addr:suburb": "Baixa da Onça",
      "building": "yes",
      "fixme": "Verificar coordenadas",
      "note": "Sem setor ou quadra no bayface do IBGE 0500-0217P-0-114"
      },
      "geometry": {
         "type": "Point",
         "coordinates": [-38.305523,-9.646056]
      }
    },
    {
      "type": "Feature",
      "properties": { 
      "IBGE:COD_UNICO_ENDERECO": "194564911",
      "addr:housenumber": "30",
      "addr:postcode": "48619-899",
      "addr:street": "Povoado Baixa da Onça",
      "addr:suburb": "Baixa da Onça",
      "building": "yes",
      "fixme": "Verificar coordenadas",
      "note": "Sem setor ou quadra no bayface do IBGE 0500-0217P-0-114"
      },
      "geometry": {
         "type": "Point",
         "coordinates": [-38.301963,-9.644338]
      }
    },
    {
      "type": "Feature",
      "properties": { 
      "IBGE:COD_UNICO_ENDERECO": "27414924",
      "addr:housenumber": "113",
      "addr:postcode": "48619-899",
      "addr:street": "Povoado Baixa da Onça",
      "addr:suburb": "Baixa da Onça",
      "building": "yes",
      "fixme": "Verificar coordenadas",
      "note": "Sem setor ou quadra no bayface do IBGE 0500-0123P-0-89"
      },
      "geometry": {
         "type": "Point",
         "coordinates": [-38.297409,-9.646891]
      }
    },
    {
      "type": "Feature",
      "properties": { 
      "IBGE:COD_UNICO_ENDERECO": "27414907",
      "addr:housenumber": "124",
      "addr:postcode": "48619-899",
      "addr:street": "Povoado Baixa da Onça",
      "addr:suburb": "Baixa da Onça",
      "building": "yes",
      "fixme": "Verificar coordenadas",
      "note": "Sem setor ou quadra no bayface do IBGE 0500-0123P-0-89"
      },
      "geometry": {
         "type": "Point",
         "coordinates": [-38.29442,-9.649167]
      }
    },
    {
      "type": "Feature",
      "properties": { 
      "IBGE:COD_UNICO_ENDERECO": "27415667",
      "addr:housenumber": "61",
      "addr:postcode": "48619-899",
      "addr:street": "Povoado Baixa da Onça",
      "addr:suburb": "Baixa da Onça",
      "building": "yes",
      "fixme": "Verificar coordenadas",
      "note": "Sem setor ou quadra no bayface do IBGE 0500-0217P-0-114"
      },
      "geometry": {
         "type": "Point",
         "coordinates": [-38.308546,-9.646112]
      }
    },
    {
      "type": "Feature",
      "properties": { 
      "IBGE:COD_UNICO_ENDERECO": "27414903",
      "addr:housenumber": "130",
      "addr:postcode": "48619-899",
      "addr:street": "Povoado Baixa da Onça",
      "addr:suburb": "Baixa da Onça",
      "building": "yes",
      "fixme": "Verificar coordenadas",
      "note": "Sem setor ou quadra no bayface do IBGE 0500-0123P-0-89"
      },
      "geometry": {
         "type": "Point",
         "coordinates": [-38.294129,-9.648817]
      }
    },
    {
      "type": "Feature",
      "properties": { 
      "IBGE:COD_UNICO_ENDERECO": "112585260",
      "addr:housenumber": "118",
      "addr:postcode": "48619-899",
      "addr:street": "Estrada Baixa Funda",
      "addr:suburb": "Baixa da Onça",
      "building": "yes",
      "fixme": "Verificar coordenadas",
      "note": "Sem setor ou quadra no bayface do IBGE 0500-0123P-0-95"
      },
      "geometry": {
         "type": "Point",
         "coordinates": [-38.295515,-9.648327]
      }
    },
    {
      "type": "Feature",
      "properties": { 
      "IBGE:COD_UNICO_ENDERECO": "27414927",
      "addr:housenumber": "108",
      "addr:postcode": "48619-899",
      "addr:street": "Povoado Baixa da Onça",
      "addr:suburb": "Baixa da Onça",
      "building": "yes",
      "fixme": "Verificar coordenadas",
      "note": "Sem setor ou quadra no bayface do IBGE 0500-0123P-0-89"
      },
      "geometry": {
         "type": "Point",
         "coordinates": [-38.298105,-9.646595]
      }
    },
    {
      "type": "Feature",
      "properties": { 
      "IBGE:COD_UNICO_ENDERECO": "27415657",
      "addr:housenumber": "49",
      "addr:postcode": "48619-899",
      "addr:street": "Povoado Baixa da Onça",
      "addr:suburb": "Baixa da Onça",
      "building": "yes",
      "fixme": "Verificar coordenadas",
      "note": "Sem setor ou quadra no bayface do IBGE 0500-0217P-0-114"
      },
      "geometry": {
         "type": "Point",
         "coordinates": [-38.305792,-9.646086]
      }
    },
    {
      "type": "Feature",
      "properties": { 
      "IBGE:COD_UNICO_ENDERECO": "112589281",
      "addr:housenumber": "56",
      "addr:postcode": "48619-899",
      "addr:street": "Estrada da Baixa da Onça para Baixa do Aracha",
      "addr:suburb": "Baixa da Onça",
      "building": "yes",
      "fixme": "Verificar coordenadas",
      "note": "Sem setor ou quadra no bayface do IBGE 0500-0217P-0-115"
      },
      "geometry": {
         "type": "Point",
         "coordinates": [-38.307663,-9.644036]
      }
    },
    {
      "type": "Feature",
      "properties": { 
      "IBGE:COD_UNICO_ENDERECO": "194564923",
      "addr:housenumber": "25",
      "addr:postcode": "48619-899",
      "addr:street": "Povoado Baixa da Onça",
      "addr:suburb": "Baixa da Onça",
      "building": "yes",
      "fixme": "Verificar coordenadas",
      "note": "Sem setor ou quadra no bayface do IBGE 0500-0217P-0-114"
      },
      "geometry": {
         "type": "Point",
         "coordinates": [-38.302124,-9.646076]
      }
    },
    {
      "type": "Feature",
      "properties": { 
      "IBGE:COD_UNICO_ENDERECO": "112589210",
      "addr:housenumber": "54",
      "addr:postcode": "48619-899",
      "addr:street": "Povoado Baixa da Onça",
      "addr:suburb": "Baixa da Onça",
      "building": "yes",
      "fixme": "Verificar coordenadas",
      "note": "Sem setor ou quadra no bayface do IBGE 0500-0217P-0-114"
      },
      "geometry": {
         "type": "Point",
         "coordinates": [-38.306643,-9.646]
      }
    },
    {
      "type": "Feature",
      "properties": { 
      "IBGE:COD_UNICO_ENDERECO": "27414915",
      "addr:housenumber": "82",
      "addr:postcode": "48619-899",
      "addr:street": "Povoado Baixa da Onça",
      "addr:suburb": "Baixa da Onça",
      "building": "yes",
      "fixme": "Verificar coordenadas",
      "note": "Sem setor ou quadra no bayface do IBGE 0500-0123P-0-89"
      },
      "geometry": {
         "type": "Point",
         "coordinates": [-38.3054,-9.647852]
      }
    },
    {
      "type": "Feature",
      "properties": { 
      "IBGE:COD_UNICO_ENDERECO": "112590327",
      "addr:housenumber": "10",
      "addr:postcode": "48619-899",
      "addr:street": "Povoado Baixa da Onça",
      "addr:suburb": "Baixa da Onça",
      "building": "yes",
      "fixme": "Verificar coordenadas",
      "note": "Sem setor ou quadra no bayface do IBGE 0500-0217P-0-114"
      },
      "geometry": {
         "type": "Point",
         "coordinates": [-38.301287,-9.622763]
      }
    },
    {
      "type": "Feature",
      "properties": { 
      "IBGE:COD_UNICO_ENDERECO": "27414926",
      "addr:housenumber": "129",
      "addr:postcode": "48619-899",
      "addr:street": "Povoado Baixa da Onça",
      "addr:suburb": "Baixa da Onça",
      "building": "yes",
      "fixme": "Verificar coordenadas",
      "note": "Sem setor ou quadra no bayface do IBGE 0500-0123P-0-89"
      },
      "geometry": {
         "type": "Point",
         "coordinates": [-38.297494,-9.646784]
      }
    },
    {
      "type": "Feature",
      "properties": { 
      "IBGE:COD_UNICO_ENDERECO": "27414918",
      "addr:housenumber": "76",
      "addr:postcode": "48619-899",
      "addr:street": "Povoado Baixa da Onça",
      "addr:suburb": "Baixa da Onça",
      "building": "yes",
      "fixme": "Verificar coordenadas",
      "note": "Sem setor ou quadra no bayface do IBGE 0500-0123P-0-89"
      },
      "geometry": {
         "type": "Point",
         "coordinates": [-38.306229,-9.650805]
      }
    },
    {
      "type": "Feature",
      "properties": { 
      "IBGE:COD_UNICO_ENDERECO": "27415650",
      "addr:housenumber": "33",
      "addr:postcode": "48619-899",
      "addr:street": "Povoado Baixa da Onça",
      "addr:suburb": "Baixa da Onça",
      "building": "yes",
      "fixme": "Verificar coordenadas",
      "note": "Sem setor ou quadra no bayface do IBGE 0500-0217P-0-114"
      },
      "geometry": {
         "type": "Point",
         "coordinates": [-38.304393,-9.646052]
      }
    },
    {
      "type": "Feature",
      "properties": { 
      "IBGE:COD_UNICO_ENDERECO": "27415664",
      "addr:housenumber": "56",
      "addr:postcode": "48619-899",
      "addr:street": "Povoado Baixa da Onça",
      "addr:suburb": "Baixa da Onça",
      "building": "yes",
      "fixme": "Verificar coordenadas",
      "note": "Sem setor ou quadra no bayface do IBGE 0500-0217P-0-114"
      },
      "geometry": {
         "type": "Point",
         "coordinates": [-38.307083,-9.645909]
      }
    },
    {
      "type": "Feature",
      "properties": { 
      "IBGE:COD_UNICO_ENDERECO": "27415658",
      "addr:housenumber": "48",
      "addr:postcode": "48619-899",
      "addr:street": "Povoado Baixa da Onça",
      "addr:suburb": "Baixa da Onça",
      "building": "yes",
      "fixme": "Verificar coordenadas",
      "note": "Sem setor ou quadra no bayface do IBGE 0500-0217P-0-114"
      },
      "geometry": {
         "type": "Point",
         "coordinates": [-38.305713,-9.64607]
      }
    },
    {
      "type": "Feature",
      "properties": { 
      "IBGE:COD_UNICO_ENDERECO": "27415641",
      "addr:housenumber": "23",
      "addr:postcode": "48619-899",
      "addr:street": "Povoado Baixa da Onça",
      "addr:suburb": "Baixa da Onça",
      "building": "yes",
      "fixme": "Verificar coordenadas",
      "note": "Sem setor ou quadra no bayface do IBGE 0500-0217P-0-114"
      },
      "geometry": {
         "type": "Point",
         "coordinates": [-38.300002,-9.645638]
      }
    },
    {
      "type": "Feature",
      "properties": { 
      "IBGE:COD_UNICO_ENDERECO": "194564908",
      "addr:housenumber": "39",
      "addr:postcode": "48619-899",
      "addr:street": "Povoado Baixa da Onça",
      "addr:suburb": "Baixa da Onça",
      "building": "yes",
      "fixme": "Verificar coordenadas",
      "note": "Sem setor ou quadra no bayface do IBGE 0500-0217P-0-114"
      },
      "geometry": {
         "type": "Point",
         "coordinates": [-38.305175,-9.642767]
      }
    },
    {
      "type": "Feature",
      "properties": { 
      "IBGE:COD_UNICO_ENDERECO": "194564930",
      "addr:housenumber": "8",
      "addr:postcode": "48619-899",
      "addr:street": "Povoado Baixa da Onça",
      "addr:suburb": "Baixa da Onça",
      "building": "yes",
      "fixme": "Verificar coordenadas",
      "note": "Sem setor ou quadra no bayface do IBGE 0500-0217P-0-114"
      },
      "geometry": {
         "type": "Point",
         "coordinates": [-38.298283,-9.646206]
      }
    },
    {
      "type": "Feature",
      "properties": { 
      "IBGE:COD_UNICO_ENDERECO": "194564934",
      "addr:housenumber": "1",
      "addr:postcode": "48619-899",
      "addr:street": "Povoado Baixa da Onça",
      "addr:suburb": "Baixa da Onça",
      "building": "yes",
      "fixme": "Verificar coordenadas",
      "note": "Sem setor ou quadra no bayface do IBGE 0500-0217P-0-114"
      },
      "geometry": {
         "type": "Point",
         "coordinates": [-38.292802,-9.64803]
      }
    },
    {
      "type": "Feature",
      "properties": { 
      "IBGE:COD_UNICO_ENDERECO": "112585532",
      "addr:housenumber": "74",
      "addr:postcode": "48619-899",
      "addr:suburb": "Baixa da Onça",
      "building": "yes",
      "fixme": "Verificar coordenadas",
      "note": "Sem setor ou quadra no bayface do IBGE 0500-0123P-0-90"
      },
      "geometry": {
         "type": "Point",
         "coordinates": [-38.306198,-9.650836]
      }
    },
    {
      "type": "Feature",
      "properties": { 
      "IBGE:COD_UNICO_ENDERECO": "194564932",
      "addr:housenumber": "7",
      "addr:postcode": "48619-899",
      "addr:street": "Povoado Baixa da Onça",
      "addr:suburb": "Baixa da Onça",
      "building": "yes",
      "fixme": "Verificar coordenadas",
      "note": "Sem setor ou quadra no bayface do IBGE 0500-0217P-0-114"
      },
      "geometry": {
         "type": "Point",
         "coordinates": [-38.29743,-9.646738]
      }
    },
    {
      "type": "Feature",
      "properties": { 
      "IBGE:COD_UNICO_ENDERECO": "27415662",
      "addr:housenumber": "50",
      "addr:postcode": "48619-899",
      "addr:street": "Povoado Baixa da Onça",
      "addr:suburb": "Baixa da Onça",
      "building": "yes",
      "fixme": "Verificar coordenadas",
      "note": "Sem setor ou quadra no bayface do IBGE 0500-0217P-0-114"
      },
      "geometry": {
         "type": "Point",
         "coordinates": [-38.305869,-9.646066]
      }
    },
    {
      "type": "Feature",
      "properties": { 
      "IBGE:COD_UNICO_ENDERECO": "194564909",
      "addr:housenumber": "32",
      "addr:postcode": "48619-899",
      "addr:street": "Povoado Baixa da Onça",
      "addr:suburb": "Baixa da Onça",
      "amenity": "pub",
      "building": "yes",
      "description": "CNEFE 2022 Bar",
      "fixme": "Verificar coordenadas",
      "note": "Sem setor ou quadra no bayface do IBGE 0500-0217P-0-114"
      },
      "geometry": {
         "type": "Point",
         "coordinates": [-38.303523,-9.646002]
      }
    },
    {
      "type": "Feature",
      "properties": { 
      "IBGE:COD_UNICO_ENDERECO": "27415647",
      "addr:housenumber": "29",
      "addr:postcode": "48619-899",
      "addr:street": "Povoado Baixa da Onça",
      "addr:suburb": "Baixa da Onça",
      "building": "yes",
      "fixme": "Verificar coordenadas",
      "note": "Sem setor ou quadra no bayface do IBGE 0500-0217P-0-114"
      },
      "geometry": {
         "type": "Point",
         "coordinates": [-38.302162,-9.642436]
      }
    },
    {
      "type": "Feature",
      "properties": { 
      "IBGE:COD_UNICO_ENDERECO": "112590276",
      "addr:housenumber": "26",
      "addr:postcode": "48619-899",
      "addr:street": "Povoado Baixa da Onça",
      "addr:suburb": "Baixa da Onça",
      "building": "yes",
      "fixme": "Verificar coordenadas",
      "note": "Sem setor ou quadra no bayface do IBGE 0500-0217P-0-114"
      },
      "geometry": {
         "type": "Point",
         "coordinates": [-38.302951,-9.645433]
      }
    }
  ]
}
