{
  "type": "FeatureCollection",
  "source": "IBGE CNEFE + Faces de Logradouros - 2022",
  "generator": "CSV-CNEFE2GeoJSON.lua 1.5.7 - fidelis.assis@gmail.com",
  "date": "2025-02-02T09:05:07-0300",
  "features": [
    {
      "type": "Feature",
      "properties": { 
      "IBGE:COD_UNICO_ENDERECO": "27411745",
      "addr:housenumber": "70 A",
      "addr:postcode": "48601-016",
      "addr:street": "Estrada Santa Brígida",
      "addr:suburb": "Baixa da Areia",
      "building": "yes",
      "fixme": "Verificar coordenadas",
      "note": "Sem setor ou quadra no bayface do IBGE 0500-0106P-0-119"
      },
      "geometry": {
         "type": "Point",
         "coordinates": [-38.127954,-9.639841]
      }
    },
    {
      "type": "Feature",
      "properties": { 
      "IBGE:COD_UNICO_ENDERECO": "27411856",
      "addr:housenumber": "2",
      "addr:postcode": "48601-018",
      "addr:street": "Estrada Para Caraibeira",
      "addr:suburb": "Baixa da Areia",
      "building": "yes",
      "fixme": "Verificar coordenadas",
      "note": "Sem setor ou quadra no bayface do IBGE 0500-0106P-0-167"
      },
      "geometry": {
         "type": "Point",
         "coordinates": [-38.192824,-9.651697]
      }
    },
    {
      "type": "Feature",
      "properties": { 
      "IBGE:COD_UNICO_ENDERECO": "192024279",
      "addr:housenumber": "33",
      "addr:postcode": "48610-488",
      "addr:street": "Divisa com Santa Brígida",
      "addr:suburb": "Baixa da Areia",
      "building": "yes",
      "fixme": "Verificar coordenadas",
      "note": "Sem setor ou quadra no bayface do IBGE 0500-0106P-0-172"
      },
      "geometry": {
         "type": "Point",
         "coordinates": [-38.18347,-9.654812]
      }
    },
    {
      "type": "Feature",
      "properties": { 
      "IBGE:COD_UNICO_ENDERECO": "112582952",
      "addr:housenumber": "3",
      "addr:postcode": "48601-016",
      "addr:street": "Estrada Baixa da Areia",
      "addr:suburb": "Baixa da Areia",
      "building": "yes",
      "fixme": "Verificar coordenadas",
      "note": "Sem setor ou quadra no bayface do IBGE 0500-0106P-0-168"
      },
      "geometry": {
         "type": "Point",
         "coordinates": [-38.190583,-9.650639]
      }
    },
    {
      "type": "Feature",
      "properties": { 
      "IBGE:COD_UNICO_ENDERECO": "112580336",
      "addr:housenumber": "13",
      "addr:postcode": "48601-018",
      "addr:street": "Estrada do Tara",
      "addr:suburb": "Baixa da Areia",
      "building": "yes",
      "fixme": "Verificar coordenadas",
      "note": "Sem setor ou quadra no bayface do IBGE 0500-0106P-0-175"
      },
      "geometry": {
         "type": "Point",
         "coordinates": [-38.181247,-9.647842]
      }
    },
    {
      "type": "Feature",
      "properties": { 
      "IBGE:COD_UNICO_ENDERECO": "192024273",
      "addr:housenumber": "6",
      "addr:postcode": "48610-488",
      "addr:street": "Divisa com Santa Brígida",
      "addr:suburb": "Baixa da Areia",
      "building": "yes",
      "fixme": "Verificar coordenadas",
      "note": "Sem setor ou quadra no bayface do IBGE 0500-0106P-0-172"
      },
      "geometry": {
         "type": "Point",
         "coordinates": [-38.185354,-9.647648]
      }
    },
    {
      "type": "Feature",
      "properties": { 
      "IBGE:COD_UNICO_ENDERECO": "112583298",
      "addr:housenumber": "5",
      "addr:postcode": "48601-018",
      "addr:street": "Outros Divisa com Santa Brígida",
      "addr:suburb": "Baixa da Areia",
      "building": "yes",
      "fixme": "Verificar coordenadas",
      "note": "Sem setor ou quadra no bayface do IBGE 0500-0106P-0-169"
      },
      "geometry": {
         "type": "Point",
         "coordinates": [-38.186111,-9.648626]
      }
    },
    {
      "type": "Feature",
      "properties": { 
      "IBGE:COD_UNICO_ENDERECO": "192024286",
      "addr:housenumber": "56",
      "addr:postcode": "48610-488",
      "addr:street": "Divisa com Santa Brígida",
      "addr:suburb": "Baixa da Areia",
      "building": "construction",
      "fixme": "Verificar coordenadas",
      "note": "Sem setor ou quadra no bayface do IBGE 0500-0106P-0-172"
      },
      "geometry": {
         "type": "Point",
         "coordinates": [-38.182195,-9.655006]
      }
    },
    {
      "type": "Feature",
      "properties": { 
      "IBGE:COD_UNICO_ENDERECO": "192024316",
      "addr:housenumber": "19",
      "addr:postcode": "48610-488",
      "addr:street": "Saída Para Rodovia BR-110",
      "addr:suburb": "Baixa da Areia",
      "building": "construction",
      "fixme": "Verificar coordenadas",
      "note": "Sem setor ou quadra no bayface do IBGE 0500-0106P-0-178"
      },
      "geometry": {
         "type": "Point",
         "coordinates": [-38.185275,-9.649354]
      }
    },
    {
      "type": "Feature",
      "properties": { 
      "IBGE:COD_UNICO_ENDERECO": "27411851",
      "addr:housenumber": "5",
      "addr:postcode": "48601-016",
      "addr:street": "Divisão Paulo Afonso e Santa Brígida",
      "addr:suburb": "Baixa da Areia",
      "building": "yes",
      "fixme": "Verificar coordenadas",
      "note": "Sem setor ou quadra no bayface do IBGE 0500-0106P-0-170"
      },
      "geometry": {
         "type": "Point",
         "coordinates": [-38.185722,-9.648053]
      }
    },
    {
      "type": "Feature",
      "properties": { 
      "IBGE:COD_UNICO_ENDERECO": "192024334",
      "addr:housenumber": "36",
      "addr:postcode": "48610-488",
      "addr:street": "Outros Divisa com Santa Brígida",
      "addr:suburb": "Baixa da Areia",
      "building": "yes",
      "fixme": "Verificar coordenadas",
      "note": "Sem setor ou quadra no bayface do IBGE 0500-0106P-0-181"
      },
      "geometry": {
         "type": "Point",
         "coordinates": [-38.183479,-9.654808]
      }
    },
    {
      "type": "Feature",
      "properties": { 
      "IBGE:COD_UNICO_ENDERECO": "192024322",
      "addr:housenumber": "22",
      "addr:postcode": "48610-488",
      "addr:street": "Rodovia BR-110",
      "addr:suburb": "Baixa da Areia",
      "building": "yes",
      "fixme": "Verificar coordenadas",
      "note": "Sem setor ou quadra no bayface do IBGE 0500-0106P-0-179"
      },
      "geometry": {
         "type": "Point",
         "coordinates": [-38.183548,-9.65197]
      }
    },
    {
      "type": "Feature",
      "properties": { 
      "IBGE:COD_UNICO_ENDERECO": "192023248",
      "addr:housenumber": "701 A",
      "addr:postcode": "48601-016",
      "addr:street": "Estrada Santa Brígida",
      "addr:suburb": "Baixa da Areia",
      "building": "yes",
      "fixme": "Verificar coordenadas",
      "note": "Sem setor ou quadra no bayface do IBGE 0500-0106P-0-119"
      },
      "geometry": {
         "type": "Point",
         "coordinates": [-38.129042,-9.640286]
      }
    },
    {
      "type": "Feature",
      "properties": { 
      "IBGE:COD_UNICO_ENDERECO": "192024256",
      "addr:housenumber": "32",
      "addr:postcode": "48601-018",
      "addr:street": "Estrada Para Caraibeira",
      "addr:suburb": "Baixa da Areia",
      "building": "yes",
      "fixme": "Verificar coordenadas",
      "note": "Sem setor ou quadra no bayface do IBGE 0500-0106P-0-167"
      },
      "geometry": {
         "type": "Point",
         "coordinates": [-38.183482,-9.654789]
      }
    },
    {
      "type": "Feature",
      "properties": { 
      "IBGE:COD_UNICO_ENDERECO": "112580321",
      "addr:housenumber": "22",
      "addr:postcode": "48601-018",
      "addr:street": "Estrada do Tara",
      "addr:suburb": "Baixa da Areia",
      "building": "yes",
      "fixme": "Verificar coordenadas",
      "note": "Sem setor ou quadra no bayface do IBGE 0500-0106P-0-175"
      },
      "geometry": {
         "type": "Point",
         "coordinates": [-38.183544,-9.651957]
      }
    },
    {
      "type": "Feature",
      "properties": { 
      "IBGE:COD_UNICO_ENDERECO": "27411791",
      "addr:housenumber": "85",
      "addr:postcode": "48601-018",
      "addr:street": "Outros Divisa com Santa Brígida",
      "addr:suburb": "Baixa da Areia",
      "building": "construction",
      "fixme": "Verificar coordenadas",
      "note": "Sem setor ou quadra no bayface do IBGE 0500-0106P-0-169"
      },
      "geometry": {
         "type": "Point",
         "coordinates": [-38.157744,-9.673012]
      }
    },
    {
      "type": "Feature",
      "properties": { 
      "IBGE:COD_UNICO_ENDERECO": "192024309",
      "addr:housenumber": "16",
      "addr:postcode": "48604-514",
      "addr:street": "Saída Para Rodovia BR-110",
      "addr:suburb": "Baixa da Areia",
      "building": "yes",
      "fixme": "Verificar coordenadas",
      "note": "Sem setor ou quadra no bayface do IBGE 0500-0106P-0-177"
      },
      "geometry": {
         "type": "Point",
         "coordinates": [-38.185027,-9.648758]
      }
    }
  ]
}
