{
  "type": "FeatureCollection",
  "source": "IBGE CNEFE + Faces de Logradouros - 2022",
  "generator": "CSV-CNEFE2GeoJSON.lua 1.5.7 - fidelis.assis@gmail.com",
  "date": "2025-02-02T09:05:27-0300",
  "features": [
    {
      "type": "Feature",
      "properties": { 
      "IBGE:COD_UNICO_ENDERECO": "99118931",
      "addr:housenumber": "4 Bloco 02 Térreo Apartamento 04",
      "addr:postcode": "48604-564",
      "addr:street": "Rua A",
      "addr:suburb": "Moxotó",
      "building": "yes"
      },
      "geometry": {
         "type": "Point",
         "coordinates": [-38.2380073,-9.3732012]
      }
    },
    {
      "type": "Feature",
      "properties": { 
      "IBGE:COD_UNICO_ENDERECO": "192028789",
      "addr:housenumber": "361 B",
      "addr:postcode": "48604-500",
      "addr:street": "Avenida Moxotó",
      "addr:suburb": "Moxotó",
      "building": "yes",
      "fixme": "Verificar coordenadas",
      "note": "Muito afastado da face: 59m 0500-0175P-6-1"
      },
      "geometry": {
         "type": "Point",
         "coordinates": [-38.239637,-9.379852]
      }
    },
    {
      "type": "Feature",
      "properties": { 
      "IBGE:COD_UNICO_ENDERECO": "27363112",
      "addr:housenumber": "229",
      "addr:postcode": "48604-500",
      "addr:street": "Avenida Moxotó",
      "addr:suburb": "Moxotó",
      "building": "yes"
      },
      "geometry": {
         "type": "Point",
         "coordinates": [-38.2404027,-9.3787959]
      }
    },
    {
      "type": "Feature",
      "properties": { 
      "IBGE:COD_UNICO_ENDERECO": "27363115",
      "addr:housenumber": "433",
      "addr:postcode": "48604-500",
      "addr:street": "Avenida Moxotó",
      "addr:suburb": "Moxotó",
      "building": "yes"
      },
      "geometry": {
         "type": "Point",
         "coordinates": [-38.2401297,-9.3808721]
      }
    },
    {
      "type": "Feature",
      "properties": { 
      "IBGE:COD_UNICO_ENDERECO": "99118954",
      "addr:housenumber": "3 Bloco 07 Térreo Apartamento 03",
      "addr:postcode": "48604-564",
      "addr:street": "Rua A",
      "addr:suburb": "Moxotó",
      "building": "yes"
      },
      "geometry": {
         "type": "Point",
         "coordinates": [-38.2366863,-9.3724389]
      }
    },
    {
      "type": "Feature",
      "properties": { 
      "IBGE:COD_UNICO_ENDERECO": "192028831",
      "addr:housenumber": "2",
      "addr:postcode": "48604-500",
      "addr:street": "Avenida Moxotó",
      "addr:suburb": "Moxotó",
      "building": "yes"
      },
      "geometry": {
         "type": "Point",
         "coordinates": [-38.240638,-9.3768935]
      }
    },
    {
      "type": "Feature",
      "properties": { 
      "IBGE:COD_UNICO_ENDERECO": "192029110",
      "addr:housenumber": "30",
      "addr:postcode": "48604-502",
      "addr:street": "Rua Canavieiras",
      "addr:suburb": "Moxotó",
      "building": "yes"
      },
      "geometry": {
         "type": "Point",
         "coordinates": [-38.2398623,-9.3809735]
      }
    },
    {
      "type": "Feature",
      "properties": { 
      "IBGE:COD_UNICO_ENDERECO": "27363070",
      "addr:housenumber": "381",
      "addr:postcode": "48604-520",
      "addr:street": "Rua da Subestação",
      "addr:suburb": "Moxotó",
      "addr:unit": "Fundos",
      "building": "yes"
      },
      "geometry": {
         "type": "Point",
         "coordinates": [-38.2399988,-9.3806634]
      }
    },
    {
      "type": "Feature",
      "properties": { 
      "IBGE:COD_UNICO_ENDERECO": "192029095",
      "addr:housenumber": "4",
      "addr:postcode": "48604-502",
      "addr:street": "Rua Canavieiras",
      "addr:suburb": "Moxotó",
      "building": "yes"
      },
      "geometry": {
         "type": "Point",
         "coordinates": [-38.239672,-9.3808891]
      }
    },
    {
      "type": "Feature",
      "properties": { 
      "IBGE:COD_UNICO_ENDERECO": "27363072",
      "addr:housenumber": "11",
      "addr:postcode": "48604-520",
      "addr:street": "Rua da Subestação",
      "addr:suburb": "Moxotó",
      "building": "yes"
      },
      "geometry": {
         "type": "Point",
         "coordinates": [-38.2397556,-9.3804523]
      }
    },
    {
      "type": "Feature",
      "properties": { 
      "IBGE:COD_UNICO_ENDERECO": "27363106",
      "addr:housenumber": "169",
      "addr:postcode": "48604-500",
      "addr:street": "Avenida Moxotó",
      "addr:suburb": "Moxotó",
      "building": "yes"
      },
      "geometry": {
         "type": "Point",
         "coordinates": [-38.2406066,-9.3780834]
      }
    },
    {
      "type": "Feature",
      "properties": { 
      "IBGE:COD_UNICO_ENDERECO": "192029152",
      "addr:housenumber": "5",
      "addr:postcode": "48604-500",
      "addr:street": "Avenida Moxotó",
      "addr:suburb": "Moxotó",
      "building": "yes",
      "craft": "electronics_repair",
      "name": "Gabriel Cell Assistência Técnica e Acessórios"
      },
      "geometry": {
         "type": "Point",
         "coordinates": [-38.240122,-9.3807146]
      }
    },
    {
      "type": "Feature",
      "properties": { 
      "IBGE:COD_UNICO_ENDERECO": "99119035",
      "addr:housenumber": "4 Bloco 14 Térreo Apartamento 04",
      "addr:postcode": "48604-564",
      "addr:street": "Rua B",
      "addr:suburb": "Moxotó",
      "building": "yes"
      },
      "geometry": {
         "type": "Point",
         "coordinates": [-38.236636,-9.3722557]
      }
    },
    {
      "type": "Feature",
      "properties": { 
      "IBGE:COD_UNICO_ENDERECO": "99118946",
      "addr:housenumber": "3 Bloco 08 Térreo Apartamento 03",
      "addr:postcode": "48604-564",
      "addr:street": "Rua A",
      "addr:suburb": "Moxotó",
      "building": "yes"
      },
      "geometry": {
         "type": "Point",
         "coordinates": [-38.2364229,-9.372296]
      }
    },
    {
      "type": "Feature",
      "properties": { 
      "IBGE:COD_UNICO_ENDERECO": "99119006",
      "addr:housenumber": "10 Bloco 10 Térreo Apartamento 02",
      "addr:postcode": "48604-564",
      "addr:street": "Rua B",
      "addr:suburb": "Moxotó",
      "building": "yes"
      },
      "geometry": {
         "type": "Point",
         "coordinates": [-38.2375118,-9.372716]
      }
    },
    {
      "type": "Feature",
      "properties": { 
      "IBGE:COD_UNICO_ENDERECO": "192028878",
      "addr:housenumber": "1",
      "addr:postcode": "48604-525",
      "addr:street": "Rua Gongonhas",
      "addr:suburb": "Moxotó",
      "addr:unit": "1",
      "building": "yes"
      },
      "geometry": {
         "type": "Point",
         "coordinates": [-38.2400975,-9.3762677]
      }
    },
    {
      "type": "Feature",
      "properties": { 
      "IBGE:COD_UNICO_ENDERECO": "27363122",
      "addr:housenumber": "325",
      "addr:postcode": "48604-500",
      "addr:street": "Avenida Moxotó",
      "addr:suburb": "Moxotó",
      "building": "yes"
      },
      "geometry": {
         "type": "Point",
         "coordinates": [-38.2401947,-9.3795566]
      }
    },
    {
      "type": "Feature",
      "properties": { 
      "IBGE:COD_UNICO_ENDERECO": "27363076",
      "addr:housenumber": "4",
      "addr:postcode": "48604-520",
      "addr:street": "Rua da Subestação",
      "addr:suburb": "Moxotó",
      "building": "yes"
      },
      "geometry": {
         "type": "Point",
         "coordinates": [-38.2384024,-9.377016]
      }
    },
    {
      "type": "Feature",
      "properties": { 
      "IBGE:COD_UNICO_ENDERECO": "192029078",
      "addr:housenumber": "20",
      "addr:postcode": "48604-502",
      "addr:street": "Rua Canavieiras",
      "addr:suburb": "Moxotó",
      "building": "yes"
      },
      "geometry": {
         "type": "Point",
         "coordinates": [-38.2394606,-9.3808437]
      }
    },
    {
      "type": "Feature",
      "properties": { 
      "IBGE:COD_UNICO_ENDERECO": "192028969",
      "addr:housenumber": "5",
      "addr:postcode": "48604-508",
      "addr:street": "Rua Canudos",
      "addr:suburb": "Moxotó",
      "building": "yes"
      },
      "geometry": {
         "type": "Point",
         "coordinates": [-38.2399195,-9.3771082]
      }
    },
    {
      "type": "Feature",
      "properties": { 
      "IBGE:COD_UNICO_ENDERECO": "99118943",
      "addr:housenumber": "1 Bloco 01 Térreo Apartamento 01",
      "addr:postcode": "48604-564",
      "addr:street": "Rua A",
      "addr:suburb": "Moxotó",
      "building": "yes"
      },
      "geometry": {
         "type": "Point",
         "coordinates": [-38.2382516,-9.3733607]
      }
    },
    {
      "type": "Feature",
      "properties": { 
      "IBGE:COD_UNICO_ENDERECO": "192029203",
      "addr:housenumber": "467",
      "addr:postcode": "48604-500",
      "addr:street": "Avenida Moxotó",
      "addr:suburb": "Moxotó",
      "building": "construction"
      },
      "geometry": {
         "type": "Point",
         "coordinates": [-38.2401762,-9.3813056]
      }
    },
    {
      "type": "Feature",
      "properties": { 
      "IBGE:COD_UNICO_ENDERECO": "99118942",
      "addr:housenumber": "2 Bloco 01 Térreo Apartamento 02",
      "addr:postcode": "48604-564",
      "addr:street": "Rua A",
      "addr:suburb": "Moxotó",
      "building": "yes"
      },
      "geometry": {
         "type": "Point",
         "coordinates": [-38.2382923,-9.373342]
      }
    },
    {
      "type": "Feature",
      "properties": { 
      "IBGE:COD_UNICO_ENDERECO": "99118983",
      "addr:housenumber": "1 Bloco 04 Térreo Apartamento 01",
      "addr:postcode": "48604-564",
      "addr:street": "Rua A",
      "addr:suburb": "Moxotó",
      "building": "yes"
      },
      "geometry": {
         "type": "Point",
         "coordinates": [-38.2374572,-9.3728569]
      }
    },
    {
      "type": "Feature",
      "properties": { 
      "IBGE:COD_UNICO_ENDERECO": "99119055",
      "addr:housenumber": "1 Bloco 18 Térreo Apartamento 01",
      "addr:postcode": "48604-564",
      "addr:street": "Rua B",
      "addr:suburb": "Moxotó",
      "building": "yes"
      },
      "geometry": {
         "type": "Point",
         "coordinates": [-38.2370021,-9.3722267]
      }
    },
    {
      "type": "Feature",
      "properties": { 
      "IBGE:COD_UNICO_ENDERECO": "27363108",
      "addr:housenumber": "167",
      "addr:postcode": "48604-500",
      "addr:street": "Avenida Moxotó",
      "addr:suburb": "Moxotó",
      "building": "yes"
      },
      "geometry": {
         "type": "Point",
         "coordinates": [-38.2405662,-9.3782247]
      }
    },
    {
      "type": "Feature",
      "properties": { 
      "IBGE:COD_UNICO_ENDERECO": "27363067",
      "addr:housenumber": "133",
      "addr:postcode": "48604-525",
      "addr:street": "Rua Gongonhas",
      "addr:suburb": "Moxotó",
      "building": "yes",
      "name": "Clube Social Paulo Afonso Cspa"
      },
      "geometry": {
         "type": "Point",
         "coordinates": [-38.2393841,-9.3758894]
      }
    },
    {
      "type": "Feature",
      "properties": { 
      "IBGE:COD_UNICO_ENDERECO": "192028987",
      "addr:housenumber": "53",
      "addr:postcode": "48604-508",
      "addr:street": "Rua Canudos",
      "addr:suburb": "Moxotó",
      "building": "yes"
      },
      "geometry": {
         "type": "Point",
         "coordinates": [-38.2399909,-9.3778242]
      }
    },
    {
      "type": "Feature",
      "properties": { 
      "IBGE:COD_UNICO_ENDERECO": "27363117",
      "addr:housenumber": "295",
      "addr:postcode": "48604-500",
      "addr:street": "Avenida Moxotó",
      "addr:suburb": "Moxotó",
      "building": "yes"
      },
      "geometry": {
         "type": "Point",
         "coordinates": [-38.2402796,-9.3792536]
      }
    },
    {
      "type": "Feature",
      "properties": { 
      "IBGE:COD_UNICO_ENDERECO": "27363077",
      "addr:housenumber": "6",
      "addr:postcode": "48604-520",
      "addr:street": "Rua da Subestação",
      "addr:suburb": "Moxotó",
      "building": "yes"
      },
      "geometry": {
         "type": "Point",
         "coordinates": [-38.2396123,-9.3803566]
      }
    },
    {
      "type": "Feature",
      "properties": { 
      "IBGE:COD_UNICO_ENDERECO": "192028801",
      "addr:housenumber": "295",
      "addr:postcode": "48604-500",
      "addr:street": "Avenida Moxotó",
      "addr:suburb": "Moxotó",
      "building": "yes",
      "name": "Mercadinho Imperial",
      "shop": "convenience"
      },
      "geometry": {
         "type": "Point",
         "coordinates": [-38.2402583,-9.3793308]
      }
    },
    {
      "type": "Feature",
      "properties": { 
      "IBGE:COD_UNICO_ENDERECO": "27363152",
      "addr:housenumber": "200",
      "addr:postcode": "48604-520",
      "addr:street": "Rua da Subestação",
      "addr:suburb": "Moxotó",
      "addr:unit": "Fundos",
      "building": "yes"
      },
      "geometry": {
         "type": "Point",
         "coordinates": [-38.2381055,-9.3764385]
      }
    },
    {
      "type": "Feature",
      "properties": { 
      "IBGE:COD_UNICO_ENDERECO": "27363101",
      "addr:housenumber": "99 Térreo",
      "addr:postcode": "48604-500",
      "addr:street": "Avenida Moxotó",
      "addr:suburb": "Moxotó",
      "building": "yes"
      },
      "geometry": {
         "type": "Point",
         "coordinates": [-38.2406973,-9.377592]
      }
    },
    {
      "type": "Feature",
      "properties": { 
      "IBGE:COD_UNICO_ENDERECO": "27363052",
      "addr:housenumber": "3",
      "addr:postcode": "48604-502",
      "addr:street": "Rua Canavieiras",
      "addr:suburb": "Moxotó",
      "building": "yes"
      },
      "geometry": {
         "type": "Point",
         "coordinates": [-38.2398884,-9.3811308]
      }
    },
    {
      "type": "Feature",
      "properties": { 
      "IBGE:COD_UNICO_ENDERECO": "99119041;99119057",
      "addr:housenumber": "7",
      "addr:postcode": "48604-564",
      "addr:street": "Rua B",
      "addr:suburb": "Moxotó",
      "building": "yes"
      },
      "geometry": {
         "type": "Point",
         "coordinates": [-38.2368811,-9.3721609]
      }
    },
    {
      "type": "Feature",
      "properties": { 
      "IBGE:COD_UNICO_ENDERECO": "192029067",
      "addr:housenumber": "141",
      "addr:postcode": "48604-518",
      "addr:street": "Rua Natividade",
      "addr:suburb": "Moxotó",
      "building": "yes"
      },
      "geometry": {
         "type": "Point",
         "coordinates": [-38.2387163,-9.3774473]
      }
    },
    {
      "type": "Feature",
      "properties": { 
      "IBGE:COD_UNICO_ENDERECO": "192029167",
      "addr:housenumber": "581",
      "addr:postcode": "48604-500",
      "addr:street": "Avenida Moxotó",
      "addr:suburb": "Moxotó",
      "building": "yes",
      "name": "Center Laje Materiais para Construção e Pré-Moldados",
      "shop": "hardware"
      },
      "geometry": {
         "type": "Point",
         "coordinates": [-38.2396091,-9.3828763]
      }
    },
    {
      "type": "Feature",
      "properties": { 
      "IBGE:COD_UNICO_ENDERECO": "27363125",
      "addr:housenumber": "361",
      "addr:postcode": "48604-500",
      "addr:street": "Avenida Moxotó",
      "addr:suburb": "Moxotó",
      "building": "yes",
      "fixme": "Verificar coordenadas",
      "note": "Muito afastado da face: 64m 0500-0175P-6-1"
      },
      "geometry": {
         "type": "Point",
         "coordinates": [-38.23959,-9.379848]
      }
    },
    {
      "type": "Feature",
      "properties": { 
      "IBGE:COD_UNICO_ENDERECO": "27363124",
      "addr:housenumber": "351",
      "addr:postcode": "48604-500",
      "addr:street": "Avenida Moxotó",
      "addr:suburb": "Moxotó",
      "amenity": "place_of_worship",
      "building": "church",
      "denomination": "protestant",
      "name": "Igreja Batista Nacional Jeová Tsidkenu",
      "religion": "christian"
      },
      "geometry": {
         "type": "Point",
         "coordinates": [-38.2401388,-9.3797662]
      }
    },
    {
      "type": "Feature",
      "properties": { 
      "IBGE:COD_UNICO_ENDERECO": "99118938",
      "addr:housenumber": "3 Bloco 01 Térreo Apartamento 03",
      "addr:postcode": "48604-564",
      "addr:street": "Rua A",
      "addr:suburb": "Moxotó",
      "building": "yes"
      },
      "geometry": {
         "type": "Point",
         "coordinates": [-38.2381455,-9.3732706]
      }
    },
    {
      "type": "Feature",
      "properties": { 
      "IBGE:COD_UNICO_ENDERECO": "27363130",
      "addr:housenumber": "41",
      "addr:postcode": "48604-518",
      "addr:street": "Rua Natividade",
      "addr:suburb": "Moxotó",
      "building": "yes"
      },
      "geometry": {
         "type": "Point",
         "coordinates": [-38.2402534,-9.3768319]
      }
    },
    {
      "type": "Feature",
      "properties": { 
      "IBGE:COD_UNICO_ENDERECO": "27363135",
      "addr:housenumber": "128",
      "addr:postcode": "48604-525",
      "addr:street": "Rua Gongonhas",
      "addr:suburb": "Moxotó",
      "addr:unit": "Entrada",
      "building": "yes"
      },
      "geometry": {
         "type": "Point",
         "coordinates": [-38.239826,-9.3760127]
      }
    },
    {
      "type": "Feature",
      "properties": { 
      "IBGE:COD_UNICO_ENDERECO": "27363113",
      "addr:housenumber": "439",
      "addr:postcode": "48604-500",
      "addr:street": "Avenida Moxotó",
      "addr:suburb": "Moxotó",
      "building": "yes"
      },
      "geometry": {
         "type": "Point",
         "coordinates": [-38.2401696,-9.3810308]
      }
    },
    {
      "type": "Feature",
      "properties": { 
      "IBGE:COD_UNICO_ENDERECO": "27363088",
      "addr:housenumber": "7",
      "addr:postcode": "48604-520",
      "addr:street": "Rua Subestação",
      "addr:suburb": "Moxotó",
      "building": "yes"
      },
      "geometry": {
         "type": "Point",
         "coordinates": [-38.2385406,-9.3767809]
      }
    },
    {
      "type": "Feature",
      "properties": { 
      "IBGE:COD_UNICO_ENDERECO": "192029074",
      "addr:housenumber": "15",
      "addr:postcode": "48604-502",
      "addr:street": "Rua Canavieiras",
      "addr:suburb": "Moxotó",
      "building": "yes"
      },
      "geometry": {
         "type": "Point",
         "coordinates": [-38.2396664,-9.3805419]
      }
    },
    {
      "type": "Feature",
      "properties": { 
      "IBGE:COD_UNICO_ENDERECO": "27363081",
      "addr:housenumber": "68",
      "addr:postcode": "48604-518",
      "addr:street": "Rua Natividade",
      "addr:suburb": "Moxotó",
      "building": "yes"
      },
      "geometry": {
         "type": "Point",
         "coordinates": [-38.239498,-9.3772869]
      }
    },
    {
      "type": "Feature",
      "properties": { 
      "IBGE:COD_UNICO_ENDERECO": "192029054",
      "addr:housenumber": "131",
      "addr:postcode": "48604-518",
      "addr:street": "Rua Natividade",
      "addr:suburb": "Moxotó",
      "building": "yes"
      },
      "geometry": {
         "type": "Point",
         "coordinates": [-38.239266,-9.3773345]
      }
    },
    {
      "type": "Feature",
      "properties": { 
      "IBGE:COD_UNICO_ENDERECO": "27363147",
      "addr:housenumber": "13",
      "addr:postcode": "48604-520",
      "addr:street": "Rua da Subestação",
      "addr:suburb": "Moxotó",
      "building": "yes"
      },
      "geometry": {
         "type": "Point",
         "coordinates": [-38.2383849,-9.3768898]
      }
    },
    {
      "type": "Feature",
      "properties": { 
      "IBGE:COD_UNICO_ENDERECO": "27363080",
      "addr:housenumber": "128 B",
      "addr:postcode": "48604-518",
      "addr:street": "Rua Natividade",
      "addr:suburb": "Moxotó",
      "building": "construction"
      },
      "geometry": {
         "type": "Point",
         "coordinates": [-38.2396409,-9.3772576]
      }
    },
    {
      "type": "Feature",
      "properties": { 
      "IBGE:COD_UNICO_ENDERECO": "27363074",
      "addr:housenumber": "14",
      "addr:postcode": "48604-502",
      "addr:street": "Rua Canavieiras",
      "addr:suburb": "Moxotó",
      "building": "yes"
      },
      "geometry": {
         "type": "Point",
         "coordinates": [-38.2396434,-9.3805806]
      }
    },
    {
      "type": "Feature",
      "properties": { 
      "IBGE:COD_UNICO_ENDERECO": "27363128",
      "addr:housenumber": "14",
      "addr:postcode": "48604-520",
      "addr:street": "Rua Subestação",
      "addr:suburb": "Moxotó",
      "building": "yes"
      },
      "geometry": {
         "type": "Point",
         "coordinates": [-38.2385867,-9.3770535]
      }
    },
    {
      "type": "Feature",
      "properties": { 
      "IBGE:COD_UNICO_ENDERECO": "192029128",
      "addr:housenumber": "50",
      "addr:postcode": "48604-502",
      "addr:street": "Rua Canavieiras",
      "addr:suburb": "Moxotó",
      "addr:unit": "1",
      "building": "construction"
      },
      "geometry": {
         "type": "Point",
         "coordinates": [-38.2396893,-9.380897]
      }
    },
    {
      "type": "Feature",
      "properties": { 
      "IBGE:COD_UNICO_ENDERECO": "27363119",
      "addr:housenumber": "18 B",
      "addr:postcode": "48604-520",
      "addr:street": "Rua Subestação",
      "addr:suburb": "Moxotó",
      "building": "yes"
      },
      "geometry": {
         "type": "Point",
         "coordinates": [-38.2385987,-9.377237]
      }
    },
    {
      "type": "Feature",
      "properties": { 
      "IBGE:COD_UNICO_ENDERECO": "27363142",
      "addr:housenumber": "20",
      "addr:postcode": "48604-520",
      "addr:street": "Rua da Subestação",
      "addr:suburb": "Moxotó",
      "building": "yes"
      },
      "geometry": {
         "type": "Point",
         "coordinates": [-38.2381937,-9.3785326]
      }
    },
    {
      "type": "Feature",
      "properties": { 
      "IBGE:COD_UNICO_ENDERECO": "27363110",
      "addr:housenumber": "209",
      "addr:postcode": "48604-500",
      "addr:street": "Avenida Moxotó",
      "addr:suburb": "Moxotó",
      "building": "yes"
      },
      "geometry": {
         "type": "Point",
         "coordinates": [-38.2404553,-9.378612]
      }
    },
    {
      "type": "Feature",
      "properties": { 
      "IBGE:COD_UNICO_ENDERECO": "99118986",
      "addr:housenumber": "3 Bloco 03 Térreo Apartamento 03",
      "addr:postcode": "48604-564",
      "addr:street": "Rua A",
      "addr:suburb": "Moxotó",
      "building": "yes"
      },
      "geometry": {
         "type": "Point",
         "coordinates": [-38.2376343,-9.3729529]
      }
    },
    {
      "type": "Feature",
      "properties": { 
      "IBGE:COD_UNICO_ENDERECO": "27363092",
      "addr:housenumber": "39",
      "addr:postcode": "48604-500",
      "addr:street": "Avenida Moxotó",
      "addr:suburb": "Moxotó",
      "building": "yes"
      },
      "geometry": {
         "type": "Point",
         "coordinates": [-38.240638,-9.3768937]
      }
    },
    {
      "type": "Feature",
      "properties": { 
      "IBGE:COD_UNICO_ENDERECO": "27363100",
      "addr:housenumber": "87",
      "addr:postcode": "48604-500",
      "addr:street": "Avenida Moxotó",
      "addr:suburb": "Moxotó",
      "building": "yes"
      },
      "geometry": {
         "type": "Point",
         "coordinates": [-38.2406971,-9.3775181]
      }
    },
    {
      "type": "Feature",
      "properties": { 
      "IBGE:COD_UNICO_ENDERECO": "27363134",
      "addr:housenumber": "300 A",
      "addr:postcode": "48604-520",
      "addr:street": "Rua Subestação",
      "addr:suburb": "Moxotó",
      "building": "yes"
      },
      "geometry": {
         "type": "Point",
         "coordinates": [-38.2385069,-9.3766872]
      }
    },
    {
      "type": "Feature",
      "properties": { 
      "IBGE:COD_UNICO_ENDERECO": "27363131",
      "addr:housenumber": "9",
      "addr:postcode": "48604-518",
      "addr:street": "Rua Natividade",
      "addr:suburb": "Moxotó",
      "building": "yes"
      },
      "geometry": {
         "type": "Point",
         "coordinates": [-38.2398686,-9.3767594]
      }
    },
    {
      "type": "Feature",
      "properties": { 
      "IBGE:COD_UNICO_ENDERECO": "99118978",
      "addr:housenumber": "3 Bloco 04 Térreo Apartamento 03",
      "addr:postcode": "48604-564",
      "addr:street": "Rua A",
      "addr:suburb": "Moxotó",
      "building": "yes"
      },
      "geometry": {
         "type": "Point",
         "coordinates": [-38.2373987,-9.3728251]
      }
    },
    {
      "type": "Feature",
      "properties": { 
      "IBGE:COD_UNICO_ENDERECO": "99119045",
      "addr:housenumber": "6",
      "addr:postcode": "48604-564",
      "addr:street": "Rua B",
      "addr:suburb": "Moxotó",
      "building": "yes"
      },
      "geometry": {
         "type": "Point",
         "coordinates": [-38.2367928,-9.3721128]
      }
    },
    {
      "type": "Feature",
      "properties": { 
      "IBGE:COD_UNICO_ENDERECO": "99118944;99118953;99118961;99118969;99118977;99118985",
      "addr:housenumber": "7",
      "addr:postcode": "48604-564",
      "addr:street": "Rua A",
      "addr:suburb": "Moxotó",
      "building": "yes"
      },
      "geometry": {
         "type": "Point",
         "coordinates": [-38.2370347,-9.3726278]
      }
    },
    {
      "type": "Feature",
      "properties": { 
      "IBGE:COD_UNICO_ENDERECO": "27363138",
      "addr:housenumber": "89",
      "addr:postcode": "48604-520",
      "addr:street": "Rua da Subestação",
      "addr:suburb": "Moxotó",
      "building": "yes"
      },
      "geometry": {
         "type": "Point",
         "coordinates": [-38.2381906,-9.3792674]
      }
    },
    {
      "type": "Feature",
      "properties": { 
      "IBGE:COD_UNICO_ENDERECO": "99118955",
      "addr:housenumber": "4 Bloco 07 Térreo Apartamento 04",
      "addr:postcode": "48604-564",
      "addr:street": "Rua A",
      "addr:suburb": "Moxotó",
      "building": "yes"
      },
      "geometry": {
         "type": "Point",
         "coordinates": [-38.2366566,-9.3724228]
      }
    },
    {
      "type": "Feature",
      "properties": { 
      "IBGE:COD_UNICO_ENDERECO": "27363114",
      "addr:housenumber": "261",
      "addr:postcode": "48604-500",
      "addr:street": "Avenida Moxotó",
      "addr:suburb": "Moxotó",
      "building": "yes"
      },
      "geometry": {
         "type": "Point",
         "coordinates": [-38.240394,-9.3788265]
      }
    },
    {
      "type": "Feature",
      "properties": { 
      "IBGE:COD_UNICO_ENDERECO": "192029148",
      "addr:housenumber": "4",
      "addr:postcode": "48604-500",
      "addr:street": "Avenida Moxotó",
      "addr:suburb": "Moxotó",
      "building": "yes",
      "name": "Marcilene Multimarcas"
      },
      "geometry": {
         "type": "Point",
         "coordinates": [-38.2401216,-9.3807065]
      }
    },
    {
      "type": "Feature",
      "properties": { 
      "IBGE:COD_UNICO_ENDERECO": "192029085",
      "addr:housenumber": "21",
      "addr:postcode": "48604-502",
      "addr:street": "Rua Canavieiras",
      "addr:suburb": "Moxotó",
      "building": "yes"
      },
      "geometry": {
         "type": "Point",
         "coordinates": [-38.2395466,-9.3808322]
      }
    },
    {
      "type": "Feature",
      "properties": { 
      "IBGE:COD_UNICO_ENDERECO": "27363123",
      "addr:housenumber": "341",
      "addr:postcode": "48604-500",
      "addr:street": "Avenida Moxotó",
      "addr:suburb": "Moxotó",
      "building": "yes"
      },
      "geometry": {
         "type": "Point",
         "coordinates": [-38.2401589,-9.3796786]
      }
    },
    {
      "type": "Feature",
      "properties": { 
      "IBGE:COD_UNICO_ENDERECO": "27363082",
      "addr:housenumber": "137",
      "addr:postcode": "48604-518",
      "addr:street": "Rua Natividade",
      "addr:suburb": "Moxotó",
      "building": "construction"
      },
      "geometry": {
         "type": "Point",
         "coordinates": [-38.2392386,-9.3773402]
      }
    },
    {
      "type": "Feature",
      "properties": { 
      "IBGE:COD_UNICO_ENDERECO": "192028971",
      "addr:housenumber": "7",
      "addr:postcode": "48604-508",
      "addr:street": "Rua Canudos",
      "addr:suburb": "Moxotó",
      "building": "yes"
      },
      "geometry": {
         "type": "Point",
         "coordinates": [-38.239929,-9.3772034]
      }
    },
    {
      "type": "Feature",
      "properties": { 
      "IBGE:COD_UNICO_ENDERECO": "99119024;99119032",
      "addr:housenumber": "8",
      "addr:postcode": "48604-564",
      "addr:street": "Rua B",
      "addr:suburb": "Moxotó",
      "building": "yes"
      },
      "geometry": {
         "type": "Point",
         "coordinates": [-38.2367379,-9.3723092]
      }
    },
    {
      "type": "Feature",
      "properties": { 
      "IBGE:COD_UNICO_ENDERECO": "99118932;99118940",
      "addr:housenumber": "5",
      "addr:postcode": "48604-564",
      "addr:street": "Rua A",
      "addr:suburb": "Moxotó",
      "building": "yes"
      },
      "geometry": {
         "type": "Point",
         "coordinates": [-38.2381465,-9.3732714]
      }
    },
    {
      "type": "Feature",
      "properties": { 
      "IBGE:COD_UNICO_ENDERECO": "27363079",
      "addr:housenumber": "128 A",
      "addr:postcode": "48604-518",
      "addr:street": "Rua Natividade",
      "addr:suburb": "Moxotó",
      "building": "construction"
      },
      "geometry": {
         "type": "Point",
         "coordinates": [-38.2396695,-9.3772518]
      }
    },
    {
      "type": "Feature",
      "properties": { 
      "IBGE:COD_UNICO_ENDERECO": "192028942",
      "addr:housenumber": "300 A 1",
      "addr:postcode": "48604-520",
      "addr:street": "Rua Subestação",
      "addr:suburb": "Moxotó",
      "building": "yes"
      },
      "geometry": {
         "type": "Point",
         "coordinates": [-38.2385131,-9.3767043]
      }
    },
    {
      "type": "Feature",
      "properties": { 
      "IBGE:COD_UNICO_ENDERECO": "192029113",
      "addr:housenumber": "2",
      "addr:postcode": "48604-502",
      "addr:street": "Rua Canavieiras",
      "addr:suburb": "Moxotó",
      "building": "yes"
      },
      "geometry": {
         "type": "Point",
         "coordinates": [-38.2398235,-9.380958]
      }
    },
    {
      "type": "Feature",
      "properties": { 
      "IBGE:COD_UNICO_ENDERECO": "99119018",
      "addr:housenumber": "3 Bloco 12 Térreo Apartamento 03",
      "addr:postcode": "48604-564",
      "addr:street": "Rua B",
      "addr:suburb": "Moxotó",
      "building": "yes"
      },
      "geometry": {
         "type": "Point",
         "coordinates": [-38.2370799,-9.372489]
      }
    },
    {
      "type": "Feature",
      "properties": { 
      "IBGE:COD_UNICO_ENDERECO": "27363061",
      "addr:housenumber": "125",
      "addr:postcode": "48604-518",
      "addr:street": "Rua Natividade",
      "addr:suburb": "Moxotó",
      "addr:unit": "Entrada",
      "building": "yes"
      },
      "geometry": {
         "type": "Point",
         "coordinates": [-38.2395478,-9.3772767]
      }
    },
    {
      "type": "Feature",
      "properties": { 
      "IBGE:COD_UNICO_ENDERECO": "99118966",
      "addr:housenumber": "2 Bloco 06 Térreo Apartamento 02",
      "addr:postcode": "48604-564",
      "addr:street": "Rua A",
      "addr:suburb": "Moxotó",
      "building": "yes"
      },
      "geometry": {
         "type": "Point",
         "coordinates": [-38.2369787,-9.3725974]
      }
    },
    {
      "type": "Feature",
      "properties": { 
      "IBGE:COD_UNICO_ENDERECO": "27363060",
      "addr:housenumber": "129",
      "addr:postcode": "48604-518",
      "addr:street": "Rua Natividade",
      "addr:suburb": "Moxotó",
      "building": "yes"
      },
      "geometry": {
         "type": "Point",
         "coordinates": [-38.2393544,-9.3773164]
      }
    },
    {
      "type": "Feature",
      "properties": { 
      "IBGE:COD_UNICO_ENDERECO": "99118982",
      "addr:housenumber": "2 Bloco 04 Térreo Apartamento 02",
      "addr:postcode": "48604-564",
      "addr:street": "Rua A",
      "addr:suburb": "Moxotó",
      "building": "yes"
      },
      "geometry": {
         "type": "Point",
         "coordinates": [-38.2374595,-9.3728581]
      }
    },
    {
      "type": "Feature",
      "properties": { 
      "IBGE:COD_UNICO_ENDERECO": "99118949;99118957;99118973;99118981;99118989",
      "addr:housenumber": "6",
      "addr:postcode": "48604-564",
      "addr:street": "Rua A",
      "addr:suburb": "Moxotó",
      "building": "yes"
      },
      "geometry": {
         "type": "Point",
         "coordinates": [-38.2370663,-9.3726449]
      }
    },
    {
      "type": "Feature",
      "properties": { 
      "IBGE:COD_UNICO_ENDERECO": "27363075",
      "addr:housenumber": "16",
      "addr:postcode": "48604-502",
      "addr:street": "Rua Canavieiras",
      "addr:suburb": "Moxotó",
      "building": "yes"
      },
      "geometry": {
         "type": "Point",
         "coordinates": [-38.2395065,-9.3805641]
      }
    },
    {
      "type": "Feature",
      "properties": { 
      "IBGE:COD_UNICO_ENDERECO": "99119096",
      "addr:housenumber": "8",
      "addr:postcode": "48604-564",
      "addr:street": "Rua C",
      "addr:suburb": "Moxotó",
      "building": "yes"
      },
      "geometry": {
         "type": "Point",
         "coordinates": [-38.2374231,-9.3720967]
      }
    },
    {
      "type": "Feature",
      "properties": { 
      "IBGE:COD_UNICO_ENDERECO": "27363107",
      "addr:housenumber": "155",
      "addr:postcode": "48604-500",
      "addr:street": "Avenida Moxotó",
      "addr:suburb": "Moxotó",
      "building": "yes"
      },
      "geometry": {
         "type": "Point",
         "coordinates": [-38.2405845,-9.3781606]
      }
    },
    {
      "type": "Feature",
      "properties": { 
      "IBGE:COD_UNICO_ENDERECO": "27363065",
      "addr:housenumber": "250",
      "addr:postcode": "48604-518",
      "addr:street": "Rua Natividade",
      "addr:suburb": "Moxotó",
      "addr:unit": "1",
      "building": "yes"
      },
      "geometry": {
         "type": "Point",
         "coordinates": [-38.2386968,-9.3772935]
      }
    },
    {
      "type": "Feature",
      "properties": { 
      "IBGE:COD_UNICO_ENDERECO": "27363133",
      "addr:housenumber": "16",
      "addr:postcode": "48604-518",
      "addr:street": "Rua Natividade",
      "addr:suburb": "Moxotó",
      "building": "construction"
      },
      "geometry": {
         "type": "Point",
         "coordinates": [-38.2390565,-9.3772203]
      }
    },
    {
      "type": "Feature",
      "properties": { 
      "IBGE:COD_UNICO_ENDERECO": "27363073",
      "addr:housenumber": "381",
      "addr:postcode": "48604-520",
      "addr:street": "Rua da Subestação",
      "addr:suburb": "Moxotó",
      "building": "yes"
      },
      "geometry": {
         "type": "Point",
         "coordinates": [-38.240029,-9.3806184]
      }
    },
    {
      "type": "Feature",
      "properties": { 
      "IBGE:COD_UNICO_ENDERECO": "99118994",
      "addr:housenumber": "3 Bloco 09 Térreo Apartamento 03",
      "addr:postcode": "48604-564",
      "addr:street": "Rua B",
      "addr:suburb": "Moxotó",
      "building": "yes"
      },
      "geometry": {
         "type": "Point",
         "coordinates": [-38.2375627,-9.3727428]
      }
    },
    {
      "type": "Feature",
      "properties": { 
      "IBGE:COD_UNICO_ENDERECO": "27363056",
      "addr:housenumber": "126",
      "addr:postcode": "48604-518",
      "addr:street": "Rua Natividade",
      "addr:suburb": "Moxotó",
      "building": "yes"
      },
      "geometry": {
         "type": "Point",
         "coordinates": [-38.2396444,-9.3771007]
      }
    },
    {
      "type": "Feature",
      "properties": { 
      "IBGE:COD_UNICO_ENDERECO": "192028796",
      "addr:housenumber": "3",
      "addr:postcode": "48604-500",
      "addr:street": "Avenida Moxotó",
      "addr:suburb": "Moxotó",
      "addr:unit": "1",
      "disused:building": "yes",
      "disused:healthcare": "yes",
      "old_name": "Vago Bem Estar Clínica e Laboratório"
      },
      "geometry": {
         "type": "Point",
         "coordinates": [-38.240128,-9.379826]
      }
    },
    {
      "type": "Feature",
      "properties": { 
      "IBGE:COD_UNICO_ENDERECO": "27363071",
      "addr:housenumber": "2 A",
      "addr:postcode": "48604-520",
      "addr:street": "Rua da Subestação",
      "addr:suburb": "Moxotó",
      "building": "industrial",
      "man_made": "works",
      "name": "Fábrica de Gesso"
      },
      "geometry": {
         "type": "Point",
         "coordinates": [-38.2399255,-9.3805578]
      }
    },
    {
      "type": "Feature",
      "properties": { 
      "IBGE:COD_UNICO_ENDERECO": "192028792",
      "addr:housenumber": "3",
      "addr:postcode": "48604-500",
      "addr:street": "Avenida Moxotó",
      "addr:suburb": "Moxotó",
      "building": "construction"
      },
      "geometry": {
         "type": "Point",
         "coordinates": [-38.2401022,-9.3800084]
      }
    },
    {
      "type": "Feature",
      "properties": { 
      "IBGE:COD_UNICO_ENDERECO": "192029064",
      "addr:housenumber": "139",
      "addr:postcode": "48604-518",
      "addr:street": "Rua Natividade",
      "addr:suburb": "Moxotó",
      "building": "yes"
      },
      "geometry": {
         "type": "Point",
         "coordinates": [-38.2388014,-9.3774299]
      }
    },
    {
      "type": "Feature",
      "properties": { 
      "IBGE:COD_UNICO_ENDERECO": "27363086",
      "addr:housenumber": "69",
      "addr:postcode": "48604-518",
      "addr:street": "Rua Natividade",
      "addr:suburb": "Moxotó",
      "building": "construction"
      },
      "geometry": {
         "type": "Point",
         "coordinates": [-38.2393071,-9.3773261]
      }
    },
    {
      "type": "Feature",
      "properties": { 
      "IBGE:COD_UNICO_ENDERECO": "27363084",
      "addr:housenumber": "73",
      "addr:postcode": "48604-518",
      "addr:street": "Rua Natividade",
      "addr:suburb": "Moxotó",
      "building": "construction"
      },
      "geometry": {
         "type": "Point",
         "coordinates": [-38.2390549,-9.3773778]
      }
    },
    {
      "type": "Feature",
      "properties": { 
      "IBGE:COD_UNICO_ENDERECO": "27363058",
      "addr:housenumber": "48 Sobrado",
      "addr:postcode": "48604-508",
      "addr:street": "Rua Canudos",
      "addr:suburb": "Moxotó",
      "building": "construction"
      },
      "geometry": {
         "type": "Point",
         "coordinates": [-38.2399423,-9.3773373]
      }
    },
    {
      "type": "Feature",
      "properties": { 
      "IBGE:COD_UNICO_ENDERECO": "27363063",
      "addr:housenumber": "176",
      "addr:postcode": "48604-518",
      "addr:street": "Rua Natividade",
      "addr:suburb": "Moxotó",
      "addr:unit": "2 Entrada",
      "building": "yes"
      },
      "geometry": {
         "type": "Point",
         "coordinates": [-38.2388383,-9.3772647]
      }
    },
    {
      "type": "Feature",
      "properties": { 
      "IBGE:COD_UNICO_ENDERECO": "192028919",
      "addr:housenumber": "300",
      "addr:postcode": "48604-525",
      "addr:street": "Rua Gongonhas",
      "addr:suburb": "Moxotó",
      "building": "yes",
      "name": "Helle Estúdio de Beleza",
      "shop": "beauty"
      },
      "geometry": {
         "type": "Point",
         "coordinates": [-38.238475,-9.3761444]
      }
    },
    {
      "type": "Feature",
      "properties": { 
      "IBGE:COD_UNICO_ENDERECO": "192028858",
      "addr:housenumber": "44",
      "addr:postcode": "48604-518",
      "addr:street": "Rua Natividade",
      "addr:suburb": "Moxotó",
      "building": "yes"
      },
      "geometry": {
         "type": "Point",
         "coordinates": [-38.2400813,-9.3768651]
      }
    },
    {
      "type": "Feature",
      "properties": { 
      "IBGE:COD_UNICO_ENDERECO": "192028993",
      "addr:housenumber": "8",
      "addr:postcode": "48604-508",
      "addr:street": "Rua Canudos",
      "addr:suburb": "Moxotó",
      "building": "yes"
      },
      "geometry": {
         "type": "Point",
         "coordinates": [-38.2401028,-9.3779413]
      }
    },
    {
      "type": "Feature",
      "properties": { 
      "IBGE:COD_UNICO_ENDERECO": "27363151",
      "addr:housenumber": "23",
      "addr:postcode": "48604-520",
      "addr:street": "Rua da Subestação",
      "addr:suburb": "Moxotó",
      "building": "yes"
      },
      "geometry": {
         "type": "Point",
         "coordinates": [-38.2381558,-9.379026]
      }
    },
    {
      "type": "Feature",
      "properties": { 
      "IBGE:COD_UNICO_ENDERECO": "27363118",
      "addr:housenumber": "295 Térreo",
      "addr:postcode": "48604-500",
      "addr:street": "Avenida Moxotó",
      "addr:suburb": "Moxotó",
      "building": "yes"
      },
      "geometry": {
         "type": "Point",
         "coordinates": [-38.2402926,-9.3792041]
      }
    },
    {
      "type": "Feature",
      "properties": { 
      "IBGE:COD_UNICO_ENDERECO": "27363059",
      "addr:housenumber": "120",
      "addr:postcode": "48604-518",
      "addr:street": "Rua Natividade",
      "addr:suburb": "Moxotó",
      "building": "yes"
      },
      "geometry": {
         "type": "Point",
         "coordinates": [-38.2395823,-9.3771133]
      }
    },
    {
      "type": "Feature",
      "properties": { 
      "IBGE:COD_UNICO_ENDERECO": "99118941",
      "addr:housenumber": "6",
      "addr:postcode": "48604-564",
      "addr:street": "Rua A",
      "addr:suburb": "Moxotó",
      "building": "yes"
      },
      "geometry": {
         "type": "Point",
         "coordinates": [-38.2382751,-9.3733377]
      }
    },
    {
      "type": "Feature",
      "properties": { 
      "IBGE:COD_UNICO_ENDERECO": "192028689",
      "addr:housenumber": "18",
      "addr:postcode": "48604-502",
      "addr:street": "Rua Canavieiras",
      "addr:suburb": "Moxotó",
      "building": "yes"
      },
      "geometry": {
         "type": "Point",
         "coordinates": [-38.239562,-9.3804756]
      }
    },
    {
      "type": "Feature",
      "properties": { 
      "IBGE:COD_UNICO_ENDERECO": "27363099",
      "addr:housenumber": "67",
      "addr:postcode": "48604-500",
      "addr:street": "Avenida Moxotó",
      "addr:suburb": "Moxotó",
      "building": "yes"
      },
      "geometry": {
         "type": "Point",
         "coordinates": [-38.2406948,-9.377315]
      }
    },
    {
      "type": "Feature",
      "properties": { 
      "IBGE:COD_UNICO_ENDERECO": "99118939",
      "addr:housenumber": "4 Bloco 01 Térreo Apartamento 04",
      "addr:postcode": "48604-564",
      "addr:street": "Rua A",
      "addr:suburb": "Moxotó",
      "building": "yes"
      },
      "geometry": {
         "type": "Point",
         "coordinates": [-38.2381467,-9.3732715]
      }
    },
    {
      "type": "Feature",
      "properties": { 
      "IBGE:COD_UNICO_ENDERECO": "99118930",
      "addr:housenumber": "3 Bloco 02 Térreo Apartamento 03",
      "addr:postcode": "48604-564",
      "addr:street": "Rua A",
      "addr:suburb": "Moxotó",
      "building": "yes"
      },
      "geometry": {
         "type": "Point",
         "coordinates": [-38.2380037,-9.3731356]
      }
    },
    {
      "type": "Feature",
      "properties": { 
      "IBGE:COD_UNICO_ENDERECO": "192029198",
      "addr:housenumber": "100",
      "addr:postcode": "48604-500",
      "addr:street": "Avenida Moxotó",
      "addr:suburb": "Moxotó",
      "building": "yes",
      "name": "Mini Mercado Oliveira",
      "shop": "supermarket"
      },
      "geometry": {
         "type": "Point",
         "coordinates": [-38.2400707,-9.3819562]
      }
    },
    {
      "type": "Feature",
      "properties": { 
      "IBGE:COD_UNICO_ENDERECO": "27363136",
      "addr:housenumber": "4",
      "addr:postcode": "48604-525",
      "addr:street": "Rua Gongonhas",
      "addr:suburb": "Moxotó",
      "amenity": "place_of_worship",
      "building": "church",
      "denomination": "seventh_day_adventist",
      "name": "Igreja Adventista do Sétimo Dia",
      "religion": "christian"
      },
      "geometry": {
         "type": "Point",
         "coordinates": [-38.2401962,-9.3763555]
      }
    },
    {
      "type": "Feature",
      "properties": { 
      "IBGE:COD_UNICO_ENDERECO": "27363137",
      "addr:housenumber": "13",
      "addr:postcode": "48604-525",
      "addr:street": "Rua Gongonhas",
      "addr:suburb": "Moxotó",
      "farmyard": "stockyard",
      "landuse": "farmyard",
      "name": "Curral de Animais"
      },
      "geometry": {
         "type": "Point",
         "coordinates": [-38.2402978,-9.37645]
      }
    },
    {
      "type": "Feature",
      "properties": { 
      "IBGE:COD_UNICO_ENDERECO": "99118963",
      "addr:housenumber": "4 Bloco 06 Térreo Apartamento 04",
      "addr:postcode": "48604-564",
      "addr:street": "Rua A",
      "addr:suburb": "Moxotó",
      "building": "yes"
      },
      "geometry": {
         "type": "Point",
         "coordinates": [-38.2368822,-9.3725451]
      }
    },
    {
      "type": "Feature",
      "properties": { 
      "IBGE:COD_UNICO_ENDERECO": "99118933",
      "addr:housenumber": "1",
      "addr:postcode": "48604-564",
      "addr:street": "Rua A",
      "addr:suburb": "Moxotó",
      "building": "yes"
      },
      "geometry": {
         "type": "Point",
         "coordinates": [-38.2380582,-9.3731982]
      }
    },
    {
      "type": "Feature",
      "properties": { 
      "IBGE:COD_UNICO_ENDERECO": "27363085",
      "addr:housenumber": "71",
      "addr:postcode": "48604-518",
      "addr:street": "Rua Natividade",
      "addr:suburb": "Moxotó",
      "building": "construction"
      },
      "geometry": {
         "type": "Point",
         "coordinates": [-38.2391886,-9.3773504]
      }
    },
    {
      "type": "Feature",
      "properties": { 
      "IBGE:COD_UNICO_ENDERECO": "99118967",
      "addr:housenumber": "1 Bloco 06 Térreo Apartamento 01",
      "addr:postcode": "48604-564",
      "addr:street": "Rua A",
      "addr:suburb": "Moxotó",
      "building": "yes"
      },
      "geometry": {
         "type": "Point",
         "coordinates": [-38.2370041,-9.3726112]
      }
    },
    {
      "type": "Feature",
      "properties": { 
      "IBGE:COD_UNICO_ENDERECO": "99118928;99118936",
      "addr:housenumber": "7",
      "addr:postcode": "48604-564",
      "addr:street": "Rua A",
      "addr:suburb": "Moxotó",
      "building": "yes"
      },
      "geometry": {
         "type": "Point",
         "coordinates": [-38.2380533,-9.3731885]
      }
    },
    {
      "type": "Feature",
      "properties": { 
      "IBGE:COD_UNICO_ENDERECO": "27363129",
      "addr:housenumber": "9",
      "addr:postcode": "48604-518",
      "addr:street": "Rua Natividade",
      "addr:suburb": "Moxotó",
      "building": "yes"
      },
      "geometry": {
         "type": "Point",
         "coordinates": [-38.2401767,-9.3768467]
      }
    },
    {
      "type": "Feature",
      "properties": { 
      "IBGE:COD_UNICO_ENDERECO": "99118959",
      "addr:housenumber": "1 Bloco 07 Térreo Apartamento 01",
      "addr:postcode": "48604-564",
      "addr:street": "Rua A",
      "addr:suburb": "Moxotó",
      "building": "yes"
      },
      "geometry": {
         "type": "Point",
         "coordinates": [-38.2367146,-9.3724542]
      }
    },
    {
      "type": "Feature",
      "properties": { 
      "IBGE:COD_UNICO_ENDERECO": "99118948;99118956;99118964;99118972;99118980;99118988",
      "addr:housenumber": "5",
      "addr:postcode": "48604-564",
      "addr:street": "Rua A",
      "addr:suburb": "Moxotó",
      "building": "yes"
      },
      "geometry": {
         "type": "Point",
         "coordinates": [-38.2371065,-9.3726667]
      }
    },
    {
      "type": "Feature",
      "properties": { 
      "IBGE:COD_UNICO_ENDERECO": "192029058",
      "addr:housenumber": "133",
      "addr:postcode": "48604-518",
      "addr:street": "Rua Natividade",
      "addr:suburb": "Moxotó",
      "building": "yes"
      },
      "geometry": {
         "type": "Point",
         "coordinates": [-38.2392148,-9.377345]
      }
    },
    {
      "type": "Feature",
      "properties": { 
      "IBGE:COD_UNICO_ENDERECO": "27363062",
      "addr:housenumber": "170",
      "addr:postcode": "48604-518",
      "addr:street": "Rua Natividade",
      "addr:suburb": "Moxotó",
      "addr:unit": "Entrada",
      "building": "yes"
      },
      "geometry": {
         "type": "Point",
         "coordinates": [-38.2389119,-9.3772497]
      }
    },
    {
      "type": "Feature",
      "properties": { 
      "IBGE:COD_UNICO_ENDERECO": "192028908",
      "addr:housenumber": "3 A",
      "addr:postcode": "48604-520",
      "addr:street": "Rua da Subestação",
      "addr:suburb": "Moxotó",
      "building": "yes"
      },
      "geometry": {
         "type": "Point",
         "coordinates": [-38.2381548,-9.379065]
      }
    },
    {
      "type": "Feature",
      "properties": { 
      "IBGE:COD_UNICO_ENDERECO": "99118950",
      "addr:housenumber": "2 Bloco 08 Térreo Apartamento 02",
      "addr:postcode": "48604-564",
      "addr:street": "Rua A",
      "addr:suburb": "Moxotó",
      "building": "yes"
      },
      "geometry": {
         "type": "Point",
         "coordinates": [-38.2365315,-9.3723549]
      }
    },
    {
      "type": "Feature",
      "properties": { 
      "IBGE:COD_UNICO_ENDERECO": "27363150",
      "addr:housenumber": "19",
      "addr:postcode": "48604-520",
      "addr:street": "Rua da Subestação",
      "addr:suburb": "Moxotó",
      "building": "construction"
      },
      "geometry": {
         "type": "Point",
         "coordinates": [-38.2382626,-9.3766019]
      }
    },
    {
      "type": "Feature",
      "properties": { 
      "IBGE:COD_UNICO_ENDERECO": "27363104",
      "addr:housenumber": "18",
      "addr:postcode": "48604-500",
      "addr:street": "Avenida Moxotó",
      "addr:suburb": "Moxotó",
      "building": "yes"
      },
      "geometry": {
         "type": "Point",
         "coordinates": [-38.2406253,-9.3780169]
      }
    },
    {
      "type": "Feature",
      "properties": { 
      "IBGE:COD_UNICO_ENDERECO": "99118991",
      "addr:housenumber": "1 Bloco 03 Térreo Apartamento 01",
      "addr:postcode": "48604-564",
      "addr:street": "Rua A",
      "addr:suburb": "Moxotó",
      "building": "yes"
      },
      "geometry": {
         "type": "Point",
         "coordinates": [-38.2377151,-9.3729967]
      }
    },
    {
      "type": "Feature",
      "properties": { 
      "IBGE:COD_UNICO_ENDERECO": "99118974",
      "addr:housenumber": "2 Bloco 05 Térreo Apartamento 02",
      "addr:postcode": "48604-564",
      "addr:street": "Rua A",
      "addr:suburb": "Moxotó",
      "building": "yes"
      },
      "geometry": {
         "type": "Point",
         "coordinates": [-38.2372376,-9.3727378]
      }
    },
    {
      "type": "Feature",
      "properties": { 
      "IBGE:COD_UNICO_ENDERECO": "99118987",
      "addr:housenumber": "4 Bloco 03 Térreo Apartamento 04",
      "addr:postcode": "48604-564",
      "addr:street": "Rua A",
      "addr:suburb": "Moxotó",
      "building": "yes"
      },
      "geometry": {
         "type": "Point",
         "coordinates": [-38.2376257,-9.3729482]
      }
    },
    {
      "type": "Feature",
      "properties": { 
      "IBGE:COD_UNICO_ENDERECO": "99119084",
      "addr:housenumber": "5",
      "addr:postcode": "48604-564",
      "addr:street": "Rua C",
      "addr:suburb": "Moxotó",
      "building": "yes"
      },
      "geometry": {
         "type": "Point",
         "coordinates": [-38.2377794,-9.3722843]
      }
    },
    {
      "type": "Feature",
      "properties": { 
      "IBGE:COD_UNICO_ENDERECO": "192028722",
      "addr:housenumber": "8 A",
      "addr:postcode": "48604-520",
      "addr:street": "Rua da Subestação",
      "addr:suburb": "Moxotó",
      "building": "yes"
      },
      "geometry": {
         "type": "Point",
         "coordinates": [-38.2394955,-9.3803202]
      }
    },
    {
      "type": "Feature",
      "properties": { 
      "IBGE:COD_UNICO_ENDERECO": "27363093",
      "addr:housenumber": "38",
      "addr:postcode": "48604-500",
      "addr:street": "Avenida Moxotó",
      "addr:suburb": "Moxotó",
      "building": "yes",
      "name": "Venda de Gás e Água",
      "shop": "gas;gas;water"
      },
      "geometry": {
         "type": "Point",
         "coordinates": [-38.2406456,-9.3769293]
      }
    },
    {
      "type": "Feature",
      "properties": { 
      "IBGE:COD_UNICO_ENDERECO": "99119038",
      "addr:housenumber": "2 Bloco 14 Térreo Apartamento 02",
      "addr:postcode": "48604-564",
      "addr:street": "Rua B",
      "addr:suburb": "Moxotó",
      "building": "yes"
      },
      "geometry": {
         "type": "Point",
         "coordinates": [-38.236527,-9.3721984]
      }
    },
    {
      "type": "Feature",
      "properties": { 
      "IBGE:COD_UNICO_ENDERECO": "192028977",
      "addr:housenumber": "48 Térreo 1",
      "addr:postcode": "48604-508",
      "addr:street": "Rua Canudos",
      "addr:suburb": "Moxotó",
      "building": "yes"
      },
      "geometry": {
         "type": "Point",
         "coordinates": [-38.239943,-9.3773439]
      }
    },
    {
      "type": "Feature",
      "properties": { 
      "IBGE:COD_UNICO_ENDERECO": "192029192",
      "addr:housenumber": "9",
      "addr:postcode": "48604-500",
      "addr:street": "Avenida Moxotó",
      "addr:suburb": "Moxotó",
      "addr:unit": "1",
      "building": "construction"
      },
      "geometry": {
         "type": "Point",
         "coordinates": [-38.23984,-9.3824141]
      }
    },
    {
      "type": "Feature",
      "properties": { 
      "IBGE:COD_UNICO_ENDERECO": "99118971",
      "addr:housenumber": "5 Bloco 05 Térreo Apartamento 04",
      "addr:postcode": "48604-564",
      "addr:street": "Rua A",
      "addr:suburb": "Moxotó",
      "building": "yes"
      },
      "geometry": {
         "type": "Point",
         "coordinates": [-38.2371663,-9.3726992]
      }
    },
    {
      "type": "Feature",
      "properties": { 
      "IBGE:COD_UNICO_ENDERECO": "99118975",
      "addr:housenumber": "1 Bloco 05 Térreo Apartamento 01",
      "addr:postcode": "48604-564",
      "addr:street": "Rua A",
      "addr:suburb": "Moxotó",
      "building": "yes"
      },
      "geometry": {
         "type": "Point",
         "coordinates": [-38.2372763,-9.3727588]
      }
    },
    {
      "type": "Feature",
      "properties": { 
      "IBGE:COD_UNICO_ENDERECO": "192029090",
      "addr:housenumber": "21 B",
      "addr:postcode": "48604-502",
      "addr:street": "Rua Canavieiras",
      "addr:suburb": "Moxotó",
      "building": "yes"
      },
      "geometry": {
         "type": "Point",
         "coordinates": [-38.2396299,-9.38087]
      }
    },
    {
      "type": "Feature",
      "properties": { 
      "IBGE:COD_UNICO_ENDERECO": "99118951",
      "addr:housenumber": "1 Bloco 08 Térreo Apartamento 01",
      "addr:postcode": "48604-564",
      "addr:street": "Rua A",
      "addr:suburb": "Moxotó",
      "building": "yes"
      },
      "geometry": {
         "type": "Point",
         "coordinates": [-38.2365109,-9.3723438]
      }
    },
    {
      "type": "Feature",
      "properties": { 
      "IBGE:COD_UNICO_ENDERECO": "27363127",
      "addr:housenumber": "18",
      "addr:postcode": "48604-520",
      "addr:street": "Rua Subestação",
      "addr:suburb": "Moxotó",
      "building": "yes"
      },
      "geometry": {
         "type": "Point",
         "coordinates": [-38.2385864,-9.3770493]
      }
    },
    {
      "type": "Feature",
      "properties": { 
      "IBGE:COD_UNICO_ENDERECO": "27363097",
      "addr:housenumber": "51",
      "addr:postcode": "48604-500",
      "addr:street": "Avenida Moxotó",
      "addr:suburb": "Moxotó",
      "building": "yes",
      "name": "Maria Quitanda",
      "shop": "greengrocer"
      },
      "geometry": {
         "type": "Point",
         "coordinates": [-38.2406874,-9.3772338]
      }
    },
    {
      "type": "Feature",
      "properties": { 
      "IBGE:COD_UNICO_ENDERECO": "192028807",
      "addr:housenumber": "31",
      "addr:postcode": "48604-500",
      "addr:street": "Avenida Moxotó",
      "addr:suburb": "Moxotó",
      "building": "yes",
      "name": "Paiva Rações"
      },
      "geometry": {
         "type": "Point",
         "coordinates": [-38.2406969,-9.3774521]
      }
    },
    {
      "type": "Feature",
      "properties": { 
      "IBGE:COD_UNICO_ENDERECO": "99119079",
      "addr:housenumber": "1 Bloco 15 Térreo Apartamento 01",
      "addr:postcode": "48604-564",
      "addr:street": "Rua B",
      "addr:suburb": "Moxotó",
      "building": "yes"
      },
      "geometry": {
         "type": "Point",
         "coordinates": [-38.2377366,-9.3726266]
      }
    },
    {
      "type": "Feature",
      "properties": { 
      "IBGE:COD_UNICO_ENDERECO": "192028960",
      "addr:housenumber": "27",
      "addr:postcode": "48604-508",
      "addr:street": "Rua Canudos",
      "addr:suburb": "Moxotó",
      "building": "yes"
      },
      "geometry": {
         "type": "Point",
         "coordinates": [-38.239742,-9.3769651]
      }
    },
    {
      "type": "Feature",
      "properties": { 
      "IBGE:COD_UNICO_ENDERECO": "99118958",
      "addr:housenumber": "2 Bloco 07 Térreo Apartamento 02",
      "addr:postcode": "48604-564",
      "addr:street": "Rua A",
      "addr:suburb": "Moxotó",
      "building": "yes"
      },
      "geometry": {
         "type": "Point",
         "coordinates": [-38.2367432,-9.3724697]
      }
    },
    {
      "type": "Feature",
      "properties": { 
      "IBGE:COD_UNICO_ENDERECO": "192029156",
      "addr:housenumber": "381",
      "addr:postcode": "48604-500",
      "addr:street": "Avenida Moxotó",
      "addr:suburb": "Moxotó",
      "building": "yes",
      "name": "Skinão Variedades",
      "shop": "variety_store"
      },
      "geometry": {
         "type": "Point",
         "coordinates": [-38.2401668,-9.3806467]
      }
    },
    {
      "type": "Feature",
      "properties": { 
      "IBGE:COD_UNICO_ENDERECO": "27363102",
      "addr:housenumber": "105",
      "addr:postcode": "48604-500",
      "addr:street": "Avenida Moxotó",
      "addr:suburb": "Moxotó",
      "building": "yes"
      },
      "geometry": {
         "type": "Point",
         "coordinates": [-38.2406972,-9.3776336]
      }
    },
    {
      "type": "Feature",
      "properties": { 
      "IBGE:COD_UNICO_ENDERECO": "192029179",
      "addr:housenumber": "583",
      "addr:postcode": "48604-500",
      "addr:street": "Avenida Moxotó",
      "addr:suburb": "Moxotó",
      "building": "yes",
      "name": "Central do Automóvel"
      },
      "geometry": {
         "type": "Point",
         "coordinates": [-38.2396876,-9.382718]
      }
    },
    {
      "type": "Feature",
      "properties": { 
      "IBGE:COD_UNICO_ENDERECO": "99118937",
      "addr:housenumber": "8",
      "addr:postcode": "48604-564",
      "addr:street": "Rua A",
      "addr:suburb": "Moxotó",
      "building": "yes"
      },
      "geometry": {
         "type": "Point",
         "coordinates": [-38.2381801,-9.3732993]
      }
    },
    {
      "type": "Feature",
      "properties": { 
      "IBGE:COD_UNICO_ENDERECO": "192029098",
      "addr:housenumber": "23",
      "addr:postcode": "48604-502",
      "addr:street": "Rua Canavieiras",
      "addr:suburb": "Moxotó",
      "addr:unit": "1",
      "building": "yes"
      },
      "geometry": {
         "type": "Point",
         "coordinates": [-38.2396755,-9.3808907]
      }
    },
    {
      "type": "Feature",
      "properties": { 
      "IBGE:COD_UNICO_ENDERECO": "192028717",
      "addr:housenumber": "5",
      "addr:postcode": "48604-520",
      "addr:street": "Rua da Subestação",
      "addr:suburb": "Moxotó",
      "building": "yes"
      },
      "geometry": {
         "type": "Point",
         "coordinates": [-38.2396372,-9.3803575]
      }
    },
    {
      "type": "Feature",
      "properties": { 
      "IBGE:COD_UNICO_ENDERECO": "192029026",
      "addr:housenumber": "108",
      "addr:postcode": "48604-508",
      "addr:street": "Rua Canudos",
      "addr:suburb": "Moxotó",
      "building": "construction",
      "fixme": "Verificar coordenadas",
      "note": "Fora da área de projeção da face 0500-0175P-6-18"
      },
      "geometry": {
         "type": "Point",
         "coordinates": [-38.239919,-9.377994]
      }
    },
    {
      "type": "Feature",
      "properties": { 
      "IBGE:COD_UNICO_ENDERECO": "192028840",
      "addr:housenumber": "361",
      "addr:postcode": "48604-500",
      "addr:street": "Avenida Moxotó",
      "addr:suburb": "Moxotó",
      "disused:building": "yes",
      "old_name": "Vago Versalles"
      },
      "geometry": {
         "type": "Point",
         "coordinates": [-38.2400935,-9.3801568]
      }
    },
    {
      "type": "Feature",
      "properties": { 
      "IBGE:COD_UNICO_ENDERECO": "27363055",
      "addr:housenumber": "122",
      "addr:postcode": "48604-518",
      "addr:street": "Rua Natividade",
      "addr:suburb": "Moxotó",
      "building": "yes"
      },
      "geometry": {
         "type": "Point",
         "coordinates": [-38.2394901,-9.3771321]
      }
    },
    {
      "type": "Feature",
      "properties": { 
      "IBGE:COD_UNICO_ENDERECO": "27363098",
      "addr:housenumber": "26",
      "addr:postcode": "48604-520",
      "addr:street": "Rua Subestação",
      "addr:suburb": "Moxotó",
      "building": "yes"
      },
      "geometry": {
         "type": "Point",
         "coordinates": [-38.2385972,-9.3771822]
      }
    },
    {
      "type": "Feature",
      "properties": { 
      "IBGE:COD_UNICO_ENDERECO": "99119015",
      "addr:housenumber": "1 Bloco 11 Térreo Apartamento 01",
      "addr:postcode": "48604-564",
      "addr:street": "Rua B",
      "addr:suburb": "Moxotó",
      "building": "yes"
      },
      "geometry": {
         "type": "Point",
         "coordinates": [-38.2372673,-9.3725875]
      }
    },
    {
      "type": "Feature",
      "properties": { 
      "IBGE:COD_UNICO_ENDERECO": "192029185",
      "addr:housenumber": "581 A",
      "addr:postcode": "48604-500",
      "addr:street": "Avenida Moxotó",
      "addr:suburb": "Moxotó",
      "building": "yes"
      },
      "geometry": {
         "type": "Point",
         "coordinates": [-38.2397275,-9.3826375]
      }
    },
    {
      "type": "Feature",
      "properties": { 
      "IBGE:COD_UNICO_ENDERECO": "192028730",
      "addr:housenumber": "26",
      "addr:postcode": "48604-520",
      "addr:street": "Rua da Subestação",
      "addr:suburb": "Moxotó",
      "building": "yes"
      },
      "geometry": {
         "type": "Point",
         "coordinates": [-38.2394516,-9.3802986]
      }
    },
    {
      "type": "Feature",
      "properties": { 
      "IBGE:COD_UNICO_ENDERECO": "192028999",
      "addr:housenumber": "56",
      "addr:postcode": "48604-508",
      "addr:street": "Rua Canudos",
      "addr:suburb": "Moxotó",
      "building": "yes"
      },
      "geometry": {
         "type": "Point",
         "coordinates": [-38.2401738,-9.3779274]
      }
    },
    {
      "type": "Feature",
      "properties": { 
      "IBGE:COD_UNICO_ENDERECO": "27363132",
      "addr:housenumber": "11",
      "addr:postcode": "48604-518",
      "addr:street": "Rua Natividade",
      "addr:suburb": "Moxotó",
      "building": "construction"
      },
      "geometry": {
         "type": "Point",
         "coordinates": [-38.2399417,-9.376745]
      }
    },
    {
      "type": "Feature",
      "properties": { 
      "IBGE:COD_UNICO_ENDERECO": "27363141",
      "addr:housenumber": "82",
      "addr:postcode": "48604-520",
      "addr:street": "Rua da Subestação",
      "addr:suburb": "Moxotó",
      "building": "yes",
      "name": "Subestação da Chesf",
      "power": "substation"
      },
      "geometry": {
         "type": "Point",
         "coordinates": [-38.238218,-9.3786178]
      }
    },
    {
      "type": "Feature",
      "properties": { 
      "IBGE:COD_UNICO_ENDERECO": "27363091",
      "addr:housenumber": "49",
      "addr:postcode": "48604-500",
      "addr:street": "Avenida Moxotó",
      "addr:suburb": "Moxotó",
      "amenity": "place_of_worship",
      "building": "yes",
      "denomination": "charismatic;evangelical",
      "name": "Igreja Evangélica Nova Aliança",
      "religion": "christian"
      },
      "geometry": {
         "type": "Point",
         "coordinates": [-38.2406103,-9.3767839]
      }
    },
    {
      "type": "Feature",
      "properties": { 
      "IBGE:COD_UNICO_ENDERECO": "99119107",
      "addr:housenumber": "4 Bloco 23 Térreo Apartamento 04",
      "addr:postcode": "48604-564",
      "addr:street": "Rua C",
      "addr:suburb": "Moxotó",
      "building": "yes"
      },
      "geometry": {
         "type": "Point",
         "coordinates": [-38.2371855,-9.3719716]
      }
    },
    {
      "type": "Feature",
      "properties": { 
      "IBGE:COD_UNICO_ENDERECO": "192029005",
      "addr:housenumber": "10",
      "addr:postcode": "48604-508",
      "addr:street": "Rua Canudos",
      "addr:suburb": "Moxotó",
      "building": "yes"
      },
      "geometry": {
         "type": "Point",
         "coordinates": [-38.2402386,-9.3779565]
      }
    },
    {
      "type": "Feature",
      "properties": { 
      "IBGE:COD_UNICO_ENDERECO": "192028919",
      "addr:housenumber": "300",
      "addr:postcode": "48604-525",
      "addr:street": "Rua Gongonhas",
      "addr:suburb": "Moxotó",
      "building": "yes"
      },
      "geometry": {
         "type": "Point",
         "coordinates": [-38.238474955835,-9.3761445616562]
      }
    },
    {
      "type": "Feature",
      "properties": { 
      "IBGE:COD_UNICO_ENDERECO": "192028738",
      "addr:housenumber": "7",
      "addr:postcode": "48604-520",
      "addr:street": "Rua da Subestação",
      "addr:suburb": "Moxotó",
      "building": "yes",
      "fixme": "Confirmar nome",
      "name": "Borracharia Soares",
      "repair": "yes",
      "shop": "tyres"
      },
      "geometry": {
         "type": "Point",
         "coordinates": [-38.2395839,-9.3803556]
      }
    },
    {
      "type": "Feature",
      "properties": { 
      "IBGE:COD_UNICO_ENDERECO": "99118935",
      "addr:housenumber": "2 Bloco 02 Térreo Apartamento 02",
      "addr:postcode": "48604-564",
      "addr:street": "Rua A",
      "addr:suburb": "Moxotó",
      "building": "yes"
      },
      "geometry": {
         "type": "Point",
         "coordinates": [-38.2380627,-9.3732019]
      }
    },
    {
      "type": "Feature",
      "properties": { 
      "IBGE:COD_UNICO_ENDERECO": "192029015",
      "addr:housenumber": "62",
      "addr:postcode": "48604-508",
      "addr:street": "Rua Canudos",
      "addr:suburb": "Moxotó",
      "building": "yes"
      },
      "geometry": {
         "type": "Point",
         "coordinates": [-38.2399476,-9.377976]
      }
    },
    {
      "type": "Feature",
      "properties": { 
      "IBGE:COD_UNICO_ENDERECO": "192028947",
      "addr:housenumber": "6 A",
      "addr:postcode": "48604-520",
      "addr:street": "Rua Subestação",
      "addr:suburb": "Moxotó",
      "building": "yes"
      },
      "geometry": {
         "type": "Point",
         "coordinates": [-38.2385848,-9.3770297]
      }
    },
    {
      "type": "Feature",
      "properties": { 
      "IBGE:COD_UNICO_ENDERECO": "27363071",
      "addr:housenumber": "2 A",
      "addr:postcode": "48604-520",
      "addr:street": "Rua da Subestação",
      "addr:suburb": "Moxotó",
      "building": "yes"
      },
      "geometry": {
         "type": "Point",
         "coordinates": [-38.239917800026,-9.3805593613881]
      }
    },
    {
      "type": "Feature",
      "properties": { 
      "IBGE:COD_UNICO_ENDERECO": "192028813",
      "addr:housenumber": "63",
      "addr:postcode": "48604-500",
      "addr:street": "Avenida Moxotó",
      "addr:suburb": "Moxotó",
      "building": "yes",
      "name": "Paiva Construções"
      },
      "geometry": {
         "type": "Point",
         "coordinates": [-38.2406969,-9.3774452]
      }
    },
    {
      "type": "Feature",
      "properties": { 
      "IBGE:COD_UNICO_ENDERECO": "99119111",
      "addr:housenumber": "1 Bloco 23 Térreo Apartamento 01",
      "addr:postcode": "48604-564",
      "addr:street": "Rua C",
      "addr:suburb": "Moxotó",
      "building": "yes"
      },
      "geometry": {
         "type": "Point",
         "coordinates": [-38.2370668,-9.3719091]
      }
    },
    {
      "type": "Feature",
      "properties": { 
      "IBGE:COD_UNICO_ENDERECO": "192028670",
      "addr:housenumber": "2 B",
      "addr:postcode": "48604-520",
      "addr:street": "Rua da Subestação",
      "addr:suburb": "Moxotó",
      "building": "yes"
      },
      "geometry": {
         "type": "Point",
         "coordinates": [-38.2398982,-9.3805417]
      }
    },
    {
      "type": "Feature",
      "properties": { 
      "IBGE:COD_UNICO_ENDERECO": "27363126",
      "addr:housenumber": "18 A",
      "addr:postcode": "48604-520",
      "addr:street": "Rua Subestação",
      "addr:suburb": "Moxotó",
      "building": "yes"
      },
      "geometry": {
         "type": "Point",
         "coordinates": [-38.2385989,-9.3772321]
      }
    },
    {
      "type": "Feature",
      "properties": { 
      "IBGE:COD_UNICO_ENDERECO": "192029124",
      "addr:housenumber": "50",
      "addr:postcode": "48604-502",
      "addr:street": "Rua Canavieiras",
      "addr:suburb": "Moxotó",
      "addr:unit": "26",
      "building": "yes"
      },
      "geometry": {
         "type": "Point",
         "coordinates": [-38.2397389,-9.3809195]
      }
    },
    {
      "type": "Feature",
      "properties": { 
      "IBGE:COD_UNICO_ENDERECO": "99118993",
      "addr:housenumber": "1",
      "addr:postcode": "48604-564",
      "addr:street": "Rua B",
      "addr:suburb": "Moxotó",
      "building": "yes"
      },
      "geometry": {
         "type": "Point",
         "coordinates": [-38.2377127,-9.3728216]
      }
    },
    {
      "type": "Feature",
      "properties": { 
      "IBGE:COD_UNICO_ENDERECO": "192029119",
      "addr:housenumber": "3 B",
      "addr:postcode": "48604-502",
      "addr:street": "Rua Canavieiras",
      "addr:suburb": "Moxotó",
      "addr:unit": "Térreo 1",
      "building": "yes"
      },
      "geometry": {
         "type": "Point",
         "coordinates": [-38.2397293,-9.3809152]
      }
    },
    {
      "type": "Feature",
      "properties": { 
      "IBGE:COD_UNICO_ENDERECO": "27363078",
      "addr:housenumber": "8",
      "addr:postcode": "48604-520",
      "addr:street": "Rua da Subestação",
      "addr:suburb": "Moxotó",
      "building": "yes"
      },
      "geometry": {
         "type": "Point",
         "coordinates": [-38.2394642,-9.3803048]
      }
    },
    {
      "type": "Feature",
      "properties": { 
      "IBGE:COD_UNICO_ENDERECO": "192029106",
      "addr:housenumber": "3 B",
      "addr:postcode": "48604-502",
      "addr:street": "Rua Canavieiras",
      "addr:suburb": "Moxotó",
      "building": "yes"
      },
      "geometry": {
         "type": "Point",
         "coordinates": [-38.2397129,-9.3809077]
      }
    },
    {
      "type": "Feature",
      "properties": { 
      "IBGE:COD_UNICO_ENDERECO": "27363083",
      "addr:housenumber": "15",
      "addr:postcode": "48604-518",
      "addr:street": "Rua Natividade",
      "addr:suburb": "Moxotó",
      "building": "construction"
      },
      "geometry": {
         "type": "Point",
         "coordinates": [-38.2389824,-9.3772354]
      }
    },
    {
      "type": "Feature",
      "properties": { 
      "IBGE:COD_UNICO_ENDERECO": "192029033",
      "addr:housenumber": "100",
      "addr:postcode": "48604-508",
      "addr:street": "Rua Canudos",
      "addr:suburb": "Moxotó",
      "building": "yes"
      },
      "geometry": {
         "type": "Point",
         "coordinates": [-38.2398281,-9.3776851]
      }
    },
    {
      "type": "Feature",
      "properties": { 
      "IBGE:COD_UNICO_ENDERECO": "27363051",
      "addr:housenumber": "1",
      "addr:postcode": "48604-502",
      "addr:street": "Rua Canavieiras",
      "addr:suburb": "Moxotó",
      "building": "yes"
      },
      "geometry": {
         "type": "Point",
         "coordinates": [-38.2399794,-9.3811496]
      }
    },
    {
      "type": "Feature",
      "properties": { 
      "IBGE:COD_UNICO_ENDERECO": "192028676",
      "addr:housenumber": "3",
      "addr:postcode": "48604-520",
      "addr:street": "Rua da Subestação",
      "addr:suburb": "Moxotó",
      "building": "yes",
      "name": "Fardamentos RS A Armação da Sua Emp"
      },
      "geometry": {
         "type": "Point",
         "coordinates": [-38.2397806,-9.3804728]
      }
    },
    {
      "type": "Feature",
      "properties": { 
      "IBGE:COD_UNICO_ENDERECO": "27363105",
      "addr:housenumber": "159",
      "addr:postcode": "48604-500",
      "addr:street": "Avenida Moxotó",
      "addr:suburb": "Moxotó",
      "building": "yes"
      },
      "geometry": {
         "type": "Point",
         "coordinates": [-38.24064,-9.3779659]
      }
    },
    {
      "type": "Feature",
      "properties": { 
      "IBGE:COD_UNICO_ENDERECO": "192029162",
      "addr:housenumber": "3",
      "addr:postcode": "48604-500",
      "addr:street": "Avenida Moxotó",
      "addr:suburb": "Moxotó",
      "building": "yes"
      },
      "geometry": {
         "type": "Point",
         "coordinates": [-38.2401265,-9.3808069]
      }
    },
    {
      "type": "Feature",
      "properties": { 
      "IBGE:COD_UNICO_ENDERECO": "99118990",
      "addr:housenumber": "2 Bloco 03 Térreo Apartamento 02",
      "addr:postcode": "48604-564",
      "addr:street": "Rua A",
      "addr:suburb": "Moxotó",
      "building": "yes"
      },
      "geometry": {
         "type": "Point",
         "coordinates": [-38.2377086,-9.3729932]
      }
    },
    {
      "type": "Feature",
      "properties": { 
      "IBGE:COD_UNICO_ENDERECO": "27363077",
      "addr:housenumber": "6",
      "addr:postcode": "48604-520",
      "addr:street": "Rua da Subestação",
      "addr:suburb": "Moxotó",
      "building": "yes",
      "fixme": "Confirmar nome",
      "name": "Borracharia Soares",
      "repair": "yes",
      "shop": "tyres"
      },
      "geometry": {
         "type": "Point",
         "coordinates": [-38.23961404592,-9.3803615000032]
      }
    },
    {
      "type": "Feature",
      "properties": { 
      "IBGE:COD_UNICO_ENDERECO": "192028822",
      "addr:housenumber": "35",
      "addr:postcode": "48604-500",
      "addr:street": "Avenida Moxotó",
      "addr:suburb": "Moxotó",
      "building": "construction"
      },
      "geometry": {
         "type": "Point",
         "coordinates": [-38.2406906,-9.3772691]
      }
    },
    {
      "type": "Feature",
      "properties": { 
      "IBGE:COD_UNICO_ENDERECO": "192029102",
      "addr:housenumber": "50",
      "addr:postcode": "48604-502",
      "addr:street": "Rua Canavieiras",
      "addr:suburb": "Moxotó",
      "addr:unit": "27",
      "building": "yes"
      },
      "geometry": {
         "type": "Point",
         "coordinates": [-38.2397246,-9.380913]
      }
    },
    {
      "type": "Feature",
      "properties": { 
      "IBGE:COD_UNICO_ENDERECO": "27363095",
      "addr:housenumber": "45",
      "addr:postcode": "48604-500",
      "addr:street": "Avenida Moxotó",
      "addr:suburb": "Moxotó",
      "amenity": "fast_food",
      "building": "yes",
      "name": "Lanchonete Triunfo"
      },
      "geometry": {
         "type": "Point",
         "coordinates": [-38.2406811,-9.3771644]
      }
    },
    {
      "type": "Feature",
      "properties": { 
      "IBGE:COD_UNICO_ENDERECO": "99118962",
      "addr:housenumber": "3 Bloco 06 Térreo Apartamento 03",
      "addr:postcode": "48604-564",
      "addr:street": "Rua A",
      "addr:suburb": "Moxotó",
      "building": "yes"
      },
      "geometry": {
         "type": "Point",
         "coordinates": [-38.2369002,-9.3725549]
      }
    },
    {
      "type": "Feature",
      "properties": { 
      "IBGE:COD_UNICO_ENDERECO": "192029081",
      "addr:housenumber": "10",
      "addr:postcode": "48604-502",
      "addr:street": "Rua Canavieiras",
      "addr:suburb": "Moxotó",
      "building": "yes"
      },
      "geometry": {
         "type": "Point",
         "coordinates": [-38.2395943,-9.3808538]
      }
    },
    {
      "type": "Feature",
      "properties": { 
      "IBGE:COD_UNICO_ENDERECO": "27363057",
      "addr:housenumber": "124 Térreo",
      "addr:postcode": "48604-518",
      "addr:street": "Rua Natividade",
      "addr:suburb": "Moxotó",
      "building": "yes"
      },
      "geometry": {
         "type": "Point",
         "coordinates": [-38.2395088,-9.3771283]
      }
    },
    {
      "type": "Feature",
      "properties": { 
      "IBGE:COD_UNICO_ENDERECO": "27363094",
      "addr:housenumber": "29",
      "addr:postcode": "48604-500",
      "addr:street": "Avenida Moxotó",
      "addr:suburb": "Moxotó",
      "building": "yes"
      },
      "geometry": {
         "type": "Point",
         "coordinates": [-38.240657,-9.3769984]
      }
    },
    {
      "type": "Feature",
      "properties": { 
      "IBGE:COD_UNICO_ENDERECO": "99118945;99118952;99118960;99118968;99118976;99118984",
      "addr:housenumber": "8",
      "addr:postcode": "48604-564",
      "addr:street": "Rua A",
      "addr:suburb": "Moxotó",
      "building": "yes"
      },
      "geometry": {
         "type": "Point",
         "coordinates": [-38.237043,-9.3726323]
      }
    },
    {
      "type": "Feature",
      "properties": { 
      "IBGE:COD_UNICO_ENDERECO": "27363103",
      "addr:housenumber": "123",
      "addr:postcode": "48604-500",
      "addr:street": "Avenida Moxotó",
      "addr:suburb": "Moxotó",
      "building": "yes"
      },
      "geometry": {
         "type": "Point",
         "coordinates": [-38.2406796,-9.3777689]
      }
    },
    {
      "type": "Feature",
      "properties": { 
      "IBGE:COD_UNICO_ENDERECO": "27363139",
      "addr:housenumber": "17",
      "addr:postcode": "48604-520",
      "addr:street": "Rua da Subestação",
      "addr:suburb": "Moxotó",
      "building": "yes"
      },
      "geometry": {
         "type": "Point",
         "coordinates": [-38.2384003,-9.3770004]
      }
    },
    {
      "type": "Feature",
      "properties": { 
      "IBGE:COD_UNICO_ENDERECO": "192029071",
      "addr:housenumber": "13",
      "addr:postcode": "48604-502",
      "addr:street": "Rua Canavieiras",
      "addr:suburb": "Moxotó",
      "building": "yes"
      },
      "geometry": {
         "type": "Point",
         "coordinates": [-38.239714,-9.3804414]
      }
    },
    {
      "type": "Feature",
      "properties": { 
      "IBGE:COD_UNICO_ENDERECO": "27363072",
      "addr:housenumber": "11",
      "addr:postcode": "48604-520",
      "addr:street": "Rua da Subestação",
      "addr:suburb": "Moxotó",
      "amenity": "pub",
      "building": "yes",
      "name": "Bar Alvorada"
      },
      "geometry": {
         "type": "Point",
         "coordinates": [-38.239759107421,-9.3804530951224]
      }
    },
    {
      "type": "Feature",
      "properties": { 
      "IBGE:COD_UNICO_ENDERECO": "99119088",
      "addr:housenumber": "7",
      "addr:postcode": "48604-564",
      "addr:street": "Rua C",
      "addr:suburb": "Moxotó",
      "building": "yes"
      },
      "geometry": {
         "type": "Point",
         "coordinates": [-38.2376433,-9.3722126]
      }
    },
    {
      "type": "Feature",
      "properties": { 
      "IBGE:COD_UNICO_ENDERECO": "27363116",
      "addr:housenumber": "295 Sobrado",
      "addr:postcode": "48604-500",
      "addr:street": "Avenida Moxotó",
      "addr:suburb": "Moxotó",
      "building": "yes"
      },
      "geometry": {
         "type": "Point",
         "coordinates": [-38.2402906,-9.3792128]
      }
    },
    {
      "type": "Feature",
      "properties": { 
      "IBGE:COD_UNICO_ENDERECO": "27363111",
      "addr:housenumber": "219",
      "addr:postcode": "48604-500",
      "addr:street": "Avenida Moxotó",
      "addr:suburb": "Moxotó",
      "building": "yes"
      },
      "geometry": {
         "type": "Point",
         "coordinates": [-38.2404408,-9.378663]
      }
    },
    {
      "type": "Feature",
      "properties": { 
      "IBGE:COD_UNICO_ENDERECO": "192029140",
      "addr:housenumber": "7",
      "addr:postcode": "48604-525",
      "addr:street": "Rua Gongonhas",
      "addr:suburb": "Moxotó",
      "building": "yes"
      },
      "geometry": {
         "type": "Point",
         "coordinates": [-38.23976,-9.3764109]
      }
    },
    {
      "type": "Feature",
      "properties": { 
      "IBGE:COD_UNICO_ENDERECO": "99119020;99119036",
      "addr:housenumber": "5",
      "addr:postcode": "48604-564",
      "addr:street": "Rua B",
      "addr:suburb": "Moxotó",
      "building": "yes"
      },
      "geometry": {
         "type": "Point",
         "coordinates": [-38.2367496,-9.3723154]
      }
    },
    {
      "type": "Feature",
      "properties": { 
      "IBGE:COD_UNICO_ENDERECO": "99118979",
      "addr:housenumber": "4 Bloco 04 Térreo Apartamento 04",
      "addr:postcode": "48604-564",
      "addr:street": "Rua A",
      "addr:suburb": "Moxotó",
      "building": "yes"
      },
      "geometry": {
         "type": "Point",
         "coordinates": [-38.2373745,-9.372812]
      }
    },
    {
      "type": "Feature",
      "properties": { 
      "IBGE:COD_UNICO_ENDERECO": "192028974",
      "addr:housenumber": "12",
      "addr:postcode": "48604-508",
      "addr:street": "Rua Canudos",
      "addr:suburb": "Moxotó",
      "building": "yes"
      },
      "geometry": {
         "type": "Point",
         "coordinates": [-38.2399332,-9.3772457]
      }
    },
    {
      "type": "Feature",
      "properties": { 
      "IBGE:COD_UNICO_ENDERECO": "99118970",
      "addr:housenumber": "3 Bloco 05 Térreo Apartamento 03",
      "addr:postcode": "48604-564",
      "addr:street": "Rua A",
      "addr:suburb": "Moxotó",
      "building": "yes"
      },
      "geometry": {
         "type": "Point",
         "coordinates": [-38.237114,-9.3726708]
      }
    },
    {
      "type": "Feature",
      "properties": { 
      "IBGE:COD_UNICO_ENDERECO": "27363144",
      "addr:housenumber": "1",
      "addr:postcode": "48604-520",
      "addr:street": "Rua da Subestação",
      "addr:suburb": "Moxotó",
      "building": "construction"
      },
      "geometry": {
         "type": "Point",
         "coordinates": [-38.2384206,-9.3771503]
      }
    },
    {
      "type": "Feature",
      "properties": { 
      "IBGE:COD_UNICO_ENDERECO": "27363109",
      "addr:housenumber": "201",
      "addr:postcode": "48604-500",
      "addr:street": "Avenida Moxotó",
      "addr:suburb": "Moxotó",
      "building": "yes"
      },
      "geometry": {
         "type": "Point",
         "coordinates": [-38.2405105,-9.3784192]
      }
    },
    {
      "type": "Feature",
      "properties": { 
      "IBGE:COD_UNICO_ENDERECO": "99118947",
      "addr:housenumber": "4 Bloco 08 Térreo Apartamento 04",
      "addr:postcode": "48604-564",
      "addr:street": "Rua A",
      "addr:suburb": "Moxotó",
      "building": "yes"
      },
      "geometry": {
         "type": "Point",
         "coordinates": [-38.236426,-9.3722977]
      }
    },
    {
      "type": "Feature",
      "properties": { 
      "IBGE:COD_UNICO_ENDERECO": "99119014",
      "addr:housenumber": "2 Bloco 11 Térreo Apartamento 02",
      "addr:postcode": "48604-564",
      "addr:street": "Rua B",
      "addr:suburb": "Moxotó",
      "building": "yes"
      },
      "geometry": {
         "type": "Point",
         "coordinates": [-38.2372528,-9.3725799]
      }
    },
    {
      "type": "Feature",
      "properties": { 
      "IBGE:COD_UNICO_ENDERECO": "27363120",
      "addr:housenumber": "307",
      "addr:postcode": "48604-500",
      "addr:street": "Avenida Moxotó",
      "addr:suburb": "Moxotó",
      "building": "yes"
      },
      "geometry": {
         "type": "Point",
         "coordinates": [-38.2402435,-9.3793971]
      }
    },
    {
      "type": "Feature",
      "properties": { 
      "IBGE:COD_UNICO_ENDERECO": "192029132",
      "addr:housenumber": "50",
      "addr:postcode": "48604-502",
      "addr:street": "Rua Canavieiras",
      "addr:suburb": "Moxotó",
      "addr:unit": "2",
      "building": "yes"
      },
      "geometry": {
         "type": "Point",
         "coordinates": [-38.2397387,-9.3809194]
      }
    },
    {
      "type": "Feature",
      "properties": { 
      "IBGE:COD_UNICO_ENDERECO": "192028884",
      "addr:housenumber": "1",
      "addr:postcode": "48604-525",
      "addr:street": "Rua Gongonhas",
      "addr:suburb": "Moxotó",
      "addr:unit": "3",
      "building": "construction"
      },
      "geometry": {
         "type": "Point",
         "coordinates": [-38.2400534,-9.3762287]
      }
    },
    {
      "type": "Feature",
      "properties": { 
      "IBGE:COD_UNICO_ENDERECO": "99119013;99119037",
      "addr:housenumber": "6",
      "addr:postcode": "48604-564",
      "addr:street": "Rua B",
      "addr:suburb": "Moxotó",
      "building": "yes"
      },
      "geometry": {
         "type": "Point",
         "coordinates": [-38.236852,-9.3723692]
      }
    },
    {
      "type": "Feature",
      "properties": { 
      "IBGE:COD_UNICO_ENDERECO": "192028901",
      "addr:housenumber": "3",
      "addr:postcode": "48604-520",
      "addr:street": "Rua da Subestação",
      "addr:suburb": "Moxotó",
      "building": "yes"
      },
      "geometry": {
         "type": "Point",
         "coordinates": [-38.2381546,-9.3790629]
      }
    },
    {
      "type": "Feature",
      "properties": { 
      "IBGE:COD_UNICO_ENDERECO": "192029136",
      "addr:housenumber": "46",
      "addr:postcode": "48604-525",
      "addr:street": "Rua Gongonhas",
      "addr:suburb": "Moxotó",
      "building": "yes"
      },
      "geometry": {
         "type": "Point",
         "coordinates": [-38.2397523,-9.3762777]
      }
    },
    {
      "type": "Feature",
      "properties": { 
      "IBGE:COD_UNICO_ENDERECO": "192028889",
      "addr:housenumber": "1",
      "addr:postcode": "48604-525",
      "addr:street": "Rua Gongonhas",
      "addr:suburb": "Moxotó",
      "addr:unit": "2",
      "building": "yes"
      },
      "geometry": {
         "type": "Point",
         "coordinates": [-38.2400995,-9.3762694]
      }
    },
    {
      "type": "Feature",
      "properties": { 
      "IBGE:COD_UNICO_ENDERECO": "192028848",
      "addr:housenumber": "36",
      "addr:postcode": "48604-500",
      "addr:street": "Avenida Moxotó",
      "addr:suburb": "Moxotó",
      "building": "yes",
      "name": "Porta e Portões de Vidro"
      },
      "geometry": {
         "type": "Point",
         "coordinates": [-38.2406805,-9.3771584]
      }
    },
    {
      "type": "Feature",
      "properties": { 
      "IBGE:COD_UNICO_ENDERECO": "27363087",
      "addr:housenumber": "6",
      "addr:postcode": "48604-520",
      "addr:street": "Rua Subestação",
      "addr:suburb": "Moxotó",
      "building": "yes"
      },
      "geometry": {
         "type": "Point",
         "coordinates": [-38.2385689,-9.3769192]
      }
    },
    {
      "type": "Feature",
      "properties": { 
      "IBGE:COD_UNICO_ENDERECO": "192029117",
      "addr:housenumber": "33",
      "addr:postcode": "48604-502",
      "addr:street": "Rua Canavieiras",
      "addr:suburb": "Moxotó",
      "building": "yes"
      },
      "geometry": {
         "type": "Point",
         "coordinates": [-38.2400316,-9.3810058]
      }
    },
    {
      "type": "Feature",
      "properties": { 
      "IBGE:COD_UNICO_ENDERECO": "27363145",
      "addr:housenumber": "10",
      "addr:postcode": "48604-520",
      "addr:street": "Rua Subestação",
      "addr:suburb": "Moxotó",
      "addr:unit": "1 Casa",
      "building": "construction"
      },
      "geometry": {
         "type": "Point",
         "coordinates": [-38.2385835,-9.3770148]
      }
    },
    {
      "type": "Feature",
      "properties": { 
      "IBGE:COD_UNICO_ENDERECO": "192029173",
      "addr:housenumber": "581",
      "addr:postcode": "48604-500",
      "addr:street": "Avenida Moxotó",
      "addr:suburb": "Moxotó",
      "building": "yes"
      },
      "geometry": {
         "type": "Point",
         "coordinates": [-38.2395976,-9.3828994]
      }
    },
    {
      "type": "Feature",
      "properties": { 
      "IBGE:COD_UNICO_ENDERECO": "99118934",
      "addr:housenumber": "6 Bloco 02 Térreo Apartamento 01",
      "addr:postcode": "48604-564",
      "addr:street": "Rua A",
      "addr:suburb": "Moxotó",
      "building": "yes"
      },
      "geometry": {
         "type": "Point",
         "coordinates": [-38.238082,-9.3732179]
      }
    },
    {
      "type": "Feature",
      "properties": { 
      "IBGE:COD_UNICO_ENDERECO": "27363124",
      "addr:housenumber": "351",
      "addr:postcode": "48604-500",
      "addr:street": "Avenida Moxotó",
      "addr:suburb": "Moxotó",
      "building": "yes"
      },
      "geometry": {
         "type": "Point",
         "coordinates": [-38.240143586937,-9.379758822981]
      }
    },
    {
      "type": "Feature",
      "properties": { 
      "IBGE:COD_UNICO_ENDERECO": "99118965",
      "addr:housenumber": "1",
      "addr:postcode": "48604-564",
      "addr:street": "Rua A",
      "addr:suburb": "Moxotó",
      "building": "yes"
      },
      "geometry": {
         "type": "Point",
         "coordinates": [-38.23699586015,-9.3726075955181]
      }
    },
    {
      "type": "Feature",
      "properties": { 
      "IBGE:COD_UNICO_ENDERECO": "99118998",
      "addr:housenumber": "2 Bloco 09 Térreo Apartamento 02",
      "addr:postcode": "48604-564",
      "addr:street": "Rua B",
      "addr:suburb": "Moxotó",
      "building": "yes"
      },
      "geometry": {
         "type": "Point",
         "coordinates": [-38.2377197,-9.3728253]
      }
    },
    {
      "type": "Feature",
      "properties": { 
      "IBGE:COD_UNICO_ENDERECO": "27363121",
      "addr:housenumber": "6",
      "addr:postcode": "48604-500",
      "addr:street": "Avenida Moxotó",
      "addr:suburb": "Moxotó",
      "building": "yes",
      "name": "Edilene Vidal Estúdio Hair"
      },
      "geometry": {
         "type": "Point",
         "coordinates": [-38.2402488,-9.3793771]
      }
    },
    {
      "type": "Feature",
      "properties": { 
      "IBGE:COD_UNICO_ENDERECO": "27363101",
      "addr:housenumber": "99 Térreo",
      "addr:postcode": "48604-500",
      "addr:street": "Avenida Moxotó",
      "addr:suburb": "Moxotó",
      "building": "yes",
      "name": "Gela Guela"
      },
      "geometry": {
         "type": "Point",
         "coordinates": [-38.240711042332,-9.3775898579953]
      }
    },
    {
      "type": "Feature",
      "properties": { 
      "IBGE:COD_UNICO_ENDERECO": "27363146",
      "addr:housenumber": "5",
      "addr:postcode": "48604-520",
      "addr:street": "Rua da Subestação",
      "addr:suburb": "Moxotó",
      "addr:unit": "Casa 2",
      "building": "construction"
      },
      "geometry": {
         "type": "Point",
         "coordinates": [-38.2383907,-9.3769291]
      }
    },
    {
      "type": "Feature",
      "properties": { 
      "IBGE:COD_UNICO_ENDERECO": "192029037",
      "addr:housenumber": "65",
      "addr:postcode": "48604-508",
      "addr:street": "Rua Canudos",
      "addr:suburb": "Moxotó",
      "building": "construction"
      },
      "geometry": {
         "type": "Point",
         "coordinates": [-38.2397814,-9.3773695]
      }
    },
    {
      "type": "Feature",
      "properties": { 
      "IBGE:COD_UNICO_ENDERECO": "27363148-27363149",
      "addr:housenumber": "134 A",
      "addr:postcode": "48604-520",
      "addr:street": "Rua da Subestação",
      "addr:suburb": "Moxotó",
      "building": "yes"
      },
      "geometry": {
         "type": "Point",
         "coordinates": [-38.2383324,-9.3767306]
      }
    }
  ]
}
