{
  "type": "FeatureCollection",
  "generator": "CSV-CNEFE2GeoJSON.lua 1.5.7 - fidelis.assis@gmail.com",
  "source": "IBGE CNEFE + Faces de Logradouros - 2022",
  "date": "2025-02-02T09:05:29-0300",
  "features": [
    {
      "type": "Feature",
      "properties": { 
      "IBGE:COD_UNICO_ENDERECO": "27306227",
      "addr:housenumber": "281",
      "addr:postcode": "48609-202",
      "addr:street": "Rua Duque de Caxias",
      "addr:suburb": "Paulo Afonso Centro",
      "building": "yes"
      },
      "geometry": {
         "type": "Point",
         "coordinates": [-38.222817,-9.4065747]
      }
    },
    {
      "type": "Feature",
      "properties": { 
      "IBGE:COD_UNICO_ENDERECO": "27306221",
      "addr:housenumber": "315",
      "addr:postcode": "48609-202",
      "addr:street": "Rua Duque de Caxias",
      "addr:suburb": "Paulo Afonso Centro",
      "building": "yes"
      },
      "geometry": {
         "type": "Point",
         "coordinates": [-38.2226426,-9.4068227]
      }
    },
    {
      "type": "Feature",
      "properties": { 
      "IBGE:COD_UNICO_ENDERECO": "27306349",
      "addr:housenumber": "396",
      "addr:postcode": "48609-202",
      "addr:street": "Rua Duque de Caxias",
      "addr:suburb": "Paulo Afonso Centro",
      "addr:unit": "Fundos 2",
      "building": "yes"
      },
      "geometry": {
         "type": "Point",
         "coordinates": [-38.2223242,-9.407554]
      }
    },
    {
      "type": "Feature",
      "properties": { 
      "IBGE:COD_UNICO_ENDERECO": "27306096",
      "addr:housenumber": "798 Térreo",
      "addr:postcode": "48602-150",
      "addr:street": "Rua da Grécia",
      "addr:suburb": "Paulo Afonso Centro",
      "building": "yes",
      "name": "Distribuidora de Coco Verde"
      },
      "geometry": {
         "type": "Point",
         "coordinates": [-38.2240567,-9.4062587]
      }
    },
    {
      "type": "Feature",
      "properties": { 
      "IBGE:COD_UNICO_ENDERECO": "27306197",
      "addr:housenumber": "256",
      "addr:postcode": "48602-140",
      "addr:street": "Rua Presidente Costa e Silva",
      "addr:suburb": "Paulo Afonso Centro",
      "building": "yes"
      },
      "geometry": {
         "type": "Point",
         "coordinates": [-38.2224806,-9.4063051]
      }
    },
    {
      "type": "Feature",
      "properties": { 
      "IBGE:COD_UNICO_ENDERECO": "27306312",
      "addr:housenumber": "495",
      "addr:postcode": "48609-202",
      "addr:street": "Rua Duque de Caxias",
      "addr:suburb": "Paulo Afonso Centro",
      "building": "yes"
      },
      "geometry": {
         "type": "Point",
         "coordinates": [-38.2216794,-9.4079904]
      }
    },
    {
      "type": "Feature",
      "properties": { 
      "IBGE:COD_UNICO_ENDERECO": "27306323",
      "addr:housenumber": "397 Térreo",
      "addr:postcode": "48609-202",
      "addr:street": "Rua Duque de Caxias",
      "addr:suburb": "Paulo Afonso Centro",
      "building": "yes"
      },
      "geometry": {
         "type": "Point",
         "coordinates": [-38.2221456,-9.4074407]
      }
    },
    {
      "type": "Feature",
      "properties": { 
      "IBGE:COD_UNICO_ENDERECO": "27306194",
      "addr:housenumber": "238",
      "addr:postcode": "48602-140",
      "addr:street": "Rua Presidente Costa e Silva",
      "addr:suburb": "Paulo Afonso Centro",
      "building": "yes"
      },
      "geometry": {
         "type": "Point",
         "coordinates": [-38.2225788,-9.4061125]
      }
    },
    {
      "type": "Feature",
      "properties": { 
      "IBGE:COD_UNICO_ENDERECO": "27306259",
      "addr:housenumber": "336",
      "addr:postcode": "48602-140",
      "addr:street": "Rua Presidente Costa e Silva",
      "addr:suburb": "Paulo Afonso Centro",
      "building": "yes",
      "name": "Tiaras Izabele"
      },
      "geometry": {
         "type": "Point",
         "coordinates": [-38.2220901,-9.4069865]
      }
    },
    {
      "type": "Feature",
      "properties": { 
      "IBGE:COD_UNICO_ENDERECO": "27306135",
      "addr:housenumber": "252 A",
      "addr:postcode": "48609-202",
      "addr:street": "Rua Duque de Caxias",
      "addr:suburb": "Paulo Afonso Centro",
      "building": "yes"
      },
      "geometry": {
         "type": "Point",
         "coordinates": [-38.2231002,-9.4063906]
      }
    },
    {
      "type": "Feature",
      "properties": { 
      "IBGE:COD_UNICO_ENDERECO": "27306248",
      "addr:housenumber": "197",
      "addr:postcode": "48609-202",
      "addr:street": "Rua Duque de Caxias",
      "addr:suburb": "Paulo Afonso Centro",
      "addr:unit": "Fundos 3",
      "building": "yes"
      },
      "geometry": {
         "type": "Point",
         "coordinates": [-38.2231293,-9.4059085]
      }
    },
    {
      "type": "Feature",
      "properties": { 
      "IBGE:COD_UNICO_ENDERECO": "27306104",
      "addr:housenumber": "275 A",
      "addr:postcode": "48602-150",
      "addr:street": "Rua da Grécia",
      "addr:suburb": "Paulo Afonso Centro",
      "addr:unit": "Térreo",
      "building": "yes"
      },
      "geometry": {
         "type": "Point",
         "coordinates": [-38.2235219,-9.4058799]
      }
    },
    {
      "type": "Feature",
      "properties": { 
      "IBGE:COD_UNICO_ENDERECO": "27306143",
      "addr:housenumber": "290 Térreo",
      "addr:postcode": "48609-202",
      "addr:street": "Rua Duque de Caxias",
      "addr:suburb": "Paulo Afonso Centro",
      "building": "yes"
      },
      "geometry": {
         "type": "Point",
         "coordinates": [-38.2229305,-9.4066847]
      }
    },
    {
      "type": "Feature",
      "properties": { 
      "IBGE:COD_UNICO_ENDERECO": "27306281",
      "addr:housenumber": "442",
      "addr:postcode": "48602-140",
      "addr:street": "Rua Presidente Costa e Silva",
      "addr:suburb": "Paulo Afonso Centro",
      "building": "yes"
      },
      "geometry": {
         "type": "Point",
         "coordinates": [-38.2214263,-9.4078999]
      }
    },
    {
      "type": "Feature",
      "properties": { 
      "IBGE:COD_UNICO_ENDERECO": "27306341",
      "addr:housenumber": "374 Térreo",
      "addr:postcode": "48609-202",
      "addr:street": "Rua Duque de Caxias",
      "addr:suburb": "Paulo Afonso Centro",
      "building": "yes"
      },
      "geometry": {
         "type": "Point",
         "coordinates": [-38.2224436,-9.4073291]
      }
    },
    {
      "type": "Feature",
      "properties": { 
      "IBGE:COD_UNICO_ENDERECO": "27306253",
      "addr:housenumber": "724",
      "addr:postcode": "48601-410",
      "addr:street": "Rua Manoel Novais",
      "addr:suburb": "Paulo Afonso Centro",
      "building": "yes",
      "description": "CNEFE 2022 Depósito Êxodo Controle de Pragas"
      },
      "geometry": {
         "type": "Point",
         "coordinates": [-38.2222865,-9.4069935]
      }
    },
    {
      "type": "Feature",
      "properties": { 
      "IBGE:COD_UNICO_ENDERECO": "223856614",
      "addr:housenumber": "801",
      "addr:postcode": "48601-320",
      "addr:street": "Avenida José Hemetério de Carvalho",
      "addr:suburb": "Paulo Afonso Centro",
      "addr:unit": "Fundos",
      "building": "yes"
      },
      "geometry": {
         "type": "Point",
         "coordinates": [-38.2220307,-9.4083833]
      }
    },
    {
      "type": "Feature",
      "properties": { 
      "IBGE:COD_UNICO_ENDERECO": "223856382",
      "addr:housenumber": "796",
      "addr:postcode": "48601-320",
      "addr:street": "Avenida José Hemetério de Carvalho",
      "addr:suburb": "Paulo Afonso Centro",
      "amenity": "pub",
      "building": "yes",
      "name": "Bar Tricolor"
      },
      "geometry": {
         "type": "Point",
         "coordinates": [-38.2241755,-9.4062959]
      }
    },
    {
      "type": "Feature",
      "properties": { 
      "IBGE:COD_UNICO_ENDERECO": "223856447",
      "addr:housenumber": "725",
      "addr:postcode": "48601-410",
      "addr:street": "Rua Manoel Novais",
      "addr:suburb": "Paulo Afonso Centro",
      "addr:unit": "Fundos 3",
      "building": "yes"
      },
      "geometry": {
         "type": "Point",
         "coordinates": [-38.2224114,-9.406823]
      }
    },
    {
      "type": "Feature",
      "properties": { 
      "IBGE:COD_UNICO_ENDERECO": "223856372",
      "addr:housenumber": "342",
      "addr:postcode": "48609-202",
      "addr:street": "Rua Duque de Caxias",
      "addr:suburb": "Paulo Afonso Centro",
      "building": "yes",
      "car:repair": "yes",
      "craft": "upholsterer",
      "description": "CNEFE 2022 Capotaria"
      },
      "geometry": {
         "type": "Point",
         "coordinates": [-38.2226631,-9.4070309]
      }
    },
    {
      "type": "Feature",
      "properties": { 
      "IBGE:COD_UNICO_ENDERECO": "27306240",
      "addr:housenumber": "215",
      "addr:postcode": "48609-202",
      "addr:street": "Rua Duque de Caxias",
      "addr:suburb": "Paulo Afonso Centro",
      "building": "yes"
      },
      "geometry": {
         "type": "Point",
         "coordinates": [-38.2230964,-9.4060823]
      }
    },
    {
      "type": "Feature",
      "properties": { 
      "IBGE:COD_UNICO_ENDERECO": "27306376",
      "addr:housenumber": "34 Frente",
      "addr:postcode": "48601-430",
      "addr:street": "Rua dos Navegantes",
      "addr:suburb": "Paulo Afonso Centro",
      "building": "yes"
      },
      "geometry": {
         "type": "Point",
         "coordinates": [-38.2215391,-9.4085954]
      }
    },
    {
      "type": "Feature",
      "properties": { 
      "IBGE:COD_UNICO_ENDERECO": "27306350",
      "addr:housenumber": "396",
      "addr:postcode": "48609-202",
      "addr:street": "Rua Duque de Caxias",
      "addr:suburb": "Paulo Afonso Centro",
      "addr:unit": "Fundos 3",
      "building": "construction"
      },
      "geometry": {
         "type": "Point",
         "coordinates": [-38.2223032,-9.4075787]
      }
    },
    {
      "type": "Feature",
      "properties": { 
      "IBGE:COD_UNICO_ENDERECO": "27306150",
      "addr:housenumber": "326",
      "addr:postcode": "48609-202",
      "addr:street": "Rua Duque de Caxias",
      "addr:suburb": "Paulo Afonso Centro",
      "building": "yes"
      },
      "geometry": {
         "type": "Point",
         "coordinates": [-38.2227652,-9.4069182]
      }
    },
    {
      "type": "Feature",
      "properties": { 
      "IBGE:COD_UNICO_ENDERECO": "27306280",
      "addr:housenumber": "436",
      "addr:postcode": "48602-140",
      "addr:street": "Rua Presidente Costa e Silva",
      "addr:suburb": "Paulo Afonso Centro",
      "building": "yes"
      },
      "geometry": {
         "type": "Point",
         "coordinates": [-38.2214853,-9.4078187]
      }
    },
    {
      "type": "Feature",
      "properties": { 
      "IBGE:COD_UNICO_ENDERECO": "27306251",
      "addr:housenumber": "269",
      "addr:postcode": "48609-202",
      "addr:street": "Rua Duque de Caxias",
      "addr:suburb": "Paulo Afonso Centro",
      "building": "yes"
      },
      "geometry": {
         "type": "Point",
         "coordinates": [-38.222841,-9.4065325]
      }
    },
    {
      "type": "Feature",
      "properties": { 
      "IBGE:COD_UNICO_ENDERECO": "223856348",
      "addr:housenumber": "275",
      "addr:postcode": "48602-150",
      "addr:street": "Rua da Grécia",
      "addr:suburb": "Paulo Afonso Centro",
      "building": "yes"
      },
      "geometry": {
         "type": "Point",
         "coordinates": [-38.2235153,-9.4058764]
      }
    },
    {
      "type": "Feature",
      "properties": { 
      "IBGE:COD_UNICO_ENDERECO": "27306286",
      "addr:housenumber": "470",
      "addr:postcode": "48602-140",
      "addr:street": "Rua Presidente Costa e Silva",
      "addr:suburb": "Paulo Afonso Centro",
      "building": "yes"
      },
      "geometry": {
         "type": "Point",
         "coordinates": [-38.2213287,-9.4080341]
      }
    },
    {
      "type": "Feature",
      "properties": { 
      "IBGE:COD_UNICO_ENDERECO": "27306290",
      "addr:housenumber": "494",
      "addr:postcode": "48602-140",
      "addr:street": "Rua Presidente Costa e Silva",
      "addr:suburb": "Paulo Afonso Centro",
      "building": "yes"
      },
      "geometry": {
         "type": "Point",
         "coordinates": [-38.2212232,-9.4081793]
      }
    },
    {
      "type": "Feature",
      "properties": { 
      "IBGE:COD_UNICO_ENDERECO": "27306147;223856369;223856371",
      "addr:housenumber": "308",
      "addr:postcode": "48609-202",
      "addr:street": "Rua Duque de Caxias",
      "addr:suburb": "Paulo Afonso Centro",
      "building": "yes"
      },
      "geometry": {
         "type": "Point",
         "coordinates": [-38.2228443,-9.4068065]
      }
    },
    {
      "type": "Feature",
      "properties": { 
      "IBGE:COD_UNICO_ENDERECO": "27306119",
      "addr:housenumber": "196",
      "addr:postcode": "48609-202",
      "addr:street": "Rua Duque de Caxias",
      "addr:suburb": "Paulo Afonso Centro",
      "addr:unit": "Fundos 2",
      "building": "yes"
      },
      "geometry": {
         "type": "Point",
         "coordinates": [-38.2233923,-9.4059784]
      }
    },
    {
      "type": "Feature",
      "properties": { 
      "IBGE:COD_UNICO_ENDERECO": "27306307",
      "addr:housenumber": "517 B",
      "addr:postcode": "48609-202",
      "addr:street": "Rua Duque de Caxias",
      "addr:suburb": "Paulo Afonso Centro",
      "building": "yes"
      },
      "geometry": {
         "type": "Point",
         "coordinates": [-38.2215032,-9.4081982]
      }
    },
    {
      "type": "Feature",
      "properties": { 
      "IBGE:COD_UNICO_ENDERECO": "27306191",
      "addr:housenumber": "226",
      "addr:postcode": "48602-140",
      "addr:street": "Rua Presidente Costa e Silva",
      "addr:suburb": "Paulo Afonso Centro",
      "building": "yes"
      },
      "geometry": {
         "type": "Point",
         "coordinates": [-38.2226243,-9.4060203]
      }
    },
    {
      "type": "Feature",
      "properties": { 
      "IBGE:COD_UNICO_ENDERECO": "27306325",
      "addr:housenumber": "391",
      "addr:postcode": "48609-202",
      "addr:street": "Rua Duque de Caxias",
      "addr:suburb": "Paulo Afonso Centro",
      "building": "yes"
      },
      "geometry": {
         "type": "Point",
         "coordinates": [-38.2222103,-9.4073644]
      }
    },
    {
      "type": "Feature",
      "properties": { 
      "IBGE:COD_UNICO_ENDERECO": "27306214",
      "addr:housenumber": "725",
      "addr:postcode": "48601-410",
      "addr:street": "Rua Manoel Novais",
      "addr:suburb": "Paulo Afonso Centro",
      "addr:unit": "Fundos 2",
      "building": "yes"
      },
      "geometry": {
         "type": "Point",
         "coordinates": [-38.2223892,-9.4068118]
      }
    },
    {
      "type": "Feature",
      "properties": { 
      "IBGE:COD_UNICO_ENDERECO": "27306354",
      "addr:housenumber": "418",
      "addr:postcode": "48609-202",
      "addr:street": "Rua Duque de Caxias",
      "addr:suburb": "Paulo Afonso Centro",
      "building": "yes"
      },
      "geometry": {
         "type": "Point",
         "coordinates": [-38.222177,-9.4076435]
      }
    },
    {
      "type": "Feature",
      "properties": { 
      "IBGE:COD_UNICO_ENDERECO": "27306262",
      "addr:housenumber": "356 Térreo",
      "addr:postcode": "48602-140",
      "addr:street": "Rua Presidente Costa e Silva",
      "addr:suburb": "Paulo Afonso Centro",
      "building": "yes"
      },
      "geometry": {
         "type": "Point",
         "coordinates": [-38.2219621,-9.4071627]
      }
    },
    {
      "type": "Feature",
      "properties": { 
      "IBGE:COD_UNICO_ENDERECO": "27306256",
      "addr:housenumber": "326 Térreo",
      "addr:postcode": "48602-140",
      "addr:street": "Rua Presidente Costa e Silva",
      "addr:suburb": "Paulo Afonso Centro",
      "building": "yes"
      },
      "geometry": {
         "type": "Point",
         "coordinates": [-38.2221202,-9.4068698]
      }
    },
    {
      "type": "Feature",
      "properties": { 
      "IBGE:COD_UNICO_ENDERECO": "27306123",
      "addr:housenumber": "228",
      "addr:postcode": "48609-202",
      "addr:street": "Rua Duque de Caxias",
      "addr:suburb": "Paulo Afonso Centro",
      "building": "yes"
      },
      "geometry": {
         "type": "Point",
         "coordinates": [-38.2232316,-9.4061592]
      }
    },
    {
      "type": "Feature",
      "properties": { 
      "IBGE:COD_UNICO_ENDERECO": "27306238",
      "addr:housenumber": "223",
      "addr:postcode": "48609-202",
      "addr:street": "Rua Duque de Caxias",
      "addr:suburb": "Paulo Afonso Centro",
      "building": "yes"
      },
      "geometry": {
         "type": "Point",
         "coordinates": [-38.2230318,-9.4061961]
      }
    },
    {
      "type": "Feature",
      "properties": { 
      "IBGE:COD_UNICO_ENDERECO": "27306331",
      "addr:housenumber": "361",
      "addr:postcode": "48609-202",
      "addr:street": "Rua Duque de Caxias",
      "addr:suburb": "Paulo Afonso Centro",
      "building": "yes"
      },
      "geometry": {
         "type": "Point",
         "coordinates": [-38.2224098,-9.4071292]
      }
    },
    {
      "type": "Feature",
      "properties": { 
      "IBGE:COD_UNICO_ENDERECO": "27306250;223856477",
      "addr:housenumber": "193",
      "addr:postcode": "48609-202",
      "addr:street": "Rua Duque de Caxias",
      "addr:suburb": "Paulo Afonso Centro",
      "building": "construction"
      },
      "geometry": {
         "type": "Point",
         "coordinates": [-38.2232364,-9.4058257]
      }
    },
    {
      "type": "Feature",
      "properties": { 
      "IBGE:COD_UNICO_ENDERECO": "27306107;27306109-27306110",
      "addr:housenumber": "367",
      "addr:postcode": "48602-150",
      "addr:street": "Rua da Grécia",
      "addr:suburb": "Paulo Afonso Centro",
      "building": "yes"
      },
      "geometry": {
         "type": "Point",
         "coordinates": [-38.2240246,-9.4062314]
      }
    },
    {
      "type": "Feature",
      "properties": { 
      "IBGE:COD_UNICO_ENDERECO": "27306185",
      "addr:housenumber": "196",
      "addr:postcode": "48602-140",
      "addr:street": "Rua Presidente Costa e Silva",
      "addr:suburb": "Paulo Afonso Centro",
      "building": "yes"
      },
      "geometry": {
         "type": "Point",
         "coordinates": [-38.2227201,-9.4058263]
      }
    },
    {
      "type": "Feature",
      "properties": { 
      "IBGE:COD_UNICO_ENDERECO": "27306258",
      "addr:housenumber": "332",
      "addr:postcode": "48602-140",
      "addr:street": "Rua Presidente Costa e Silva",
      "addr:suburb": "Paulo Afonso Centro",
      "building": "yes"
      },
      "geometry": {
         "type": "Point",
         "coordinates": [-38.2220995,-9.4069736]
      }
    },
    {
      "type": "Feature",
      "properties": { 
      "IBGE:COD_UNICO_ENDERECO": "27306254",
      "addr:housenumber": "724",
      "addr:postcode": "48601-410",
      "addr:street": "Rua Manoel Novais",
      "addr:suburb": "Paulo Afonso Centro",
      "building": "yes"
      },
      "geometry": {
         "type": "Point",
         "coordinates": [-38.222286455832,-9.4069936616562]
      }
    },
    {
      "type": "Feature",
      "properties": { 
      "IBGE:COD_UNICO_ENDERECO": "27306126",
      "addr:housenumber": "228",
      "addr:postcode": "48609-202",
      "addr:street": "Rua Duque de Caxias",
      "addr:suburb": "Paulo Afonso Centro",
      "addr:unit": "Fundos 3",
      "building": "yes"
      },
      "geometry": {
         "type": "Point",
         "coordinates": [-38.2232345,-9.4062645]
      }
    },
    {
      "type": "Feature",
      "properties": { 
      "IBGE:COD_UNICO_ENDERECO": "27306387",
      "addr:housenumber": "801 A",
      "addr:postcode": "48601-320",
      "addr:street": "Avenida José Hemetério de Carvalho",
      "addr:suburb": "Paulo Afonso Centro",
      "building": "yes"
      },
      "geometry": {
         "type": "Point",
         "coordinates": [-38.2220666,-9.4084245]
      }
    },
    {
      "type": "Feature",
      "properties": { 
      "IBGE:COD_UNICO_ENDERECO": "27306228",
      "addr:housenumber": "281",
      "addr:postcode": "48609-202",
      "addr:street": "Rua Duque de Caxias",
      "addr:suburb": "Paulo Afonso Centro",
      "addr:unit": "Fundos 1",
      "building": "yes"
      },
      "geometry": {
         "type": "Point",
         "coordinates": [-38.2227679,-9.4065508]
      }
    },
    {
      "type": "Feature",
      "properties": { 
      "IBGE:COD_UNICO_ENDERECO": "27306149",
      "addr:housenumber": "320",
      "addr:postcode": "48609-202",
      "addr:street": "Rua Duque de Caxias",
      "addr:suburb": "Paulo Afonso Centro",
      "building": "yes"
      },
      "geometry": {
         "type": "Point",
         "coordinates": [-38.2227782,-9.4069]
      }
    },
    {
      "type": "Feature",
      "properties": { 
      "IBGE:COD_UNICO_ENDERECO": "27306234",
      "addr:housenumber": "245",
      "addr:postcode": "48609-202",
      "addr:street": "Rua Duque de Caxias",
      "addr:suburb": "Paulo Afonso Centro",
      "building": "yes",
      "name": "Reforço Escolar Alfabetização",
      "office": "tutoring"
      },
      "geometry": {
         "type": "Point",
         "coordinates": [-38.22291,-9.4064109]
      }
    },
    {
      "type": "Feature",
      "properties": { 
      "IBGE:COD_UNICO_ENDERECO": "27306381",
      "addr:housenumber": "26",
      "addr:postcode": "48601-430",
      "addr:street": "Rua dos Navegantes",
      "addr:suburb": "Paulo Afonso Centro",
      "building": "yes"
      },
      "geometry": {
         "type": "Point",
         "coordinates": [-38.2215847,-9.4086384]
      }
    },
    {
      "type": "Feature",
      "properties": { 
      "IBGE:COD_UNICO_ENDERECO": "27306345",
      "addr:housenumber": "386",
      "addr:postcode": "48609-202",
      "addr:street": "Rua Duque de Caxias",
      "addr:suburb": "Paulo Afonso Centro",
      "building": "yes"
      },
      "geometry": {
         "type": "Point",
         "coordinates": [-38.2223658,-9.4074208]
      }
    },
    {
      "type": "Feature",
      "properties": { 
      "IBGE:COD_UNICO_ENDERECO": "223856591",
      "addr:housenumber": "530",
      "addr:postcode": "48609-202",
      "addr:street": "Rua Duque de Caxias",
      "addr:suburb": "Paulo Afonso Centro",
      "building": "yes"
      },
      "geometry": {
         "type": "Point",
         "coordinates": [-38.2214855,-9.4084588]
      }
    },
    {
      "type": "Feature",
      "properties": { 
      "IBGE:COD_UNICO_ENDERECO": "27306390",
      "addr:housenumber": "877",
      "addr:postcode": "48601-320",
      "addr:street": "Avenida José Hemetério de Carvalho",
      "addr:suburb": "Paulo Afonso Centro",
      "building": "yes"
      },
      "geometry": {
         "type": "Point",
         "coordinates": [-38.2223543,-9.4081229]
      }
    },
    {
      "type": "Feature",
      "properties": { 
      "IBGE:COD_UNICO_ENDERECO": "27306330",
      "addr:housenumber": "367",
      "addr:postcode": "48609-202",
      "addr:street": "Rua Duque de Caxias",
      "addr:suburb": "Paulo Afonso Centro",
      "building": "yes"
      },
      "geometry": {
         "type": "Point",
         "coordinates": [-38.2223324,-9.4072204]
      }
    },
    {
      "type": "Feature",
      "properties": { 
      "IBGE:COD_UNICO_ENDERECO": "27306285",
      "addr:housenumber": "464",
      "addr:postcode": "48602-140",
      "addr:street": "Rua Presidente Costa e Silva",
      "addr:suburb": "Paulo Afonso Centro",
      "building": "yes"
      },
      "geometry": {
         "type": "Point",
         "coordinates": [-38.2214011,-9.4079345]
      }
    },
    {
      "type": "Feature",
      "properties": { 
      "IBGE:COD_UNICO_ENDERECO": "27306117",
      "addr:housenumber": "196",
      "addr:postcode": "48609-202",
      "addr:street": "Rua Duque de Caxias",
      "addr:suburb": "Paulo Afonso Centro",
      "building": "yes"
      },
      "geometry": {
         "type": "Point",
         "coordinates": [-38.2233424,-9.4059562]
      }
    },
    {
      "type": "Feature",
      "properties": { 
      "IBGE:COD_UNICO_ENDERECO": "27306366;27306374",
      "addr:housenumber": "508",
      "addr:postcode": "48609-202",
      "addr:street": "Rua Duque de Caxias",
      "addr:suburb": "Paulo Afonso Centro",
      "building": "yes"
      },
      "geometry": {
         "type": "Point",
         "coordinates": [-38.2216417,-9.4082747]
      }
    },
    {
      "type": "Feature",
      "properties": { 
      "IBGE:COD_UNICO_ENDERECO": "27306289",
      "addr:housenumber": "488",
      "addr:postcode": "48602-140",
      "addr:street": "Rua Presidente Costa e Silva",
      "addr:suburb": "Paulo Afonso Centro",
      "building": "yes"
      },
      "geometry": {
         "type": "Point",
         "coordinates": [-38.2212132,-9.408193]
      }
    },
    {
      "type": "Feature",
      "properties": { 
      "IBGE:COD_UNICO_ENDERECO": "27306121",
      "addr:housenumber": "202",
      "addr:postcode": "48609-202",
      "addr:street": "Rua Duque de Caxias",
      "addr:suburb": "Paulo Afonso Centro",
      "building": "yes"
      },
      "geometry": {
         "type": "Point",
         "coordinates": [-38.2233022,-9.40603]
      }
    },
    {
      "type": "Feature",
      "properties": { 
      "IBGE:COD_UNICO_ENDERECO": "27306209",
      "addr:housenumber": "304",
      "addr:postcode": "48602-140",
      "addr:street": "Rua Presidente Costa e Silva",
      "addr:suburb": "Paulo Afonso Centro",
      "building": "yes"
      },
      "geometry": {
         "type": "Point",
         "coordinates": [-38.2222716,-9.4067027]
      }
    },
    {
      "type": "Feature",
      "properties": { 
      "IBGE:COD_UNICO_ENDERECO": "27306236",
      "addr:housenumber": "233",
      "addr:postcode": "48609-202",
      "addr:street": "Rua Duque de Caxias",
      "addr:suburb": "Paulo Afonso Centro",
      "building": "yes"
      },
      "geometry": {
         "type": "Point",
         "coordinates": [-38.2229999,-9.4062524]
      }
    },
    {
      "type": "Feature",
      "properties": { 
      "IBGE:COD_UNICO_ENDERECO": "27306388",
      "addr:housenumber": "779",
      "addr:postcode": "48601-320",
      "addr:street": "Avenida José Hemetério de Carvalho",
      "addr:suburb": "Paulo Afonso Centro",
      "building": "yes"
      },
      "geometry": {
         "type": "Point",
         "coordinates": [-38.2221694,-9.4083167]
      }
    },
    {
      "type": "Feature",
      "properties": { 
      "IBGE:COD_UNICO_ENDERECO": "27306198",
      "addr:housenumber": "262",
      "addr:postcode": "48602-140",
      "addr:street": "Rua Presidente Costa e Silva",
      "addr:suburb": "Paulo Afonso Centro",
      "building": "yes"
      },
      "geometry": {
         "type": "Point",
         "coordinates": [-38.2224422,-9.406378]
      }
    },
    {
      "type": "Feature",
      "properties": { 
      "IBGE:COD_UNICO_ENDERECO": "27306372",
      "addr:housenumber": "532",
      "addr:postcode": "48609-202",
      "addr:street": "Rua Duque de Caxias",
      "addr:suburb": "Paulo Afonso Centro",
      "building": "yes"
      },
      "geometry": {
         "type": "Point",
         "coordinates": [-38.2215603,-9.4083707]
      }
    },
    {
      "type": "Feature",
      "properties": { 
      "IBGE:COD_UNICO_ENDERECO": "27306314",
      "addr:housenumber": "499",
      "addr:postcode": "48609-202",
      "addr:street": "Rua Duque de Caxias",
      "addr:suburb": "Paulo Afonso Centro",
      "building": "yes"
      },
      "geometry": {
         "type": "Point",
         "coordinates": [-38.2218257,-9.4078179]
      }
    },
    {
      "type": "Feature",
      "properties": { 
      "IBGE:COD_UNICO_ENDERECO": "27306164",
      "addr:housenumber": "780 AC",
      "addr:postcode": "48601-320",
      "addr:street": "Avenida José Hemetério de Carvalho",
      "addr:suburb": "Paulo Afonso Centro",
      "building": "warehouse",
      "description": "CNEFE 2022 Depósito"
      },
      "geometry": {
         "type": "Point",
         "coordinates": [-38.2240094,-9.4063945]
      }
    },
    {
      "type": "Feature",
      "properties": { 
      "IBGE:COD_UNICO_ENDERECO": "27306134",
      "addr:housenumber": "252 Térreo",
      "addr:postcode": "48609-202",
      "addr:street": "Rua Duque de Caxias",
      "addr:suburb": "Paulo Afonso Centro",
      "building": "yes"
      },
      "geometry": {
         "type": "Point",
         "coordinates": [-38.2231077,-9.4063775]
      }
    },
    {
      "type": "Feature",
      "properties": { 
      "IBGE:COD_UNICO_ENDERECO": "27306167",
      "addr:housenumber": "189",
      "addr:postcode": "48602-150",
      "addr:street": "Rua da Grécia",
      "addr:suburb": "Paulo Afonso Centro",
      "building": "yes"
      },
      "geometry": {
         "type": "Point",
         "coordinates": [-38.2232568,-9.4057284]
      }
    },
    {
      "type": "Feature",
      "properties": { 
      "IBGE:COD_UNICO_ENDERECO": "27306324",
      "addr:housenumber": "397",
      "addr:postcode": "48609-202",
      "addr:street": "Rua Duque de Caxias",
      "addr:suburb": "Paulo Afonso Centro",
      "building": "yes"
      },
      "geometry": {
         "type": "Point",
         "coordinates": [-38.2221837,-9.4073959]
      }
    },
    {
      "type": "Feature",
      "properties": { 
      "IBGE:COD_UNICO_ENDERECO": "27305001",
      "addr:housenumber": "147",
      "addr:postcode": "48608-230",
      "addr:street": "Rua do Bom Conselho",
      "addr:suburb": "Paulo Afonso Centro",
      "addr:unit": "Armazém 147",
      "building": "construction"
      },
      "geometry": {
         "type": "Point",
         "coordinates": [-38.2147018,-9.4014148]
      }
    },
    {
      "type": "Feature",
      "properties": { 
      "IBGE:COD_UNICO_ENDERECO": "27306132",
      "addr:housenumber": "240",
      "addr:postcode": "48609-202",
      "addr:street": "Rua Duque de Caxias",
      "addr:suburb": "Paulo Afonso Centro",
      "building": "yes"
      },
      "geometry": {
         "type": "Point",
         "coordinates": [-38.2231241,-9.4063485]
      }
    },
    {
      "type": "Feature",
      "properties": { 
      "IBGE:COD_UNICO_ENDERECO": "27306295",
      "addr:housenumber": "561 Térreo",
      "addr:postcode": "48601-430",
      "addr:street": "Rua dos Navegantes",
      "addr:suburb": "Paulo Afonso Centro",
      "building": "yes"
      },
      "geometry": {
         "type": "Point",
         "coordinates": [-38.2210563,-9.4083841]
      }
    },
    {
      "type": "Feature",
      "properties": { 
      "IBGE:COD_UNICO_ENDERECO": "27306234",
      "addr:housenumber": "245",
      "addr:postcode": "48609-202",
      "addr:street": "Rua Duque de Caxias",
      "addr:suburb": "Paulo Afonso Centro",
      "building": "yes"
      },
      "geometry": {
         "type": "Point",
         "coordinates": [-38.222902299451,-9.4064124613881]
      }
    },
    {
      "type": "Feature",
      "properties": { 
      "IBGE:COD_UNICO_ENDERECO": "27306351",
      "addr:housenumber": "396",
      "addr:postcode": "48609-202",
      "addr:street": "Rua Duque de Caxias",
      "addr:suburb": "Paulo Afonso Centro",
      "addr:unit": "Fundos 4",
      "building": "construction"
      },
      "geometry": {
         "type": "Point",
         "coordinates": [-38.222304946057,-9.4075836000032]
      }
    },
    {
      "type": "Feature",
      "properties": { 
      "IBGE:COD_UNICO_ENDERECO": "27306264",
      "addr:housenumber": "366",
      "addr:postcode": "48602-140",
      "addr:street": "Rua Presidente Costa e Silva",
      "addr:suburb": "Paulo Afonso Centro",
      "building": "yes"
      },
      "geometry": {
         "type": "Point",
         "coordinates": [-38.2219202,-9.4072203]
      }
    },
    {
      "type": "Feature",
      "properties": { 
      "IBGE:COD_UNICO_ENDERECO": "27306112",
      "addr:housenumber": "180",
      "addr:postcode": "48609-202",
      "addr:street": "Rua Duque de Caxias",
      "addr:suburb": "Paulo Afonso Centro",
      "building": "yes"
      },
      "geometry": {
         "type": "Point",
         "coordinates": [-38.2233911,-9.4058531]
      }
    },
    {
      "type": "Feature",
      "properties": { 
      "IBGE:COD_UNICO_ENDERECO": "27306261",
      "addr:housenumber": "348",
      "addr:postcode": "48602-140",
      "addr:street": "Rua Presidente Costa e Silva",
      "addr:suburb": "Paulo Afonso Centro",
      "building": "yes",
      "name": "Comércio em Geral",
      "shop": "yes"
      },
      "geometry": {
         "type": "Point",
         "coordinates": [-38.2219936,-9.4071193]
      }
    },
    {
      "type": "Feature",
      "properties": { 
      "IBGE:COD_UNICO_ENDERECO": "27306282;223856513;223856517",
      "addr:housenumber": "448",
      "addr:postcode": "48602-140",
      "addr:street": "Rua Presidente Costa e Silva",
      "addr:suburb": "Paulo Afonso Centro",
      "building": "yes"
      },
      "geometry": {
         "type": "Point",
         "coordinates": [-38.221445,-9.407874]
      }
    },
    {
      "type": "Feature",
      "properties": { 
      "IBGE:COD_UNICO_ENDERECO": "27306166",
      "addr:housenumber": "189 Térreo",
      "addr:postcode": "48602-150",
      "addr:street": "Rua da Grécia",
      "addr:suburb": "Paulo Afonso Centro",
      "amenity": "studio",
      "building": "yes",
      "name": "Rádio Web Caiçara",
      "studio": "radio"
      },
      "geometry": {
         "type": "Point",
         "coordinates": [-38.2233225,-9.405729]
      }
    },
    {
      "type": "Feature",
      "properties": { 
      "IBGE:COD_UNICO_ENDERECO": "27306148",
      "addr:housenumber": "314",
      "addr:postcode": "48609-202",
      "addr:street": "Rua Duque de Caxias",
      "addr:suburb": "Paulo Afonso Centro",
      "building": "yes"
      },
      "geometry": {
         "type": "Point",
         "coordinates": [-38.2228624,-9.4067809]
      }
    },
    {
      "type": "Feature",
      "properties": { 
      "IBGE:COD_UNICO_ENDERECO": "27306177;223856396",
      "addr:housenumber": "153",
      "addr:postcode": "48602-150",
      "addr:street": "Rua da Grécia",
      "addr:suburb": "Paulo Afonso Centro",
      "building": "construction"
      },
      "geometry": {
         "type": "Point",
         "coordinates": [-38.2228734,-9.4055152]
      }
    },
    {
      "type": "Feature",
      "properties": { 
      "IBGE:COD_UNICO_ENDERECO": "27306232",
      "addr:housenumber": "257",
      "addr:postcode": "48609-202",
      "addr:street": "Rua Duque de Caxias",
      "addr:suburb": "Paulo Afonso Centro",
      "building": "yes"
      },
      "geometry": {
         "type": "Point",
         "coordinates": [-38.2228798,-9.4064641]
      }
    },
    {
      "type": "Feature",
      "properties": { 
      "IBGE:COD_UNICO_ENDERECO": "27306252",
      "addr:housenumber": "724 Térreo",
      "addr:postcode": "48601-410",
      "addr:street": "Rua Manoel Novais",
      "addr:suburb": "Paulo Afonso Centro",
      "building": "yes",
      "name": "Êxodo Controle de Pragas"
      },
      "geometry": {
         "type": "Point",
         "coordinates": [-38.2223319,-9.4070164]
      }
    },
    {
      "type": "Feature",
      "properties": { 
      "IBGE:COD_UNICO_ENDERECO": "27306322",
      "addr:housenumber": "403",
      "addr:postcode": "48609-202",
      "addr:street": "Rua Duque de Caxias",
      "addr:suburb": "Paulo Afonso Centro",
      "building": "yes"
      },
      "geometry": {
         "type": "Point",
         "coordinates": [-38.222156,-9.4074285]
      }
    },
    {
      "type": "Feature",
      "properties": { 
      "IBGE:COD_UNICO_ENDERECO": "27306210",
      "addr:housenumber": "620",
      "addr:postcode": "48601-410",
      "addr:street": "Rua Manoel Novais",
      "addr:suburb": "Paulo Afonso Centro",
      "building": "yes",
      "name": "Mercadinho Isidro",
      "shop": "convenience"
      },
      "geometry": {
         "type": "Point",
         "coordinates": [-38.2221808,-9.406814]
      }
    },
    {
      "type": "Feature",
      "properties": { 
      "IBGE:COD_UNICO_ENDERECO": "27305005",
      "addr:housenumber": "77",
      "addr:postcode": "48608-230",
      "addr:street": "Rua do Bom Conselho",
      "addr:suburb": "Paulo Afonso Centro",
      "building": "construction"
      },
      "geometry": {
         "type": "Point",
         "coordinates": [-38.2144617,-9.4010124]
      }
    },
    {
      "type": "Feature",
      "properties": { 
      "IBGE:COD_UNICO_ENDERECO": "27306383",
      "addr:housenumber": "16",
      "addr:postcode": "48601-430",
      "addr:street": "Rua dos Navegantes",
      "addr:suburb": "Paulo Afonso Centro",
      "building": "yes"
      },
      "geometry": {
         "type": "Point",
         "coordinates": [-38.2216403,-9.4086898]
      }
    },
    {
      "type": "Feature",
      "properties": { 
      "IBGE:COD_UNICO_ENDERECO": "223856388",
      "addr:housenumber": "7",
      "addr:postcode": "48601-320",
      "addr:street": "Avenida José Hemetério de Carvalho",
      "addr:suburb": "Paulo Afonso Centro",
      "building": "yes"
      },
      "geometry": {
         "type": "Point",
         "coordinates": [-38.2238312,-9.4065803]
      }
    },
    {
      "type": "Feature",
      "properties": { 
      "IBGE:COD_UNICO_ENDERECO": "27306155",
      "addr:housenumber": "710",
      "addr:postcode": "48601-410",
      "addr:street": "Rua Manoel Novais",
      "addr:suburb": "Paulo Afonso Centro",
      "building": "yes"
      },
      "geometry": {
         "type": "Point",
         "coordinates": [-38.2228172,-9.4071801]
      }
    },
    {
      "type": "Feature",
      "properties": { 
      "IBGE:COD_UNICO_ENDERECO": "27306261",
      "addr:housenumber": "348",
      "addr:postcode": "48602-140",
      "addr:street": "Rua Presidente Costa e Silva",
      "addr:suburb": "Paulo Afonso Centro",
      "building": "yes"
      },
      "geometry": {
         "type": "Point",
         "coordinates": [-38.221997107691,-9.4071200951224]
      }
    },
    {
      "type": "Feature",
      "properties": { 
      "IBGE:COD_UNICO_ENDERECO": "27306356",
      "addr:housenumber": "432",
      "addr:postcode": "48609-202",
      "addr:street": "Rua Duque de Caxias",
      "addr:suburb": "Paulo Afonso Centro",
      "building": "yes"
      },
      "geometry": {
         "type": "Point",
         "coordinates": [-38.2220938,-9.4077415]
      }
    },
    {
      "type": "Feature",
      "properties": { 
      "IBGE:COD_UNICO_ENDERECO": "27306101",
      "addr:housenumber": "281",
      "addr:postcode": "48602-150",
      "addr:street": "Rua da Grécia",
      "addr:suburb": "Paulo Afonso Centro",
      "building": "yes",
      "name": "Gelo São Francisco"
      },
      "geometry": {
         "type": "Point",
         "coordinates": [-38.2236235,-9.4059337]
      }
    },
    {
      "type": "Feature",
      "properties": { 
      "IBGE:COD_UNICO_ENDERECO": "27306113",
      "addr:housenumber": "188",
      "addr:postcode": "48609-202",
      "addr:street": "Rua Duque de Caxias",
      "addr:suburb": "Paulo Afonso Centro",
      "amenity": "fast_food",
      "building": "yes",
      "name": "The Burguer"
      },
      "geometry": {
         "type": "Point",
         "coordinates": [-38.2233787,-9.4058895]
      }
    },
    {
      "type": "Feature",
      "properties": { 
      "IBGE:COD_UNICO_ENDERECO": "27306157",
      "addr:housenumber": "645",
      "addr:postcode": "48601-320",
      "addr:street": "Avenida José Hemetério de Carvalho",
      "addr:suburb": "Paulo Afonso Centro",
      "building": "yes"
      },
      "geometry": {
         "type": "Point",
         "coordinates": [-38.2232964,-9.4071378]
      }
    },
    {
      "type": "Feature",
      "properties": { 
      "IBGE:COD_UNICO_ENDERECO": "27306247",
      "addr:housenumber": "197",
      "addr:postcode": "48609-202",
      "addr:street": "Rua Duque de Caxias",
      "addr:suburb": "Paulo Afonso Centro",
      "addr:unit": "Fundos 2",
      "building": "yes"
      },
      "geometry": {
         "type": "Point",
         "coordinates": [-38.223134087298,-9.405901122981]
      }
    },
    {
      "type": "Feature",
      "properties": { 
      "IBGE:COD_UNICO_ENDERECO": "223856607",
      "addr:housenumber": "422",
      "addr:postcode": "48601-320",
      "addr:street": "Avenida José Hemetério de Carvalho",
      "addr:suburb": "Paulo Afonso Centro",
      "building": "garage",
      "description": "CNEFE 2022 Garagem"
      },
      "geometry": {
         "type": "Point",
         "coordinates": [-38.2217944,-9.4087098]
      }
    },
    {
      "type": "Feature",
      "properties": { 
      "IBGE:COD_UNICO_ENDERECO": "27306133;223856367",
      "addr:housenumber": "246",
      "addr:postcode": "48609-202",
      "addr:street": "Rua Duque de Caxias",
      "addr:suburb": "Paulo Afonso Centro",
      "building": "yes"
      },
      "geometry": {
         "type": "Point",
         "coordinates": [-38.223101,-9.4063893]
      }
    },
    {
      "type": "Feature",
      "properties": { 
      "IBGE:COD_UNICO_ENDERECO": "27306225",
      "addr:housenumber": "287",
      "addr:postcode": "48609-202",
      "addr:street": "Rua Duque de Caxias",
      "addr:suburb": "Paulo Afonso Centro",
      "building": "yes"
      },
      "geometry": {
         "type": "Point",
         "coordinates": [-38.2227558,-9.4066626]
      }
    },
    {
      "type": "Feature",
      "properties": { 
      "IBGE:COD_UNICO_ENDERECO": "27306137",
      "addr:housenumber": "262",
      "addr:postcode": "48609-202",
      "addr:street": "Rua Duque de Caxias",
      "addr:suburb": "Paulo Afonso Centro",
      "building": "yes",
      "description": "CNEFE 2022 Oficina Automotiva",
      "shop": "car_repair"
      },
      "geometry": {
         "type": "Point",
         "coordinates": [-38.2230337,-9.4065078]
      }
    },
    {
      "type": "Feature",
      "properties": { 
      "IBGE:COD_UNICO_ENDERECO": "27306315",
      "addr:housenumber": "457",
      "addr:postcode": "48609-202",
      "addr:street": "Rua Duque de Caxias",
      "addr:suburb": "Paulo Afonso Centro",
      "building": "yes",
      "name": "Éllen Reforço Escolar",
      "office": "tutoring"
      },
      "geometry": {
         "type": "Point",
         "coordinates": [-38.2219171,-9.4077102]
      }
    },
    {
      "type": "Feature",
      "properties": { 
      "IBGE:COD_UNICO_ENDERECO": "27306255",
      "addr:housenumber": "74",
      "addr:postcode": "48601-410",
      "addr:street": "Rua Manoel Novais",
      "addr:suburb": "Paulo Afonso Centro",
      "building": "yes"
      },
      "geometry": {
         "type": "Point",
         "coordinates": [-38.222299,-9.4069998]
      }
    },
    {
      "type": "Feature",
      "properties": { 
      "IBGE:COD_UNICO_ENDERECO": "27306302",
      "addr:housenumber": "543",
      "addr:postcode": "48609-202",
      "addr:street": "Rua Duque de Caxias",
      "addr:suburb": "Paulo Afonso Centro",
      "building": "yes"
      },
      "geometry": {
         "type": "Point",
         "coordinates": [-38.2213623,-9.4083643]
      }
    },
    {
      "type": "Feature",
      "properties": { 
      "IBGE:COD_UNICO_ENDERECO": "27306270",
      "addr:housenumber": "390",
      "addr:postcode": "48602-140",
      "addr:street": "Rua Presidente Costa e Silva",
      "addr:suburb": "Paulo Afonso Centro",
      "building": "yes"
      },
      "geometry": {
         "type": "Point",
         "coordinates": [-38.2217685,-9.4074289]
      }
    },
    {
      "type": "Feature",
      "properties": { 
      "IBGE:COD_UNICO_ENDERECO": "27306162",
      "addr:housenumber": "776",
      "addr:postcode": "48601-320",
      "addr:street": "Avenida José Hemetério de Carvalho",
      "addr:suburb": "Paulo Afonso Centro",
      "building": "yes"
      },
      "geometry": {
         "type": "Point",
         "coordinates": [-38.2238978,-9.4065108]
      }
    },
    {
      "type": "Feature",
      "properties": { 
      "IBGE:COD_UNICO_ENDERECO": "27306118",
      "addr:housenumber": "196",
      "addr:postcode": "48609-202",
      "addr:street": "Rua Duque de Caxias",
      "addr:suburb": "Paulo Afonso Centro",
      "addr:unit": "Fundos 1",
      "building": "yes"
      },
      "geometry": {
         "type": "Point",
         "coordinates": [-38.2233729,-9.4060141]
      }
    },
    {
      "type": "Feature",
      "properties": { 
      "IBGE:COD_UNICO_ENDERECO": "27306343;27306375",
      "addr:housenumber": "374",
      "addr:postcode": "48609-202",
      "addr:street": "Rua Duque de Caxias",
      "addr:suburb": "Paulo Afonso Centro",
      "building": "yes"
      },
      "geometry": {
         "type": "Point",
         "coordinates": [-38.222423,-9.4073534]
      }
    },
    {
      "type": "Feature",
      "properties": { 
      "IBGE:COD_UNICO_ENDERECO": "27306202",
      "addr:housenumber": "286",
      "addr:postcode": "48602-140",
      "addr:street": "Rua Presidente Costa e Silva",
      "addr:suburb": "Paulo Afonso Centro",
      "building": "yes"
      },
      "geometry": {
         "type": "Point",
         "coordinates": [-38.2223483,-9.4065567]
      }
    },
    {
      "type": "Feature",
      "properties": { 
      "IBGE:COD_UNICO_ENDERECO": "27306296-27306298",
      "addr:housenumber": "561",
      "addr:postcode": "48601-430",
      "addr:street": "Rua dos Navegantes",
      "addr:suburb": "Paulo Afonso Centro",
      "building": "yes"
      },
      "geometry": {
         "type": "Point",
         "coordinates": [-38.2210233,-9.4083829]
      }
    },
    {
      "type": "Feature",
      "properties": { 
      "IBGE:COD_UNICO_ENDERECO": "27306145",
      "addr:housenumber": "296",
      "addr:postcode": "48609-202",
      "addr:street": "Rua Duque de Caxias",
      "addr:suburb": "Paulo Afonso Centro",
      "building": "yes"
      },
      "geometry": {
         "type": "Point",
         "coordinates": [-38.2228999,-9.406728]
      }
    },
    {
      "type": "Feature",
      "properties": { 
      "IBGE:COD_UNICO_ENDERECO": "223856601-223856602",
      "addr:housenumber": "22",
      "addr:postcode": "48601-430",
      "addr:street": "Rua dos Navegantes",
      "addr:suburb": "Paulo Afonso Centro",
      "building": "yes"
      },
      "geometry": {
         "type": "Point",
         "coordinates": [-38.2215507,-9.4086078]
      }
    },
    {
      "type": "Feature",
      "properties": { 
      "IBGE:COD_UNICO_ENDERECO": "27306189;223856431;223856434",
      "addr:housenumber": "220",
      "addr:postcode": "48602-140",
      "addr:street": "Rua Presidente Costa e Silva",
      "addr:suburb": "Paulo Afonso Centro",
      "building": "yes"
      },
      "geometry": {
         "type": "Point",
         "coordinates": [-38.2226682,-9.4059314]
      }
    },
    {
      "type": "Feature",
      "properties": { 
      "IBGE:COD_UNICO_ENDERECO": "27306196",
      "addr:housenumber": "250",
      "addr:postcode": "48602-140",
      "addr:street": "Rua Presidente Costa e Silva",
      "addr:suburb": "Paulo Afonso Centro",
      "building": "yes"
      },
      "geometry": {
         "type": "Point",
         "coordinates": [-38.2225424,-9.4061872]
      }
    },
    {
      "type": "Feature",
      "properties": { 
      "IBGE:COD_UNICO_ENDERECO": "27306179",
      "addr:housenumber": "184",
      "addr:postcode": "48602-140",
      "addr:street": "Rua Presidente Costa e Silva",
      "addr:suburb": "Paulo Afonso Centro",
      "building": "yes",
      "name": "Serviloc Serviços Comércio e Locação de Veículos",
      "shop": "yes"
      },
      "geometry": {
         "type": "Point",
         "coordinates": [-38.2227124,-9.4058419]
      }
    },
    {
      "type": "Feature",
      "properties": { 
      "IBGE:COD_UNICO_ENDERECO": "27306328",
      "addr:housenumber": "373",
      "addr:postcode": "48609-202",
      "addr:street": "Rua Duque de Caxias",
      "addr:suburb": "Paulo Afonso Centro",
      "building": "yes"
      },
      "geometry": {
         "type": "Point",
         "coordinates": [-38.222313,-9.4072434]
      }
    },
    {
      "type": "Feature",
      "properties": { 
      "IBGE:COD_UNICO_ENDERECO": "27306394",
      "addr:housenumber": "709",
      "addr:postcode": "48601-320",
      "addr:street": "Avenida José Hemetério de Carvalho",
      "addr:suburb": "Paulo Afonso Centro",
      "building": "yes"
      },
      "geometry": {
         "type": "Point",
         "coordinates": [-38.2227663,-9.407691]
      }
    },
    {
      "type": "Feature",
      "properties": { 
      "IBGE:COD_UNICO_ENDERECO": "27306332",
      "addr:housenumber": "355",
      "addr:postcode": "48609-202",
      "addr:street": "Rua Duque de Caxias",
      "addr:suburb": "Paulo Afonso Centro",
      "amenity": "car_wash",
      "building": "yes",
      "name": "Jr lava a jato"
      },
      "geometry": {
         "type": "Point",
         "coordinates": [-38.2223694,-9.4071769]
      }
    },
    {
      "type": "Feature",
      "properties": { 
      "IBGE:COD_UNICO_ENDERECO": "27306384",
      "addr:housenumber": "12",
      "addr:postcode": "48601-430",
      "addr:street": "Rua dos Navegantes",
      "addr:suburb": "Paulo Afonso Centro",
      "building": "yes"
      },
      "geometry": {
         "type": "Point",
         "coordinates": [-38.2216855,-9.4087315]
      }
    },
    {
      "type": "Feature",
      "properties": { 
      "IBGE:COD_UNICO_ENDERECO": "27306257",
      "addr:housenumber": "326",
      "addr:postcode": "48602-140",
      "addr:street": "Rua Presidente Costa e Silva",
      "addr:suburb": "Paulo Afonso Centro",
      "building": "yes"
      },
      "geometry": {
         "type": "Point",
         "coordinates": [-38.2221073,-9.4069629]
      }
    },
    {
      "type": "Feature",
      "properties": { 
      "IBGE:COD_UNICO_ENDERECO": "27306223",
      "addr:housenumber": "297",
      "addr:postcode": "48609-202",
      "addr:street": "Rua Duque de Caxias",
      "addr:suburb": "Paulo Afonso Centro",
      "building": "yes"
      },
      "geometry": {
         "type": "Point",
         "coordinates": [-38.2226938,-9.4067502]
      }
    },
    {
      "type": "Feature",
      "properties": { 
      "IBGE:COD_UNICO_ENDERECO": "27306276",
      "addr:housenumber": "422",
      "addr:postcode": "48602-140",
      "addr:street": "Rua Presidente Costa e Silva",
      "addr:suburb": "Paulo Afonso Centro",
      "building": "yes"
      },
      "geometry": {
         "type": "Point",
         "coordinates": [-38.2215976,-9.4076641]
      }
    },
    {
      "type": "Feature",
      "properties": { 
      "IBGE:COD_UNICO_ENDERECO": "27306317",
      "addr:housenumber": "441",
      "addr:postcode": "48609-202",
      "addr:street": "Rua Duque de Caxias",
      "addr:suburb": "Paulo Afonso Centro",
      "building": "yes"
      },
      "geometry": {
         "type": "Point",
         "coordinates": [-38.221964,-9.4076548]
      }
    },
    {
      "type": "Feature",
      "properties": { 
      "IBGE:COD_UNICO_ENDERECO": "27306269",
      "addr:housenumber": "386",
      "addr:postcode": "48602-140",
      "addr:street": "Rua Presidente Costa e Silva",
      "addr:suburb": "Paulo Afonso Centro",
      "building": "yes"
      },
      "geometry": {
         "type": "Point",
         "coordinates": [-38.2217986,-9.4073876]
      }
    },
    {
      "type": "Feature",
      "properties": { 
      "IBGE:COD_UNICO_ENDERECO": "27306163",
      "addr:housenumber": "783",
      "addr:postcode": "48601-320",
      "addr:street": "Avenida José Hemetério de Carvalho",
      "addr:suburb": "Paulo Afonso Centro",
      "building": "yes",
      "description": "CNEFE 2022 Oficina Mecânica",
      "shop": "car_repair"
      },
      "geometry": {
         "type": "Point",
         "coordinates": [-38.2239704,-9.4064351]
      }
    },
    {
      "type": "Feature",
      "properties": { 
      "IBGE:COD_UNICO_ENDERECO": "27306156",
      "addr:housenumber": "644",
      "addr:postcode": "48601-320",
      "addr:street": "Avenida José Hemetério de Carvalho",
      "addr:suburb": "Paulo Afonso Centro",
      "amenity": "events_venue",
      "building": "yes",
      "name": "La Casona Espaço para Festas e Eventos"
      },
      "geometry": {
         "type": "Point",
         "coordinates": [-38.223106,-9.4073363]
      }
    },
    {
      "type": "Feature",
      "properties": { 
      "IBGE:COD_UNICO_ENDERECO": "27306284",
      "addr:housenumber": "458",
      "addr:postcode": "48602-140",
      "addr:street": "Rua Presidente Costa e Silva",
      "addr:suburb": "Paulo Afonso Centro",
      "building": "yes"
      },
      "geometry": {
         "type": "Point",
         "coordinates": [-38.2213767,-9.407968]
      }
    },
    {
      "type": "Feature",
      "properties": { 
      "IBGE:COD_UNICO_ENDERECO": "27306188",
      "addr:housenumber": "214",
      "addr:postcode": "48602-140",
      "addr:street": "Rua Presidente Costa e Silva",
      "addr:suburb": "Paulo Afonso Centro",
      "building": "yes"
      },
      "geometry": {
         "type": "Point",
         "coordinates": [-38.222685,-9.4058975]
      }
    },
    {
      "type": "Feature",
      "properties": { 
      "IBGE:COD_UNICO_ENDERECO": "27306127",
      "addr:housenumber": "228",
      "addr:postcode": "48609-202",
      "addr:street": "Rua Duque de Caxias",
      "addr:suburb": "Paulo Afonso Centro",
      "addr:unit": "Fundos 4",
      "building": "yes"
      },
      "geometry": {
         "type": "Point",
         "coordinates": [-38.2232331,-9.4062668]
      }
    },
    {
      "type": "Feature",
      "properties": { 
      "IBGE:COD_UNICO_ENDERECO": "27306160",
      "addr:housenumber": "754",
      "addr:postcode": "48601-320",
      "addr:street": "Avenida José Hemetério de Carvalho",
      "addr:suburb": "Paulo Afonso Centro",
      "building": "yes"
      },
      "geometry": {
         "type": "Point",
         "coordinates": [-38.2237713,-9.4066427]
      }
    },
    {
      "type": "Feature",
      "properties": { 
      "IBGE:COD_UNICO_ENDERECO": "27306140",
      "addr:housenumber": "272",
      "addr:postcode": "48609-202",
      "addr:street": "Rua Duque de Caxias",
      "addr:suburb": "Paulo Afonso Centro",
      "building": "yes"
      },
      "geometry": {
         "type": "Point",
         "coordinates": [-38.2230023,-9.4065631]
      }
    },
    {
      "type": "Feature",
      "properties": { 
      "IBGE:COD_UNICO_ENDERECO": "27306172;223856394",
      "addr:housenumber": "131",
      "addr:postcode": "48602-150",
      "addr:street": "Rua da Grécia",
      "addr:suburb": "Paulo Afonso Centro",
      "building": "yes"
      },
      "geometry": {
         "type": "Point",
         "coordinates": [-38.2230502,-9.4056395]
      }
    },
    {
      "type": "Feature",
      "properties": { 
      "IBGE:COD_UNICO_ENDERECO": "27306177",
      "addr:housenumber": "153",
      "addr:postcode": "48602-150",
      "addr:street": "Rua da Grécia",
      "addr:suburb": "Paulo Afonso Centro",
      "building": "yes",
      "name": "Nalva Cabeleireira",
      "shop": "hairdresser"
      },
      "geometry": {
         "type": "Point",
         "coordinates": [-38.2229468,-9.405585]
      }
    },
    {
      "type": "Feature",
      "properties": { 
      "IBGE:COD_UNICO_ENDERECO": "223856500;223856503",
      "addr:housenumber": "356",
      "addr:postcode": "48602-140",
      "addr:street": "Rua Presidente Costa e Silva",
      "addr:suburb": "Paulo Afonso Centro",
      "building": "yes"
      },
      "geometry": {
         "type": "Point",
         "coordinates": [-38.2219742,-9.407146]
      }
    },
    {
      "type": "Feature",
      "properties": { 
      "IBGE:COD_UNICO_ENDERECO": "223856384;223856386",
      "addr:housenumber": "783",
      "addr:postcode": "48601-320",
      "addr:street": "Avenida José Hemetério de Carvalho",
      "addr:suburb": "Paulo Afonso Centro",
      "building": "yes"
      },
      "geometry": {
         "type": "Point",
         "coordinates": [-38.2239882,-9.4064166]
      }
    },
    {
      "type": "Feature",
      "properties": { 
      "IBGE:COD_UNICO_ENDERECO": "27306170",
      "addr:housenumber": "133",
      "addr:postcode": "48602-150",
      "addr:street": "Rua da Grécia",
      "addr:suburb": "Paulo Afonso Centro",
      "building": "yes"
      },
      "geometry": {
         "type": "Point",
         "coordinates": [-38.2231276,-9.4056785]
      }
    },
    {
      "type": "Feature",
      "properties": { 
      "IBGE:COD_UNICO_ENDERECO": "27306309",
      "addr:housenumber": "515",
      "addr:postcode": "48609-202",
      "addr:street": "Rua Duque de Caxias",
      "addr:suburb": "Paulo Afonso Centro",
      "building": "yes"
      },
      "geometry": {
         "type": "Point",
         "coordinates": [-38.2215441,-9.4081499]
      }
    },
    {
      "type": "Feature",
      "properties": { 
      "IBGE:COD_UNICO_ENDERECO": "27306364-27306365",
      "addr:housenumber": "502",
      "addr:postcode": "48609-202",
      "addr:street": "Rua Duque de Caxias",
      "addr:suburb": "Paulo Afonso Centro",
      "building": "yes"
      },
      "geometry": {
         "type": "Point",
         "coordinates": [-38.2216786,-9.4082312]
      }
    },
    {
      "type": "Feature",
      "properties": { 
      "IBGE:COD_UNICO_ENDERECO": "27306275",
      "addr:housenumber": "416",
      "addr:postcode": "48602-140",
      "addr:street": "Rua Presidente Costa e Silva",
      "addr:suburb": "Paulo Afonso Centro",
      "building": "yes"
      },
      "geometry": {
         "type": "Point",
         "coordinates": [-38.221629,-9.4076209]
      }
    },
    {
      "type": "Feature",
      "properties": { 
      "IBGE:COD_UNICO_ENDERECO": "27306378",
      "addr:housenumber": "34",
      "addr:postcode": "48601-430",
      "addr:street": "Rua dos Navegantes",
      "addr:suburb": "Paulo Afonso Centro",
      "addr:unit": "Fundos 2",
      "building": "yes"
      },
      "geometry": {
         "type": "Point",
         "coordinates": [-38.2216025,-9.4085802]
      }
    },
    {
      "type": "Feature",
      "properties": { 
      "IBGE:COD_UNICO_ENDERECO": "27306274",
      "addr:housenumber": "410",
      "addr:postcode": "48602-140",
      "addr:street": "Rua Presidente Costa e Silva",
      "addr:suburb": "Paulo Afonso Centro",
      "building": "yes"
      },
      "geometry": {
         "type": "Point",
         "coordinates": [-38.2216442,-9.4076]
      }
    },
    {
      "type": "Feature",
      "properties": { 
      "IBGE:COD_UNICO_ENDERECO": "27306200",
      "addr:housenumber": "274",
      "addr:postcode": "48602-140",
      "addr:street": "Rua Presidente Costa e Silva",
      "addr:suburb": "Paulo Afonso Centro",
      "building": "yes"
      },
      "geometry": {
         "type": "Point",
         "coordinates": [-38.2223898,-9.4064778]
      }
    },
    {
      "type": "Feature",
      "properties": { 
      "IBGE:COD_UNICO_ENDERECO": "27306136",
      "addr:housenumber": "258",
      "addr:postcode": "48609-202",
      "addr:street": "Rua Duque de Caxias",
      "addr:suburb": "Paulo Afonso Centro",
      "building": "yes"
      },
      "geometry": {
         "type": "Point",
         "coordinates": [-38.2230643,-9.4064539]
      }
    },
    {
      "type": "Feature",
      "properties": { 
      "IBGE:COD_UNICO_ENDERECO": "27306259",
      "addr:housenumber": "336",
      "addr:postcode": "48602-140",
      "addr:street": "Rua Presidente Costa e Silva",
      "addr:suburb": "Paulo Afonso Centro",
      "building": "yes"
      },
      "geometry": {
         "type": "Point",
         "coordinates": [-38.222081859333,-9.4069828955181]
      }
    },
    {
      "type": "Feature",
      "properties": { 
      "IBGE:COD_UNICO_ENDERECO": "27306321",
      "addr:housenumber": "409",
      "addr:postcode": "48609-202",
      "addr:street": "Rua Duque de Caxias",
      "addr:suburb": "Paulo Afonso Centro",
      "building": "yes"
      },
      "geometry": {
         "type": "Point",
         "coordinates": [-38.2221265,-9.4074633]
      }
    },
    {
      "type": "Feature",
      "properties": { 
      "IBGE:COD_UNICO_ENDERECO": "27306213",
      "addr:housenumber": "725",
      "addr:postcode": "48601-410",
      "addr:street": "Rua Manoel Novais",
      "addr:suburb": "Paulo Afonso Centro",
      "addr:unit": "Fundos 1",
      "building": "yes"
      },
      "geometry": {
         "type": "Point",
         "coordinates": [-38.2224359,-9.4068353]
      }
    },
    {
      "type": "Feature",
      "properties": { 
      "IBGE:COD_UNICO_ENDERECO": "223856421;223856424;223856438",
      "addr:housenumber": "176",
      "addr:postcode": "48602-140",
      "addr:street": "Rua Presidente Costa e Silva",
      "addr:suburb": "Paulo Afonso Centro",
      "building": "yes"
      },
      "geometry": {
         "type": "Point",
         "coordinates": [-38.2228442,-9.4055762]
      }
    },
    {
      "type": "Feature",
      "properties": { 
      "IBGE:COD_UNICO_ENDERECO": "27306242",
      "addr:housenumber": "203 Térreo",
      "addr:postcode": "48609-202",
      "addr:street": "Rua Duque de Caxias",
      "addr:suburb": "Paulo Afonso Centro",
      "building": "yes"
      },
      "geometry": {
         "type": "Point",
         "coordinates": [-38.2231223,-9.4060352]
      }
    },
    {
      "type": "Feature",
      "properties": { 
      "IBGE:COD_UNICO_ENDERECO": "27306380",
      "addr:housenumber": "30",
      "addr:postcode": "48601-430",
      "addr:street": "Rua dos Navegantes",
      "addr:suburb": "Paulo Afonso Centro",
      "building": "yes"
      },
      "geometry": {
         "type": "Point",
         "coordinates": [-38.2215273,-9.4085904]
      }
    },
    {
      "type": "Feature",
      "properties": { 
      "IBGE:COD_UNICO_ENDERECO": "27306329",
      "addr:housenumber": "367 A",
      "addr:postcode": "48609-202",
      "addr:street": "Rua Duque de Caxias",
      "addr:suburb": "Paulo Afonso Centro",
      "building": "yes"
      },
      "geometry": {
         "type": "Point",
         "coordinates": [-38.2223507,-9.4071989]
      }
    },
    {
      "type": "Feature",
      "properties": { 
      "IBGE:COD_UNICO_ENDERECO": "27306268",
      "addr:housenumber": "382",
      "addr:postcode": "48602-140",
      "addr:street": "Rua Presidente Costa e Silva",
      "addr:suburb": "Paulo Afonso Centro",
      "building": "yes"
      },
      "geometry": {
         "type": "Point",
         "coordinates": [-38.2218263,-9.4073494]
      }
    },
    {
      "type": "Feature",
      "properties": { 
      "IBGE:COD_UNICO_ENDERECO": "27306320",
      "addr:housenumber": "409 Térreo",
      "addr:postcode": "48609-202",
      "addr:street": "Rua Duque de Caxias",
      "addr:suburb": "Paulo Afonso Centro",
      "building": "yes"
      },
      "geometry": {
         "type": "Point",
         "coordinates": [-38.2220714,-9.4075282]
      }
    },
    {
      "type": "Feature",
      "properties": { 
      "IBGE:COD_UNICO_ENDERECO": "27306124",
      "addr:housenumber": "228",
      "addr:postcode": "48609-202",
      "addr:street": "Rua Duque de Caxias",
      "addr:suburb": "Paulo Afonso Centro",
      "addr:unit": "Fundos 1",
      "building": "yes"
      },
      "geometry": {
         "type": "Point",
         "coordinates": [-38.2232299,-9.4062725]
      }
    },
    {
      "type": "Feature",
      "properties": { 
      "IBGE:COD_UNICO_ENDERECO": "223856483",
      "addr:housenumber": "191",
      "addr:postcode": "48609-202",
      "addr:street": "Rua Duque de Caxias",
      "addr:suburb": "Paulo Afonso Centro",
      "building": "construction"
      },
      "geometry": {
         "type": "Point",
         "coordinates": [-38.2232703,-9.405786]
      }
    },
    {
      "type": "Feature",
      "properties": { 
      "IBGE:COD_UNICO_ENDERECO": "27306379",
      "addr:housenumber": "34",
      "addr:postcode": "48601-430",
      "addr:street": "Rua dos Navegantes",
      "addr:suburb": "Paulo Afonso Centro",
      "addr:unit": "Fundos 3",
      "building": "yes"
      },
      "geometry": {
         "type": "Point",
         "coordinates": [-38.2216001,-9.4085779]
      }
    },
    {
      "type": "Feature",
      "properties": { 
      "IBGE:COD_UNICO_ENDERECO": "27306373",
      "addr:housenumber": "532 Térreo",
      "addr:postcode": "48609-202",
      "addr:street": "Rua Duque de Caxias",
      "addr:suburb": "Paulo Afonso Centro",
      "building": "yes"
      },
      "geometry": {
         "type": "Point",
         "coordinates": [-38.2213864,-9.4085152]
      }
    },
    {
      "type": "Feature",
      "properties": { 
      "IBGE:COD_UNICO_ENDERECO": "223856345-223856346",
      "addr:housenumber": "366",
      "addr:postcode": "48602-150",
      "addr:street": "Rua da Grécia",
      "addr:suburb": "Paulo Afonso Centro",
      "building": "yes"
      },
      "geometry": {
         "type": "Point",
         "coordinates": [-38.224009,-9.4062181]
      }
    },
    {
      "type": "Feature",
      "properties": { 
      "IBGE:COD_UNICO_ENDERECO": "27306370",
      "addr:housenumber": "530 Térreo",
      "addr:postcode": "48609-202",
      "addr:street": "Rua Duque de Caxias",
      "addr:suburb": "Paulo Afonso Centro",
      "building": "yes"
      },
      "geometry": {
         "type": "Point",
         "coordinates": [-38.2215151,-9.4084239]
      }
    },
    {
      "type": "Feature",
      "properties": { 
      "IBGE:COD_UNICO_ENDERECO": "27306161",
      "addr:housenumber": "806",
      "addr:postcode": "48601-320",
      "addr:street": "Avenida José Hemetério de Carvalho",
      "addr:suburb": "Paulo Afonso Centro",
      "building": "yes"
      },
      "geometry": {
         "type": "Point",
         "coordinates": [-38.2238347,-9.4065766]
      }
    },
    {
      "type": "Feature",
      "properties": { 
      "IBGE:COD_UNICO_ENDERECO": "27306368",
      "addr:housenumber": "522",
      "addr:postcode": "48609-202",
      "addr:street": "Rua Duque de Caxias",
      "addr:suburb": "Paulo Afonso Centro",
      "building": "yes",
      "name": "Mercadinho São José",
      "shop": "convenience"
      },
      "geometry": {
         "type": "Point",
         "coordinates": [-38.2215706,-9.4083585]
      }
    },
    {
      "type": "Feature",
      "properties": { 
      "IBGE:COD_UNICO_ENDERECO": "27306277",
      "addr:housenumber": "430",
      "addr:postcode": "48602-140",
      "addr:street": "Rua Presidente Costa e Silva",
      "addr:suburb": "Paulo Afonso Centro",
      "building": "yes"
      },
      "geometry": {
         "type": "Point",
         "coordinates": [-38.2216121,-9.4076441]
      }
    },
    {
      "type": "Feature",
      "properties": { 
      "IBGE:COD_UNICO_ENDERECO": "27306125",
      "addr:housenumber": "228",
      "addr:postcode": "48609-202",
      "addr:street": "Rua Duque de Caxias",
      "addr:suburb": "Paulo Afonso Centro",
      "addr:unit": "Fundos 2",
      "building": "yes"
      },
      "geometry": {
         "type": "Point",
         "coordinates": [-38.2232364,-9.4062611]
      }
    },
    {
      "type": "Feature",
      "properties": { 
      "IBGE:COD_UNICO_ENDERECO": "27306278",
      "addr:housenumber": "430 A",
      "addr:postcode": "48602-140",
      "addr:street": "Rua Presidente Costa e Silva",
      "addr:suburb": "Paulo Afonso Centro",
      "building": "yes"
      },
      "geometry": {
         "type": "Point",
         "coordinates": [-38.2215424,-9.4077401]
      }
    },
    {
      "type": "Feature",
      "properties": { 
      "IBGE:COD_UNICO_ENDERECO": "223856443",
      "addr:housenumber": "329",
      "addr:postcode": "48601-410",
      "addr:street": "Rua Manoel Novais",
      "addr:suburb": "Paulo Afonso Centro",
      "addr:unit": "Casa B",
      "building": "yes",
      "name": "Espaço Érica Guedes"
      },
      "geometry": {
         "type": "Point",
         "coordinates": [-38.2224113,-9.4068835]
      }
    },
    {
      "type": "Feature",
      "properties": { 
      "IBGE:COD_UNICO_ENDERECO": "223856347",
      "addr:housenumber": "305 Térreo B",
      "addr:postcode": "48602-150",
      "addr:street": "Rua da Grécia",
      "addr:suburb": "Paulo Afonso Centro",
      "building": "yes",
      "name": "William Campos Arquitetura e Urbanismo"
      },
      "geometry": {
         "type": "Point",
         "coordinates": [-38.223774,-9.406033]
      }
    },
    {
      "type": "Feature",
      "properties": { 
      "IBGE:COD_UNICO_ENDERECO": "27305002",
      "addr:housenumber": "133",
      "addr:postcode": "48608-230",
      "addr:street": "Rua do Bom Conselho",
      "addr:suburb": "Paulo Afonso Centro",
      "building": "yes"
      },
      "geometry": {
         "type": "Point",
         "coordinates": [-38.2146607,-9.4013543]
      }
    },
    {
      "type": "Feature",
      "properties": { 
      "IBGE:COD_UNICO_ENDERECO": "27306391",
      "addr:housenumber": "787",
      "addr:postcode": "48601-320",
      "addr:street": "Avenida José Hemetério de Carvalho",
      "addr:suburb": "Paulo Afonso Centro",
      "building": "yes"
      },
      "geometry": {
         "type": "Point",
         "coordinates": [-38.2223777,-9.4080983]
      }
    },
    {
      "type": "Feature",
      "properties": { 
      "IBGE:COD_UNICO_ENDERECO": "27306333",
      "addr:housenumber": "349",
      "addr:postcode": "48609-202",
      "addr:street": "Rua Duque de Caxias",
      "addr:suburb": "Paulo Afonso Centro",
      "building": "yes"
      },
      "geometry": {
         "type": "Point",
         "coordinates": [-38.2224581,-9.4071049]
      }
    },
    {
      "type": "Feature",
      "properties": { 
      "IBGE:COD_UNICO_ENDERECO": "27306358",
      "addr:housenumber": "448",
      "addr:postcode": "48609-202",
      "addr:street": "Rua Duque de Caxias",
      "addr:suburb": "Paulo Afonso Centro",
      "building": "yes"
      },
      "geometry": {
         "type": "Point",
         "coordinates": [-38.2220107,-9.4078395]
      }
    },
    {
      "type": "Feature",
      "properties": { 
      "IBGE:COD_UNICO_ENDERECO": "27306215",
      "addr:housenumber": "329 A",
      "addr:postcode": "48601-410",
      "addr:street": "Rua Manoel Novais",
      "addr:suburb": "Paulo Afonso Centro",
      "building": "yes",
      "name": "Michele Nails"
      },
      "geometry": {
         "type": "Point",
         "coordinates": [-38.2224229,-9.4068893]
      }
    },
    {
      "type": "Feature",
      "properties": { 
      "IBGE:COD_UNICO_ENDERECO": "27306183",
      "addr:housenumber": "190 Térreo",
      "addr:postcode": "48602-140",
      "addr:street": "Rua Presidente Costa e Silva",
      "addr:suburb": "Paulo Afonso Centro",
      "building": "yes"
      },
      "geometry": {
         "type": "Point",
         "coordinates": [-38.2227966,-9.4056714]
      }
    },
    {
      "type": "Feature",
      "properties": { 
      "IBGE:COD_UNICO_ENDERECO": "223856595",
      "addr:housenumber": "22",
      "addr:postcode": "48609-202",
      "addr:street": "Rua Duque de Caxias",
      "addr:suburb": "Paulo Afonso Centro",
      "building": "garage",
      "description": "CNEFE 2022 Garagem"
      },
      "geometry": {
         "type": "Point",
         "coordinates": [-38.22189,-9.4079819]
      }
    },
    {
      "type": "Feature",
      "properties": { 
      "IBGE:COD_UNICO_ENDERECO": "27306389",
      "addr:housenumber": "1031",
      "addr:postcode": "48601-320",
      "addr:street": "Avenida José Hemetério de Carvalho",
      "addr:suburb": "Paulo Afonso Centro",
      "building": "yes"
      },
      "geometry": {
         "type": "Point",
         "coordinates": [-38.2222523,-9.4082297]
      }
    },
    {
      "type": "Feature",
      "properties": { 
      "IBGE:COD_UNICO_ENDERECO": "27306299",
      "addr:housenumber": "567",
      "addr:postcode": "48601-430",
      "addr:street": "Rua dos Navegantes",
      "addr:suburb": "Paulo Afonso Centro",
      "building": "yes"
      },
      "geometry": {
         "type": "Point",
         "coordinates": [-38.2211233,-9.4083864]
      }
    },
    {
      "type": "Feature",
      "properties": { 
      "IBGE:COD_UNICO_ENDERECO": "27306271",
      "addr:housenumber": "394",
      "addr:postcode": "48602-140",
      "addr:street": "Rua Presidente Costa e Silva",
      "addr:suburb": "Paulo Afonso Centro",
      "building": "yes"
      },
      "geometry": {
         "type": "Point",
         "coordinates": [-38.2217423,-9.4074651]
      }
    },
    {
      "type": "Feature",
      "properties": { 
      "IBGE:COD_UNICO_ENDERECO": "27306122",
      "addr:housenumber": "216",
      "addr:postcode": "48609-202",
      "addr:street": "Rua Duque de Caxias",
      "addr:suburb": "Paulo Afonso Centro",
      "building": "yes"
      },
      "geometry": {
         "type": "Point",
         "coordinates": [-38.2232761,-9.4060779]
      }
    },
    {
      "type": "Feature",
      "properties": { 
      "IBGE:COD_UNICO_ENDERECO": "27306229",
      "addr:housenumber": "281",
      "addr:postcode": "48609-202",
      "addr:street": "Rua Duque de Caxias",
      "addr:suburb": "Paulo Afonso Centro",
      "addr:unit": "Fundos 2",
      "building": "yes"
      },
      "geometry": {
         "type": "Point",
         "coordinates": [-38.2227862,-9.4065186]
      }
    },
    {
      "type": "Feature",
      "properties": { 
      "IBGE:COD_UNICO_ENDERECO": "27306305",
      "addr:housenumber": "521",
      "addr:postcode": "48609-202",
      "addr:street": "Rua Duque de Caxias",
      "addr:suburb": "Paulo Afonso Centro",
      "building": "yes"
      },
      "geometry": {
         "type": "Point",
         "coordinates": [-38.2214474,-9.4082639]
      }
    },
    {
      "type": "Feature",
      "properties": { 
      "IBGE:COD_UNICO_ENDERECO": "223856556",
      "addr:housenumber": "729",
      "addr:postcode": "48601-410",
      "addr:street": "Rua Manoel Novais",
      "addr:suburb": "Paulo Afonso Centro",
      "building": "yes"
      },
      "geometry": {
         "type": "Point",
         "coordinates": [-38.2227371,-9.4073157]
      }
    },
    {
      "type": "Feature",
      "properties": { 
      "IBGE:COD_UNICO_ENDERECO": "27306382",
      "addr:housenumber": "22",
      "addr:postcode": "48601-430",
      "addr:street": "Rua dos Navegantes",
      "addr:suburb": "Paulo Afonso Centro",
      "building": "garage",
      "description": "CNEFE 2022 Garagem"
      },
      "geometry": {
         "type": "Point",
         "coordinates": [-38.221564443562,-9.4086056579953]
      }
    },
    {
      "type": "Feature",
      "properties": { 
      "IBGE:COD_UNICO_ENDERECO": "27306138",
      "addr:housenumber": "266",
      "addr:postcode": "48609-202",
      "addr:street": "Rua Duque de Caxias",
      "addr:suburb": "Paulo Afonso Centro",
      "building": "yes"
      },
      "geometry": {
         "type": "Point",
         "coordinates": [-38.2230359,-9.406504]
      }
    },
    {
      "type": "Feature",
      "properties": { 
      "IBGE:COD_UNICO_ENDERECO": "27306114",
      "addr:housenumber": "188",
      "addr:postcode": "48609-202",
      "addr:street": "Rua Duque de Caxias",
      "addr:suburb": "Paulo Afonso Centro",
      "addr:unit": "Fundos",
      "building": "yes"
      },
      "geometry": {
         "type": "Point",
         "coordinates": [-38.2233897,-9.4059832]
      }
    },
    {
      "type": "Feature",
      "properties": { 
      "IBGE:COD_UNICO_ENDERECO": "27306207",
      "addr:housenumber": "296",
      "addr:postcode": "48602-140",
      "addr:street": "Rua Presidente Costa e Silva",
      "addr:suburb": "Paulo Afonso Centro",
      "building": "yes"
      },
      "geometry": {
         "type": "Point",
         "coordinates": [-38.2223014,-9.406646]
      }
    },
    {
      "type": "Feature",
      "properties": { 
      "IBGE:COD_UNICO_ENDERECO": "27306385",
      "addr:housenumber": "867",
      "addr:postcode": "48601-320",
      "addr:street": "Avenida José Hemetério de Carvalho",
      "addr:suburb": "Paulo Afonso Centro",
      "building": "yes"
      },
      "geometry": {
         "type": "Point",
         "coordinates": [-38.22176,-9.4087621]
      }
    },
    {
      "type": "Feature",
      "properties": { 
      "IBGE:COD_UNICO_ENDERECO": "27306304",
      "addr:housenumber": "535",
      "addr:postcode": "48609-202",
      "addr:street": "Rua Duque de Caxias",
      "addr:suburb": "Paulo Afonso Centro",
      "building": "yes"
      },
      "geometry": {
         "type": "Point",
         "coordinates": [-38.2214629,-9.4082457]
      }
    },
    {
      "type": "Feature",
      "properties": { 
      "IBGE:COD_UNICO_ENDERECO": "27306218",
      "addr:housenumber": "329",
      "addr:postcode": "48609-202",
      "addr:street": "Rua Duque de Caxias",
      "addr:suburb": "Paulo Afonso Centro",
      "building": "yes"
      },
      "geometry": {
         "type": "Point",
         "coordinates": [-38.2225707,-9.4069533]
      }
    },
    {
      "type": "Feature",
      "properties": { 
      "IBGE:COD_UNICO_ENDERECO": "27306130",
      "addr:housenumber": "234",
      "addr:postcode": "48609-202",
      "addr:street": "Rua Duque de Caxias",
      "addr:suburb": "Paulo Afonso Centro",
      "addr:unit": "Fundos 2",
      "building": "yes"
      },
      "geometry": {
         "type": "Point",
         "coordinates": [-38.2232021,-9.4063216]
      }
    },
    {
      "type": "Feature",
      "properties": { 
      "IBGE:COD_UNICO_ENDERECO": "27306363",
      "addr:housenumber": "502 Térreo",
      "addr:postcode": "48609-202",
      "addr:street": "Rua Duque de Caxias",
      "addr:suburb": "Paulo Afonso Centro",
      "building": "yes"
      },
      "geometry": {
         "type": "Point",
         "coordinates": [-38.2217046,-9.4082005]
      }
    },
    {
      "type": "Feature",
      "properties": { 
      "IBGE:COD_UNICO_ENDERECO": "27306113;27306120",
      "addr:housenumber": "188",
      "addr:postcode": "48609-202",
      "addr:street": "Rua Duque de Caxias",
      "addr:suburb": "Paulo Afonso Centro",
      "building": "yes"
      },
      "geometry": {
         "type": "Point",
         "coordinates": [-38.2233584,-9.4059268]
      }
    },
    {
      "type": "Feature",
      "properties": { 
      "IBGE:COD_UNICO_ENDERECO": "27306353",
      "addr:housenumber": "406",
      "addr:postcode": "48609-202",
      "addr:street": "Rua Duque de Caxias",
      "addr:suburb": "Paulo Afonso Centro",
      "building": "yes"
      },
      "geometry": {
         "type": "Point",
         "coordinates": [-38.2222441,-9.4075643]
      }
    },
    {
      "type": "Feature",
      "properties": { 
      "IBGE:COD_UNICO_ENDERECO": "223856588",
      "addr:housenumber": "448",
      "addr:postcode": "48609-202",
      "addr:street": "Rua Duque de Caxias",
      "addr:suburb": "Paulo Afonso Centro",
      "addr:unit": "Casa A",
      "building": "yes"
      },
      "geometry": {
         "type": "Point",
         "coordinates": [-38.2220149,-9.4078346]
      }
    },
    {
      "type": "Feature",
      "properties": { 
      "IBGE:COD_UNICO_ENDERECO": "27306348",
      "addr:housenumber": "396",
      "addr:postcode": "48609-202",
      "addr:street": "Rua Duque de Caxias",
      "addr:suburb": "Paulo Afonso Centro",
      "addr:unit": "Fundos 1",
      "building": "yes"
      },
      "geometry": {
         "type": "Point",
         "coordinates": [-38.222298666532,-9.4075937276867]
      }
    },
    {
      "type": "Feature",
      "properties": { 
      "IBGE:COD_UNICO_ENDERECO": "27306388",
      "addr:housenumber": "779",
      "addr:postcode": "48601-320",
      "addr:street": "Avenida José Hemetério de Carvalho",
      "addr:suburb": "Paulo Afonso Centro",
      "building": "yes",
      "name": "Salão Belissima"
      },
      "geometry": {
         "type": "Point",
         "coordinates": [-38.222172001949,-9.4083135994432]
      }
    },
    {
      "type": "Feature",
      "properties": { 
      "IBGE:COD_UNICO_ENDERECO": "27306108",
      "addr:housenumber": "366 Térreo",
      "addr:postcode": "48602-150",
      "addr:street": "Rua da Grécia",
      "addr:suburb": "Paulo Afonso Centro",
      "building": "yes",
      "name": "Gelo Athenas"
      },
      "geometry": {
         "type": "Point",
         "coordinates": [-38.2240358,-9.4062409]
      }
    },
    {
      "type": "Feature",
      "properties": { 
      "IBGE:COD_UNICO_ENDERECO": "27306313",
      "addr:housenumber": "481",
      "addr:postcode": "48609-202",
      "addr:street": "Rua Duque de Caxias",
      "addr:suburb": "Paulo Afonso Centro",
      "building": "yes",
      "name": "Oficina de Pintura de Carros",
      "service:vehicle:painting": "only",
      "shop": "car_repair"
      },
      "geometry": {
         "type": "Point",
         "coordinates": [-38.2217519,-9.4079049]
      }
    },
    {
      "type": "Feature",
      "properties": { 
      "IBGE:COD_UNICO_ENDERECO": "27306243",
      "addr:housenumber": "203",
      "addr:postcode": "48609-202",
      "addr:street": "Rua Duque de Caxias",
      "addr:suburb": "Paulo Afonso Centro",
      "building": "yes"
      },
      "geometry": {
         "type": "Point",
         "coordinates": [-38.2231579,-9.4059699]
      }
    },
    {
      "type": "Feature",
      "properties": { 
      "IBGE:COD_UNICO_ENDERECO": "27306352",
      "addr:housenumber": "396",
      "addr:postcode": "48609-202",
      "addr:street": "Rua Duque de Caxias",
      "addr:suburb": "Paulo Afonso Centro",
      "addr:unit": "Fundos 5",
      "building": "construction"
      },
      "geometry": {
         "type": "Point",
         "coordinates": [-38.2222998,-9.4075827]
      }
    },
    {
      "type": "Feature",
      "properties": { 
      "IBGE:COD_UNICO_ENDERECO": "27306226",
      "addr:housenumber": "285",
      "addr:postcode": "48609-202",
      "addr:street": "Rua Duque de Caxias",
      "addr:suburb": "Paulo Afonso Centro",
      "building": "yes"
      },
      "geometry": {
         "type": "Point",
         "coordinates": [-38.222771,-9.4066411]
      }
    },
    {
      "type": "Feature",
      "properties": { 
      "IBGE:COD_UNICO_ENDERECO": "27306272",
      "addr:housenumber": "398",
      "addr:postcode": "48602-140",
      "addr:street": "Rua Presidente Costa e Silva",
      "addr:suburb": "Paulo Afonso Centro",
      "building": "yes"
      },
      "geometry": {
         "type": "Point",
         "coordinates": [-38.2216953,-9.4075297]
      }
    },
    {
      "type": "Feature",
      "properties": { 
      "IBGE:COD_UNICO_ENDERECO": "27306273",
      "addr:housenumber": "404",
      "addr:postcode": "48602-140",
      "addr:street": "Rua Presidente Costa e Silva",
      "addr:suburb": "Paulo Afonso Centro",
      "building": "yes"
      },
      "geometry": {
         "type": "Point",
         "coordinates": [-38.2216659,-9.4075701]
      }
    },
    {
      "type": "Feature",
      "properties": { 
      "IBGE:COD_UNICO_ENDERECO": "27306159",
      "addr:housenumber": "746",
      "addr:postcode": "48601-320",
      "addr:street": "Avenida José Hemetério de Carvalho",
      "addr:suburb": "Paulo Afonso Centro",
      "building": "yes"
      },
      "geometry": {
         "type": "Point",
         "coordinates": [-38.2236486,-9.4067706]
      }
    },
    {
      "type": "Feature",
      "properties": { 
      "IBGE:COD_UNICO_ENDERECO": "27306142",
      "addr:housenumber": "284",
      "addr:postcode": "48609-202",
      "addr:street": "Rua Duque de Caxias",
      "addr:suburb": "Paulo Afonso Centro",
      "building": "yes",
      "name": "Cosméticos",
      "shop": "cosmetics"
      },
      "geometry": {
         "type": "Point",
         "coordinates": [-38.2229322,-9.4066823]
      }
    },
    {
      "type": "Feature",
      "properties": { 
      "IBGE:COD_UNICO_ENDERECO": "27306195",
      "addr:housenumber": "244",
      "addr:postcode": "48602-140",
      "addr:street": "Rua Presidente Costa e Silva",
      "addr:suburb": "Paulo Afonso Centro",
      "building": "yes"
      },
      "geometry": {
         "type": "Point",
         "coordinates": [-38.2225623,-9.4061459]
      }
    },
    {
      "type": "Feature",
      "properties": { 
      "IBGE:COD_UNICO_ENDERECO": "27306129",
      "addr:housenumber": "234",
      "addr:postcode": "48609-202",
      "addr:street": "Rua Duque de Caxias",
      "addr:suburb": "Paulo Afonso Centro",
      "addr:unit": "Fundos 1",
      "building": "yes"
      },
      "geometry": {
         "type": "Point",
         "coordinates": [-38.2232069,-9.4063131]
      }
    },
    {
      "type": "Feature",
      "properties": { 
      "IBGE:COD_UNICO_ENDERECO": "27306168",
      "addr:housenumber": "187 Térreo",
      "addr:postcode": "48602-150",
      "addr:street": "Rua da Grécia",
      "addr:suburb": "Paulo Afonso Centro",
      "building": "yes",
      "name": "Escritório Mcc Arquitetura E Publicidade",
      "office": "yes"
      },
      "geometry": {
         "type": "Point",
         "coordinates": [-38.2231597,-9.4056944]
      }
    },
    {
      "type": "Feature",
      "properties": { 
      "IBGE:COD_UNICO_ENDERECO": "27306311",
      "addr:housenumber": "505",
      "addr:postcode": "48609-202",
      "addr:street": "Rua Duque de Caxias",
      "addr:suburb": "Paulo Afonso Centro",
      "building": "yes"
      },
      "geometry": {
         "type": "Point",
         "coordinates": [-38.2216341,-9.4080438]
      }
    },
    {
      "type": "Feature",
      "properties": { 
      "IBGE:COD_UNICO_ENDERECO": "27306224",
      "addr:housenumber": "293",
      "addr:postcode": "48609-202",
      "addr:street": "Rua Duque de Caxias",
      "addr:suburb": "Paulo Afonso Centro",
      "building": "yes"
      },
      "geometry": {
         "type": "Point",
         "coordinates": [-38.2227318,-9.4066965]
      }
    },
    {
      "type": "Feature",
      "properties": { 
      "IBGE:COD_UNICO_ENDERECO": "27306176",
      "addr:housenumber": "173 Térreo",
      "addr:postcode": "48602-150",
      "addr:street": "Rua da Grécia",
      "addr:suburb": "Paulo Afonso Centro",
      "disused": "yes",
      "disused:building": "yes",
      "old_name": "Vago"
      },
      "geometry": {
         "type": "Point",
         "coordinates": [-38.2229868,-9.405606]
      }
    },
    {
      "type": "Feature",
      "properties": { 
      "IBGE:COD_UNICO_ENDERECO": "27306184",
      "addr:housenumber": "190",
      "addr:postcode": "48602-140",
      "addr:street": "Rua Presidente Costa e Silva",
      "addr:suburb": "Paulo Afonso Centro",
      "building": "yes"
      },
      "geometry": {
         "type": "Point",
         "coordinates": [-38.2226913,-9.4058846]
      }
    },
    {
      "type": "Feature",
      "properties": { 
      "IBGE:COD_UNICO_ENDERECO": "27306222",
      "addr:housenumber": "309",
      "addr:postcode": "48609-202",
      "addr:street": "Rua Duque de Caxias",
      "addr:suburb": "Paulo Afonso Centro",
      "building": "yes"
      },
      "geometry": {
         "type": "Point",
         "coordinates": [-38.222679,-9.4067712]
      }
    },
    {
      "type": "Feature",
      "properties": { 
      "IBGE:COD_UNICO_ENDERECO": "27306260;223856508",
      "addr:housenumber": "342",
      "addr:postcode": "48602-140",
      "addr:street": "Rua Presidente Costa e Silva",
      "addr:suburb": "Paulo Afonso Centro",
      "building": "construction"
      },
      "geometry": {
         "type": "Point",
         "coordinates": [-38.22204,-9.4070555]
      }
    },
    {
      "type": "Feature",
      "properties": { 
      "IBGE:COD_UNICO_ENDERECO": "27306219",
      "addr:housenumber": "323",
      "addr:postcode": "48609-202",
      "addr:street": "Rua Duque de Caxias",
      "addr:suburb": "Paulo Afonso Centro",
      "building": "yes"
      },
      "geometry": {
         "type": "Point",
         "coordinates": [-38.2225801,-9.4069111]
      }
    },
    {
      "type": "Feature",
      "properties": { 
      "IBGE:COD_UNICO_ENDERECO": "27306139",
      "addr:housenumber": "272 Térreo",
      "addr:postcode": "48609-202",
      "addr:street": "Rua Duque de Caxias",
      "addr:suburb": "Paulo Afonso Centro",
      "building": "yes"
      },
      "geometry": {
         "type": "Point",
         "coordinates": [-38.2230081,-9.4065529]
      }
    },
    {
      "type": "Feature",
      "properties": { 
      "IBGE:COD_UNICO_ENDERECO": "27306100",
      "addr:housenumber": "305",
      "addr:postcode": "48602-150",
      "addr:street": "Rua da Grécia",
      "addr:suburb": "Paulo Afonso Centro",
      "building": "yes"
      },
      "geometry": {
         "type": "Point",
         "coordinates": [-38.223737,-9.4060061]
      }
    },
    {
      "type": "Feature",
      "properties": { 
      "IBGE:COD_UNICO_ENDERECO": "27306347",
      "addr:housenumber": "396",
      "addr:postcode": "48609-202",
      "addr:street": "Rua Duque de Caxias",
      "addr:suburb": "Paulo Afonso Centro",
      "building": "yes"
      },
      "geometry": {
         "type": "Point",
         "coordinates": [-38.2223263,-9.4074675]
      }
    },
    {
      "type": "Feature",
      "properties": { 
      "IBGE:COD_UNICO_ENDERECO": "27306203",
      "addr:housenumber": "292",
      "addr:postcode": "48602-140",
      "addr:street": "Rua Presidente Costa e Silva",
      "addr:suburb": "Paulo Afonso Centro",
      "building": "yes"
      },
      "geometry": {
         "type": "Point",
         "coordinates": [-38.2223199,-9.4066108]
      }
    },
    {
      "type": "Feature",
      "properties": { 
      "IBGE:COD_UNICO_ENDERECO": "27306106",
      "addr:housenumber": "267",
      "addr:postcode": "48602-150",
      "addr:street": "Rua da Grécia",
      "addr:suburb": "Paulo Afonso Centro",
      "building": "yes"
      },
      "geometry": {
         "type": "Point",
         "coordinates": [-38.2234816,-9.4058585]
      }
    },
    {
      "type": "Feature",
      "properties": { 
      "IBGE:COD_UNICO_ENDERECO": "27306245",
      "addr:housenumber": "197 Frente",
      "addr:postcode": "48609-202",
      "addr:street": "Rua Duque de Caxias",
      "addr:suburb": "Paulo Afonso Centro",
      "building": "yes"
      },
      "geometry": {
         "type": "Point",
         "coordinates": [-38.2232065,-9.4058805]
      }
    },
    {
      "type": "Feature",
      "properties": { 
      "IBGE:COD_UNICO_ENDERECO": "27306359",
      "addr:housenumber": "462",
      "addr:postcode": "48609-202",
      "addr:street": "Rua Duque de Caxias",
      "addr:suburb": "Paulo Afonso Centro",
      "building": "yes"
      },
      "geometry": {
         "type": "Point",
         "coordinates": [-38.2219203,-9.4079462]
      }
    },
    {
      "type": "Feature",
      "properties": { 
      "IBGE:COD_UNICO_ENDERECO": "27306131",
      "addr:housenumber": "234",
      "addr:postcode": "48609-202",
      "addr:street": "Rua Duque de Caxias",
      "addr:suburb": "Paulo Afonso Centro",
      "addr:unit": "Fundos 3",
      "building": "yes"
      },
      "geometry": {
         "type": "Point",
         "coordinates": [-38.2232157,-9.4062976]
      }
    },
    {
      "type": "Feature",
      "properties": { 
      "IBGE:COD_UNICO_ENDERECO": "27306249",
      "addr:housenumber": "195",
      "addr:postcode": "48609-202",
      "addr:street": "Rua Duque de Caxias",
      "addr:suburb": "Paulo Afonso Centro",
      "building": "yes"
      },
      "geometry": {
         "type": "Point",
         "coordinates": [-38.2232102,-9.4058738]
      }
    },
    {
      "type": "Feature",
      "properties": { 
      "IBGE:COD_UNICO_ENDERECO": "27306231",
      "addr:housenumber": "263",
      "addr:postcode": "48609-202",
      "addr:street": "Rua Duque de Caxias",
      "addr:suburb": "Paulo Afonso Centro",
      "building": "yes"
      },
      "geometry": {
         "type": "Point",
         "coordinates": [-38.2228357,-9.4065418]
      }
    },
    {
      "type": "Feature",
      "properties": { 
      "IBGE:COD_UNICO_ENDERECO": "27306152",
      "addr:housenumber": "342 AC",
      "addr:postcode": "48601-410",
      "addr:street": "Rua Manoel Novais",
      "addr:suburb": "Paulo Afonso Centro",
      "building": "yes"
      },
      "geometry": {
         "type": "Point",
         "coordinates": [-38.222684,-9.4070768]
      }
    },
    {
      "type": "Feature",
      "properties": { 
      "IBGE:COD_UNICO_ENDERECO": "27306178",
      "addr:housenumber": "176 Térreo",
      "addr:postcode": "48602-140",
      "addr:street": "Rua Presidente Costa e Silva",
      "addr:suburb": "Paulo Afonso Centro",
      "building": "yes",
      "name": "Mercado Santa Maria",
      "shop": "supermarket"
      },
      "geometry": {
         "type": "Point",
         "coordinates": [-38.2228404,-9.4054736]
      }
    },
    {
      "type": "Feature",
      "properties": { 
      "IBGE:COD_UNICO_ENDERECO": "27306301",
      "addr:housenumber": "559",
      "addr:postcode": "48601-430",
      "addr:street": "Rua dos Navegantes",
      "addr:suburb": "Paulo Afonso Centro",
      "building": "warehouse",
      "description": "CNEFE 2022 Depósito"
      },
      "geometry": {
         "type": "Point",
         "coordinates": [-38.2211839,-9.4083971]
      }
    },
    {
      "type": "Feature",
      "properties": { 
      "IBGE:COD_UNICO_ENDERECO": "27306220",
      "addr:housenumber": "317",
      "addr:postcode": "48609-202",
      "addr:street": "Rua Duque de Caxias",
      "addr:suburb": "Paulo Afonso Centro",
      "building": "yes"
      },
      "geometry": {
         "type": "Point",
         "coordinates": [-38.222589,-9.4068985]
      }
    },
    {
      "type": "Feature",
      "properties": { 
      "IBGE:COD_UNICO_ENDERECO": "27306308",
      "addr:housenumber": "517 A",
      "addr:postcode": "48609-202",
      "addr:street": "Rua Duque de Caxias",
      "addr:suburb": "Paulo Afonso Centro",
      "building": "yes"
      },
      "geometry": {
         "type": "Point",
         "coordinates": [-38.2215415,-9.4081529]
      }
    },
    {
      "type": "Feature",
      "properties": { 
      "IBGE:COD_UNICO_ENDERECO": "27306128",
      "addr:housenumber": "234",
      "addr:postcode": "48609-202",
      "addr:street": "Rua Duque de Caxias",
      "addr:suburb": "Paulo Afonso Centro",
      "building": "yes"
      },
      "geometry": {
         "type": "Point",
         "coordinates": [-38.2231806,-9.4062491]
      }
    },
    {
      "type": "Feature",
      "properties": { 
      "IBGE:COD_UNICO_ENDERECO": "27306338",
      "addr:housenumber": "360",
      "addr:postcode": "48609-202",
      "addr:street": "Rua Duque de Caxias",
      "addr:suburb": "Paulo Afonso Centro",
      "building": "yes"
      },
      "geometry": {
         "type": "Point",
         "coordinates": [-38.2225617,-9.4071284]
      }
    },
    {
      "type": "Feature",
      "properties": { 
      "IBGE:COD_UNICO_ENDERECO": "27306154;223856373;223856375",
      "addr:housenumber": "704",
      "addr:postcode": "48601-410",
      "addr:street": "Rua Manoel Novais",
      "addr:suburb": "Paulo Afonso Centro",
      "building": "yes"
      },
      "geometry": {
         "type": "Point",
         "coordinates": [-38.2227558,-9.4071265]
      }
    },
    {
      "type": "Feature",
      "properties": { 
      "IBGE:COD_UNICO_ENDERECO": "27306386",
      "addr:housenumber": "799",
      "addr:postcode": "48601-320",
      "addr:street": "Avenida José Hemetério de Carvalho",
      "addr:suburb": "Paulo Afonso Centro",
      "building": "yes"
      },
      "geometry": {
         "type": "Point",
         "coordinates": [-38.2219733,-9.4085222]
      }
    },
    {
      "type": "Feature",
      "properties": { 
      "IBGE:COD_UNICO_ENDERECO": "27306377",
      "addr:housenumber": "34",
      "addr:postcode": "48601-430",
      "addr:street": "Rua dos Navegantes",
      "addr:suburb": "Paulo Afonso Centro",
      "addr:unit": "Fundos 1",
      "building": "yes"
      },
      "geometry": {
         "type": "Point",
         "coordinates": [-38.2215843,-9.4085633]
      }
    },
    {
      "type": "Feature",
      "properties": { 
      "IBGE:COD_UNICO_ENDERECO": "216631888",
      "addr:housenumber": "47",
      "addr:postcode": "48608-230",
      "addr:street": "Rua do Bom Conselho",
      "addr:suburb": "Paulo Afonso Centro",
      "building": "yes"
      },
      "geometry": {
         "type": "Point",
         "coordinates": [-38.2143123,-9.4007014]
      }
    },
    {
      "type": "Feature",
      "properties": { 
      "IBGE:COD_UNICO_ENDERECO": "27306318",
      "addr:housenumber": "427",
      "addr:postcode": "48609-202",
      "addr:street": "Rua Duque de Caxias",
      "addr:suburb": "Paulo Afonso Centro",
      "building": "yes"
      },
      "geometry": {
         "type": "Point",
         "coordinates": [-38.2220312,-9.4075756]
      }
    },
    {
      "type": "Feature",
      "properties": { 
      "IBGE:COD_UNICO_ENDERECO": "27306267",
      "addr:housenumber": "378",
      "addr:postcode": "48602-140",
      "addr:street": "Rua Presidente Costa e Silva",
      "addr:suburb": "Paulo Afonso Centro",
      "building": "yes"
      },
      "geometry": {
         "type": "Point",
         "coordinates": [-38.22182,-9.4073581]
      }
    },
    {
      "type": "Feature",
      "properties": { 
      "IBGE:COD_UNICO_ENDERECO": "216631891",
      "addr:housenumber": "10",
      "addr:postcode": "48608-230",
      "addr:street": "Rua do Bom Conselho",
      "addr:suburb": "Paulo Afonso Centro",
      "addr:unit": "Depósito 1",
      "building": "warehouse",
      "description": "CNEFE 2022 Depósito de Lixo"
      },
      "geometry": {
         "type": "Point",
         "coordinates": [-38.214294,-9.4006618]
      }
    },
    {
      "type": "Feature",
      "properties": { 
      "IBGE:COD_UNICO_ENDERECO": "27306201",
      "addr:housenumber": "280",
      "addr:postcode": "48602-140",
      "addr:street": "Rua Presidente Costa e Silva",
      "addr:suburb": "Paulo Afonso Centro",
      "building": "yes"
      },
      "geometry": {
         "type": "Point",
         "coordinates": [-38.2223906,-9.4064762]
      }
    },
    {
      "type": "Feature",
      "properties": { 
      "IBGE:COD_UNICO_ENDERECO": "27306250",
      "addr:housenumber": "193",
      "addr:postcode": "48609-202",
      "addr:street": "Rua Duque de Caxias",
      "addr:suburb": "Paulo Afonso Centro",
      "building": "yes",
      "craft": "dressmaker",
      "description": "CNEFE 2022 Ateliê de Costura"
      },
      "geometry": {
         "type": "Point",
         "coordinates": [-38.2232592,-9.4057939]
      }
    },
    {
      "type": "Feature",
      "properties": { 
      "IBGE:COD_UNICO_ENDERECO": "27306151",
      "addr:housenumber": "332",
      "addr:postcode": "48609-202",
      "addr:street": "Rua Duque de Caxias",
      "addr:suburb": "Paulo Afonso Centro",
      "building": "yes"
      },
      "geometry": {
         "type": "Point",
         "coordinates": [-38.2227332,-9.4069634]
      }
    },
    {
      "type": "Feature",
      "properties": { 
      "IBGE:COD_UNICO_ENDERECO": "223856427",
      "addr:housenumber": "176 Térreo",
      "addr:postcode": "48602-140",
      "addr:street": "Rua Presidente Costa e Silva",
      "addr:suburb": "Paulo Afonso Centro",
      "building": "yes",
      "name": "Estúdio Lopes"
      },
      "geometry": {
         "type": "Point",
         "coordinates": [-38.2228471,-9.4055707]
      }
    },
    {
      "type": "Feature",
      "properties": { 
      "IBGE:COD_UNICO_ENDERECO": "27306335-27306336",
      "addr:housenumber": "723",
      "addr:postcode": "48601-410",
      "addr:street": "Rua Manoel Novais",
      "addr:suburb": "Paulo Afonso Centro",
      "building": "yes"
      },
      "geometry": {
         "type": "Point",
         "coordinates": [-38.2227228,-9.4073032]
      }
    },
    {
      "type": "Feature",
      "properties": { 
      "IBGE:COD_UNICO_ENDERECO": "27306241",
      "addr:housenumber": "209",
      "addr:postcode": "48609-202",
      "addr:street": "Rua Duque de Caxias",
      "addr:suburb": "Paulo Afonso Centro",
      "building": "yes"
      },
      "geometry": {
         "type": "Point",
         "coordinates": [-38.2230986,-9.4060785]
      }
    },
    {
      "type": "Feature",
      "properties": { 
      "IBGE:COD_UNICO_ENDERECO": "27306239",
      "addr:housenumber": "221",
      "addr:postcode": "48609-202",
      "addr:street": "Rua Duque de Caxias",
      "addr:suburb": "Paulo Afonso Centro",
      "building": "yes"
      },
      "geometry": {
         "type": "Point",
         "coordinates": [-38.2231176,-9.4060449]
      }
    },
    {
      "type": "Feature",
      "properties": { 
      "IBGE:COD_UNICO_ENDERECO": "27306327",
      "addr:housenumber": "379",
      "addr:postcode": "48609-202",
      "addr:street": "Rua Duque de Caxias",
      "addr:suburb": "Paulo Afonso Centro",
      "building": "yes"
      },
      "geometry": {
         "type": "Point",
         "coordinates": [-38.222273,-9.4072905]
      }
    },
    {
      "type": "Feature",
      "properties": { 
      "IBGE:COD_UNICO_ENDERECO": "27306187",
      "addr:housenumber": "208",
      "addr:postcode": "48602-140",
      "addr:street": "Rua Presidente Costa e Silva",
      "addr:suburb": "Paulo Afonso Centro",
      "amenity": "place_of_worship",
      "building": "church",
      "denomination": "pentecostal;protestant",
      "name": "Igreja Batista Tabernáculo Cultos Religi",
      "religion": "christian"
      },
      "geometry": {
         "type": "Point",
         "coordinates": [-38.2226876,-9.4058922]
      }
    },
    {
      "type": "Feature",
      "properties": { 
      "IBGE:COD_UNICO_ENDERECO": "27305007",
      "addr:housenumber": "57",
      "addr:postcode": "48608-230",
      "addr:street": "Rua do Bom Conselho",
      "addr:suburb": "Paulo Afonso Centro",
      "building": "yes"
      },
      "geometry": {
         "type": "Point",
         "coordinates": [-38.2143537,-9.4007908]
      }
    },
    {
      "type": "Feature",
      "properties": { 
      "IBGE:COD_UNICO_ENDERECO": "27306346",
      "addr:housenumber": "396 Térreo",
      "addr:postcode": "48609-202",
      "addr:street": "Rua Duque de Caxias",
      "addr:suburb": "Paulo Afonso Centro",
      "building": "yes"
      },
      "geometry": {
         "type": "Point",
         "coordinates": [-38.2223416,-9.4074494]
      }
    },
    {
      "type": "Feature",
      "properties": { 
      "IBGE:COD_UNICO_ENDERECO": "27306208",
      "addr:housenumber": "300",
      "addr:postcode": "48602-140",
      "addr:street": "Rua Presidente Costa e Silva",
      "addr:suburb": "Paulo Afonso Centro",
      "building": "yes"
      },
      "geometry": {
         "type": "Point",
         "coordinates": [-38.2222918,-9.4066643]
      }
    },
    {
      "type": "Feature",
      "properties": { 
      "IBGE:COD_UNICO_ENDERECO": "223856611",
      "addr:housenumber": "867",
      "addr:postcode": "48601-320",
      "addr:street": "Avenida José Hemetério de Carvalho",
      "addr:suburb": "Paulo Afonso Centro",
      "addr:unit": "Casa",
      "building": "yes"
      },
      "geometry": {
         "type": "Point",
         "coordinates": [-38.2219109,-9.4085876]
      }
    },
    {
      "type": "Feature",
      "properties": { 
      "IBGE:COD_UNICO_ENDERECO": "27306283",
      "addr:housenumber": "452",
      "addr:postcode": "48602-140",
      "addr:street": "Rua Presidente Costa e Silva",
      "addr:suburb": "Paulo Afonso Centro",
      "building": "yes"
      },
      "geometry": {
         "type": "Point",
         "coordinates": [-38.2214024,-9.4079327]
      }
    },
    {
      "type": "Feature",
      "properties": { 
      "IBGE:COD_UNICO_ENDERECO": "27306098",
      "addr:housenumber": "365",
      "addr:postcode": "48602-150",
      "addr:street": "Rua da Grécia",
      "addr:suburb": "Paulo Afonso Centro",
      "building": "yes"
      },
      "geometry": {
         "type": "Point",
         "coordinates": [-38.223866,-9.4061006]
      }
    },
    {
      "type": "Feature",
      "properties": { 
      "IBGE:COD_UNICO_ENDERECO": "27306233",
      "addr:housenumber": "251",
      "addr:postcode": "48609-202",
      "addr:street": "Rua Duque de Caxias",
      "addr:suburb": "Paulo Afonso Centro",
      "building": "yes"
      },
      "geometry": {
         "type": "Point",
         "coordinates": [-38.222908,-9.4064144]
      }
    },
    {
      "type": "Feature",
      "properties": { 
      "IBGE:COD_UNICO_ENDERECO": "27306195",
      "addr:housenumber": "244",
      "addr:postcode": "48602-140",
      "addr:street": "Rua Presidente Costa e Silva",
      "addr:suburb": "Paulo Afonso Centro",
      "building": "yes",
      "name": "Quentinha e Feijoada"
      },
      "geometry": {
         "type": "Point",
         "coordinates": [-38.222547678241,-9.4061538347967]
      }
    },
    {
      "type": "Feature",
      "properties": { 
      "IBGE:COD_UNICO_ENDERECO": "27306205",
      "addr:housenumber": "292",
      "addr:postcode": "48602-140",
      "addr:street": "Rua Presidente Costa e Silva",
      "addr:suburb": "Paulo Afonso Centro",
      "addr:unit": "Fundos 2",
      "building": "yes"
      },
      "geometry": {
         "type": "Point",
         "coordinates": [-38.222373,-9.4066269]
      }
    },
    {
      "type": "Feature",
      "properties": { 
      "IBGE:COD_UNICO_ENDERECO": "27305003",
      "addr:housenumber": "101",
      "addr:postcode": "48608-230",
      "addr:street": "Rua do Bom Conselho",
      "addr:suburb": "Paulo Afonso Centro",
      "building": "warehouse",
      "description": "CNEFE 2022 Depósito"
      },
      "geometry": {
         "type": "Point",
         "coordinates": [-38.2146369,-9.4013194]
      }
    },
    {
      "type": "Feature",
      "properties": { 
      "IBGE:COD_UNICO_ENDERECO": "27306193",
      "addr:housenumber": "232",
      "addr:postcode": "48602-140",
      "addr:street": "Rua Presidente Costa e Silva",
      "addr:suburb": "Paulo Afonso Centro",
      "building": "garage",
      "description": "CNEFE 2022 Garagem"
      },
      "geometry": {
         "type": "Point",
         "coordinates": [-38.2225994,-9.4060707]
      }
    },
    {
      "type": "Feature",
      "properties": { 
      "IBGE:COD_UNICO_ENDERECO": "216631894",
      "addr:housenumber": "3",
      "addr:postcode": "48608-230",
      "addr:street": "Rua do Bom Conselho",
      "addr:suburb": "Paulo Afonso Centro",
      "building": "yes"
      },
      "geometry": {
         "type": "Point",
         "coordinates": [-38.214112,-9.400234]
      }
    },
    {
      "type": "Feature",
      "properties": { 
      "IBGE:COD_UNICO_ENDERECO": "27306263",
      "addr:housenumber": "362",
      "addr:postcode": "48602-140",
      "addr:street": "Rua Presidente Costa e Silva",
      "addr:suburb": "Paulo Afonso Centro",
      "building": "yes"
      },
      "geometry": {
         "type": "Point",
         "coordinates": [-38.2219128,-9.4072305]
      }
    },
    {
      "type": "Feature",
      "properties": { 
      "IBGE:COD_UNICO_ENDERECO": "27306152",
      "addr:housenumber": "342 AC",
      "addr:postcode": "48601-410",
      "addr:street": "Rua Manoel Novais",
      "addr:suburb": "Paulo Afonso Centro",
      "disused": "yes",
      "disused:building": "yes",
      "old_name": "Vago"
      },
      "geometry": {
         "type": "Point",
         "coordinates": [-38.22268413163,-9.4070849963619]
      }
    },
    {
      "type": "Feature",
      "properties": { 
      "IBGE:COD_UNICO_ENDERECO": "223856621",
      "addr:housenumber": "47",
      "addr:postcode": "48601-320",
      "addr:street": "Avenida José Hemetério de Carvalho",
      "addr:suburb": "Paulo Afonso Centro",
      "building": "yes",
      "fixme": "Confirmar nome",
      "name": "Mimus Pet"
      },
      "geometry": {
         "type": "Point",
         "coordinates": [-38.2220258,-9.4084672]
      }
    },
    {
      "type": "Feature",
      "properties": { 
      "IBGE:COD_UNICO_ENDERECO": "27306315",
      "addr:housenumber": "457",
      "addr:postcode": "48609-202",
      "addr:street": "Rua Duque de Caxias",
      "addr:suburb": "Paulo Afonso Centro",
      "building": "yes"
      },
      "geometry": {
         "type": "Point",
         "coordinates": [-38.221901993323,-9.407700745612]
      }
    },
    {
      "type": "Feature",
      "properties": { 
      "IBGE:COD_UNICO_ENDERECO": "27306173",
      "addr:housenumber": "3",
      "addr:postcode": "48602-150",
      "addr:street": "Rua da Grécia",
      "addr:suburb": "Paulo Afonso Centro",
      "building": "yes"
      },
      "geometry": {
         "type": "Point",
         "coordinates": [-38.2230608,-9.4056456]
      }
    },
    {
      "type": "Feature",
      "properties": { 
      "IBGE:COD_UNICO_ENDERECO": "27305011",
      "addr:housenumber": "17",
      "addr:postcode": "48608-230",
      "addr:street": "Rua do Bom Conselho",
      "addr:suburb": "Paulo Afonso Centro",
      "building": "yes"
      },
      "geometry": {
         "type": "Point",
         "coordinates": [-38.214196,-9.4004502]
      }
    },
    {
      "type": "Feature",
      "properties": { 
      "IBGE:COD_UNICO_ENDERECO": "27305009",
      "addr:housenumber": "45",
      "addr:postcode": "48608-230",
      "addr:street": "Rua do Bom Conselho",
      "addr:suburb": "Paulo Afonso Centro",
      "building": "yes"
      },
      "geometry": {
         "type": "Point",
         "coordinates": [-38.2143158,-9.400709]
      }
    },
    {
      "type": "Feature",
      "properties": { 
      "IBGE:COD_UNICO_ENDERECO": "223856521",
      "addr:housenumber": "452 A",
      "addr:postcode": "48602-140",
      "addr:street": "Rua Presidente Costa e Silva",
      "addr:suburb": "Paulo Afonso Centro",
      "building": "yes"
      },
      "geometry": {
         "type": "Point",
         "coordinates": [-38.2214727,-9.407836]
      }
    },
    {
      "type": "Feature",
      "properties": { 
      "IBGE:COD_UNICO_ENDERECO": "27306387",
      "addr:housenumber": "801 A",
      "addr:postcode": "48601-320",
      "addr:street": "Avenida José Hemetério de Carvalho",
      "addr:suburb": "Paulo Afonso Centro",
      "building": "yes",
      "fixme": "Confirmar nome",
      "name": "Mimus Pet"
      },
      "geometry": {
         "type": "Point",
         "coordinates": [-38.222083214257,-9.408427368701]
      }
    },
    {
      "type": "Feature",
      "properties": { 
      "IBGE:COD_UNICO_ENDERECO": "27306174-27306175",
      "addr:housenumber": "173",
      "addr:postcode": "48602-150",
      "addr:street": "Rua da Grécia",
      "addr:suburb": "Paulo Afonso Centro",
      "building": "construction"
      },
      "geometry": {
         "type": "Point",
         "coordinates": [-38.2230108,-9.4056187]
      }
    },
    {
      "type": "Feature",
      "properties": { 
      "IBGE:COD_UNICO_ENDERECO": "27306340",
      "addr:housenumber": "370",
      "addr:postcode": "48609-202",
      "addr:street": "Rua Duque de Caxias",
      "addr:suburb": "Paulo Afonso Centro",
      "building": "yes"
      },
      "geometry": {
         "type": "Point",
         "coordinates": [-38.2224855,-9.4072797]
      }
    },
    {
      "type": "Feature",
      "properties": { 
      "IBGE:COD_UNICO_ENDERECO": "27306169",
      "addr:housenumber": "187",
      "addr:postcode": "48602-150",
      "addr:street": "Rua da Grécia",
      "addr:suburb": "Paulo Afonso Centro",
      "building": "yes"
      },
      "geometry": {
         "type": "Point",
         "coordinates": [-38.2231649,-9.405697]
      }
    },
    {
      "type": "Feature",
      "properties": { 
      "IBGE:COD_UNICO_ENDERECO": "27306132",
      "addr:housenumber": "240",
      "addr:postcode": "48609-202",
      "addr:street": "Rua Duque de Caxias",
      "addr:suburb": "Paulo Afonso Centro",
      "building": "yes",
      "name": "R e R Celular"
      },
      "geometry": {
         "type": "Point",
         "coordinates": [-38.223129289108,-9.4063618733878]
      }
    },
    {
      "type": "Feature",
      "properties": { 
      "IBGE:COD_UNICO_ENDERECO": "27306103",
      "addr:housenumber": "275 B",
      "addr:postcode": "48602-150",
      "addr:street": "Rua da Grécia",
      "addr:suburb": "Paulo Afonso Centro",
      "building": "yes"
      },
      "geometry": {
         "type": "Point",
         "coordinates": [-38.2235117,-9.4058745]
      }
    },
    {
      "type": "Feature",
      "properties": { 
      "IBGE:COD_UNICO_ENDERECO": "27306279",
      "addr:housenumber": "432",
      "addr:postcode": "48602-140",
      "addr:street": "Rua Presidente Costa e Silva",
      "addr:suburb": "Paulo Afonso Centro",
      "building": "yes"
      },
      "geometry": {
         "type": "Point",
         "coordinates": [-38.2214679,-9.4078426]
      }
    },
    {
      "type": "Feature",
      "properties": { 
      "IBGE:COD_UNICO_ENDERECO": "27306393",
      "addr:housenumber": "438",
      "addr:postcode": "48601-320",
      "addr:street": "Avenida José Hemetério de Carvalho",
      "addr:suburb": "Paulo Afonso Centro",
      "building": "yes",
      "name": "Tarciso Motos",
      "shop": "motorcycle"
      },
      "geometry": {
         "type": "Point",
         "coordinates": [-38.2226092,-9.4078557]
      }
    },
    {
      "type": "Feature",
      "properties": { 
      "IBGE:COD_UNICO_ENDERECO": "27306115",
      "addr:housenumber": "188",
      "addr:postcode": "48609-202",
      "addr:street": "Rua Duque de Caxias",
      "addr:suburb": "Paulo Afonso Centro",
      "addr:unit": "Fundos 2",
      "building": "yes"
      },
      "geometry": {
         "type": "Point",
         "coordinates": [-38.2233885,-9.4059854]
      }
    },
    {
      "type": "Feature",
      "properties": { 
      "IBGE:COD_UNICO_ENDERECO": "27306395-27306396",
      "addr:housenumber": "602",
      "addr:postcode": "48601-320",
      "addr:street": "Avenida José Hemetério de Carvalho",
      "addr:suburb": "Paulo Afonso Centro",
      "building": "yes"
      },
      "geometry": {
         "type": "Point",
         "coordinates": [-38.2228885,-9.4075629]
      }
    },
    {
      "type": "Feature",
      "properties": { 
      "IBGE:COD_UNICO_ENDERECO": "223856609",
      "addr:housenumber": "867 Térreo A",
      "addr:postcode": "48601-320",
      "addr:street": "Avenida José Hemetério de Carvalho",
      "addr:suburb": "Paulo Afonso Centro",
      "building": "yes",
      "craft": "electronics_repair",
      "name": "Eletrônica Alan Elétron"
      },
      "geometry": {
         "type": "Point",
         "coordinates": [-38.2218389,-9.4086632]
      }
    },
    {
      "type": "Feature",
      "properties": { 
      "IBGE:COD_UNICO_ENDERECO": "27306105",
      "addr:housenumber": "267 Térreo",
      "addr:postcode": "48602-150",
      "addr:street": "Rua da Grécia",
      "addr:suburb": "Paulo Afonso Centro",
      "building": "yes",
      "name": "Jg Frio"
      },
      "geometry": {
         "type": "Point",
         "coordinates": [-38.2234231,-9.4057943]
      }
    },
    {
      "type": "Feature",
      "properties": { 
      "IBGE:COD_UNICO_ENDERECO": "27306158",
      "addr:housenumber": "643 Térreo",
      "addr:postcode": "48601-320",
      "addr:street": "Avenida José Hemetério de Carvalho",
      "addr:suburb": "Paulo Afonso Centro",
      "building": "yes"
      },
      "geometry": {
         "type": "Point",
         "coordinates": [-38.2234974,-9.4069283]
      }
    },
    {
      "type": "Feature",
      "properties": { 
      "IBGE:COD_UNICO_ENDERECO": "27306287",
      "addr:housenumber": "476",
      "addr:postcode": "48602-140",
      "addr:street": "Rua Presidente Costa e Silva",
      "addr:suburb": "Paulo Afonso Centro",
      "building": "yes"
      },
      "geometry": {
         "type": "Point",
         "coordinates": [-38.2212809,-9.4080999]
      }
    },
    {
      "type": "Feature",
      "properties": { 
      "IBGE:COD_UNICO_ENDERECO": "27306306",
      "addr:housenumber": "517 C",
      "addr:postcode": "48609-202",
      "addr:street": "Rua Duque de Caxias",
      "addr:suburb": "Paulo Afonso Centro",
      "building": "yes"
      },
      "geometry": {
         "type": "Point",
         "coordinates": [-38.2214799,-9.4082256]
      }
    },
    {
      "type": "Feature",
      "properties": { 
      "IBGE:COD_UNICO_ENDERECO": "27306392",
      "addr:housenumber": "542",
      "addr:postcode": "48601-320",
      "addr:street": "Avenida José Hemetério de Carvalho",
      "addr:suburb": "Paulo Afonso Centro",
      "building": "yes"
      },
      "geometry": {
         "type": "Point",
         "coordinates": [-38.2225346,-9.4079338]
      }
    },
    {
      "type": "Feature",
      "properties": { 
      "IBGE:COD_UNICO_ENDERECO": "27306344",
      "addr:housenumber": "382",
      "addr:postcode": "48609-202",
      "addr:street": "Rua Duque de Caxias",
      "addr:suburb": "Paulo Afonso Centro",
      "building": "yes"
      },
      "geometry": {
         "type": "Point",
         "coordinates": [-38.2224299,-9.4073453]
      }
    },
    {
      "type": "Feature",
      "properties": { 
      "IBGE:COD_UNICO_ENDERECO": "27306204",
      "addr:housenumber": "292",
      "addr:postcode": "48602-140",
      "addr:street": "Rua Presidente Costa e Silva",
      "addr:suburb": "Paulo Afonso Centro",
      "addr:unit": "Fundos 1",
      "building": "yes"
      },
      "geometry": {
         "type": "Point",
         "coordinates": [-38.2223821,-9.4066096]
      }
    },
    {
      "type": "Feature",
      "properties": { 
      "IBGE:COD_UNICO_ENDERECO": "27306180-27306182",
      "addr:housenumber": "184",
      "addr:postcode": "48602-140",
      "addr:street": "Rua Presidente Costa e Silva",
      "addr:suburb": "Paulo Afonso Centro",
      "building": "yes"
      },
      "geometry": {
         "type": "Point",
         "coordinates": [-38.2226269,-9.406015]
      }
    },
    {
      "type": "Feature",
      "properties": { 
      "IBGE:COD_UNICO_ENDERECO": "27306156",
      "addr:housenumber": "644",
      "addr:postcode": "48601-320",
      "addr:street": "Avenida José Hemetério de Carvalho",
      "addr:suburb": "Paulo Afonso Centro",
      "building": "yes"
      },
      "geometry": {
         "type": "Point",
         "coordinates": [-38.223114729101,-9.4073439799755]
      }
    },
    {
      "type": "Feature",
      "properties": { 
      "IBGE:COD_UNICO_ENDERECO": "27306146",
      "addr:housenumber": "302",
      "addr:postcode": "48609-202",
      "addr:street": "Rua Duque de Caxias",
      "addr:suburb": "Paulo Afonso Centro",
      "building": "yes"
      },
      "geometry": {
         "type": "Point",
         "coordinates": [-38.2228664,-9.4067752]
      }
    },
    {
      "type": "Feature",
      "properties": { 
      "IBGE:COD_UNICO_ENDERECO": "27306316",
      "addr:housenumber": "455",
      "addr:postcode": "48609-202",
      "addr:street": "Rua Duque de Caxias",
      "addr:suburb": "Paulo Afonso Centro",
      "building": "yes"
      },
      "geometry": {
         "type": "Point",
         "coordinates": [-38.2218851,-9.4077479]
      }
    },
    {
      "type": "Feature",
      "properties": { 
      "IBGE:COD_UNICO_ENDERECO": "27306368",
      "addr:housenumber": "522",
      "addr:postcode": "48609-202",
      "addr:street": "Rua Duque de Caxias",
      "addr:suburb": "Paulo Afonso Centro",
      "building": "yes"
      },
      "geometry": {
         "type": "Point",
         "coordinates": [-38.22155982036,-9.4083666628642]
      }
    },
    {
      "type": "Feature",
      "properties": { 
      "IBGE:COD_UNICO_ENDERECO": "27306266",
      "addr:housenumber": "374",
      "addr:postcode": "48602-140",
      "addr:street": "Rua Presidente Costa e Silva",
      "addr:suburb": "Paulo Afonso Centro",
      "building": "yes"
      },
      "geometry": {
         "type": "Point",
         "coordinates": [-38.221876,-9.407281]
      }
    },
    {
      "type": "Feature",
      "properties": { 
      "IBGE:COD_UNICO_ENDERECO": "27306223",
      "addr:housenumber": "297",
      "addr:postcode": "48609-202",
      "addr:street": "Rua Duque de Caxias",
      "addr:suburb": "Paulo Afonso Centro",
      "building": "yes",
      "name": "Flor de Mandacaru Delivery"
      },
      "geometry": {
         "type": "Point",
         "coordinates": [-38.222693542158,-9.4067490237789]
      }
    },
    {
      "type": "Feature",
      "properties": { 
      "IBGE:COD_UNICO_ENDERECO": "27306099",
      "addr:housenumber": "307",
      "addr:postcode": "48602-150",
      "addr:street": "Rua da Grécia",
      "addr:suburb": "Paulo Afonso Centro",
      "building": "yes"
      },
      "geometry": {
         "type": "Point",
         "coordinates": [-38.2239388,-9.4061576]
      }
    },
    {
      "type": "Feature",
      "properties": { 
      "IBGE:COD_UNICO_ENDERECO": "27306362",
      "addr:housenumber": "496",
      "addr:postcode": "48609-202",
      "addr:street": "Rua Duque de Caxias",
      "addr:suburb": "Paulo Afonso Centro",
      "building": "yes"
      },
      "geometry": {
         "type": "Point",
         "coordinates": [-38.2217378,-9.4081614]
      }
    },
    {
      "type": "Feature",
      "properties": { 
      "IBGE:COD_UNICO_ENDERECO": "27306192",
      "addr:housenumber": "232",
      "addr:postcode": "48602-140",
      "addr:street": "Rua Presidente Costa e Silva",
      "addr:suburb": "Paulo Afonso Centro",
      "building": "yes"
      },
      "geometry": {
         "type": "Point",
         "coordinates": [-38.2225935,-9.4060828]
      }
    },
    {
      "type": "Feature",
      "properties": { 
      "IBGE:COD_UNICO_ENDERECO": "27306319",
      "addr:housenumber": "411",
      "addr:postcode": "48609-202",
      "addr:street": "Rua Duque de Caxias",
      "addr:suburb": "Paulo Afonso Centro",
      "building": "yes"
      },
      "geometry": {
         "type": "Point",
         "coordinates": [-38.2220842,-9.4075131]
      }
    },
    {
      "type": "Feature",
      "properties": { 
      "IBGE:COD_UNICO_ENDERECO": "27306171",
      "addr:housenumber": "131 Térreo",
      "addr:postcode": "48602-150",
      "addr:street": "Rua da Grécia",
      "addr:suburb": "Paulo Afonso Centro",
      "building": "yes",
      "name": "Casa Possy"
      },
      "geometry": {
         "type": "Point",
         "coordinates": [-38.2230791,-9.4056543]
      }
    },
    {
      "type": "Feature",
      "properties": { 
      "IBGE:COD_UNICO_ENDERECO": "27306300",
      "addr:housenumber": "559",
      "addr:postcode": "48601-430",
      "addr:street": "Rua dos Navegantes",
      "addr:suburb": "Paulo Afonso Centro",
      "building": "construction"
      },
      "geometry": {
         "type": "Point",
         "coordinates": [-38.2212494,-9.4084233]
      }
    },
    {
      "type": "Feature",
      "properties": { 
      "IBGE:COD_UNICO_ENDERECO": "27306310",
      "addr:housenumber": "511",
      "addr:postcode": "48609-202",
      "addr:street": "Rua Duque de Caxias",
      "addr:suburb": "Paulo Afonso Centro",
      "building": "yes"
      },
      "geometry": {
         "type": "Point",
         "coordinates": [-38.2215558,-9.4081361]
      }
    },
    {
      "type": "Feature",
      "properties": { 
      "IBGE:COD_UNICO_ENDERECO": "27306342",
      "addr:housenumber": "380",
      "addr:postcode": "48609-202",
      "addr:street": "Rua Duque de Caxias",
      "addr:suburb": "Paulo Afonso Centro",
      "building": "yes"
      },
      "geometry": {
         "type": "Point",
         "coordinates": [-38.2224643,-9.4073047]
      }
    },
    {
      "type": "Feature",
      "properties": { 
      "IBGE:COD_UNICO_ENDERECO": "27306246",
      "addr:housenumber": "197",
      "addr:postcode": "48609-202",
      "addr:street": "Rua Duque de Caxias",
      "addr:suburb": "Paulo Afonso Centro",
      "building": "yes"
      },
      "geometry": {
         "type": "Point",
         "coordinates": [-38.2231808,-9.4059278]
      }
    },
    {
      "type": "Feature",
      "properties": { 
      "IBGE:COD_UNICO_ENDERECO": "27306141",
      "addr:housenumber": "278",
      "addr:postcode": "48609-202",
      "addr:street": "Rua Duque de Caxias",
      "addr:suburb": "Paulo Afonso Centro",
      "building": "yes"
      },
      "geometry": {
         "type": "Point",
         "coordinates": [-38.222987,-9.4065901]
      }
    },
    {
      "type": "Feature",
      "properties": { 
      "IBGE:COD_UNICO_ENDERECO": "27306235",
      "addr:housenumber": "242",
      "addr:postcode": "48609-202",
      "addr:street": "Rua Duque de Caxias",
      "addr:suburb": "Paulo Afonso Centro",
      "building": "garage",
      "description": "CNEFE 2022 Garagem"
      },
      "geometry": {
         "type": "Point",
         "coordinates": [-38.2229783,-9.4062905]
      }
    },
    {
      "type": "Feature",
      "properties": { 
      "IBGE:COD_UNICO_ENDERECO": "27306237",
      "addr:housenumber": "229",
      "addr:postcode": "48609-202",
      "addr:street": "Rua Duque de Caxias",
      "addr:suburb": "Paulo Afonso Centro",
      "building": "yes"
      },
      "geometry": {
         "type": "Point",
         "coordinates": [-38.2230352,-9.4061903]
      }
    },
    {
      "type": "Feature",
      "properties": { 
      "IBGE:COD_UNICO_ENDERECO": "27306265",
      "addr:housenumber": "370",
      "addr:postcode": "48602-140",
      "addr:street": "Rua Presidente Costa e Silva",
      "addr:suburb": "Paulo Afonso Centro",
      "building": "yes"
      },
      "geometry": {
         "type": "Point",
         "coordinates": [-38.2218822,-9.4072726]
      }
    },
    {
      "type": "Feature",
      "properties": { 
      "IBGE:COD_UNICO_ENDERECO": "27306144",
      "addr:housenumber": "290 A",
      "addr:postcode": "48609-202",
      "addr:street": "Rua Duque de Caxias",
      "addr:suburb": "Paulo Afonso Centro",
      "building": "yes"
      },
      "geometry": {
         "type": "Point",
         "coordinates": [-38.2228816,-9.4067539]
      }
    },
    {
      "type": "Feature",
      "properties": { 
      "IBGE:COD_UNICO_ENDERECO": "27306361",
      "addr:housenumber": "512",
      "addr:postcode": "48609-202",
      "addr:street": "Rua Duque de Caxias",
      "addr:suburb": "Paulo Afonso Centro",
      "building": "yes"
      },
      "geometry": {
         "type": "Point",
         "coordinates": [-38.2217796,-9.408112]
      }
    },
    {
      "type": "Feature",
      "properties": { 
      "IBGE:COD_UNICO_ENDERECO": "27306369",
      "addr:housenumber": "526",
      "addr:postcode": "48609-202",
      "addr:street": "Rua Duque de Caxias",
      "addr:suburb": "Paulo Afonso Centro",
      "building": "yes"
      },
      "geometry": {
         "type": "Point",
         "coordinates": [-38.2215433,-9.4083907]
      }
    },
    {
      "type": "Feature",
      "properties": { 
      "IBGE:COD_UNICO_ENDERECO": "27306186",
      "addr:housenumber": "202",
      "addr:postcode": "48602-140",
      "addr:street": "Rua Presidente Costa e Silva",
      "addr:suburb": "Paulo Afonso Centro",
      "building": "yes"
      },
      "geometry": {
         "type": "Point",
         "coordinates": [-38.2227157,-9.4058352]
      }
    },
    {
      "type": "Feature",
      "properties": { 
      "IBGE:COD_UNICO_ENDERECO": "223856619",
      "addr:housenumber": "867 A",
      "addr:postcode": "48601-320",
      "addr:street": "Avenida José Hemetério de Carvalho",
      "addr:suburb": "Paulo Afonso Centro",
      "building": "yes"
      },
      "geometry": {
         "type": "Point",
         "coordinates": [-38.2218628,-9.4086381]
      }
    },
    {
      "type": "Feature",
      "properties": { 
      "IBGE:COD_UNICO_ENDERECO": "27306326",
      "addr:housenumber": "385",
      "addr:postcode": "48609-202",
      "addr:street": "Rua Duque de Caxias",
      "addr:suburb": "Paulo Afonso Centro",
      "building": "yes"
      },
      "geometry": {
         "type": "Point",
         "coordinates": [-38.2222113,-9.4073632]
      }
    },
    {
      "type": "Feature",
      "properties": { 
      "IBGE:COD_UNICO_ENDERECO": "27306116",
      "addr:housenumber": "188",
      "addr:postcode": "48609-202",
      "addr:street": "Rua Duque de Caxias",
      "addr:suburb": "Paulo Afonso Centro",
      "addr:unit": "Fundos 3",
      "building": "yes"
      },
      "geometry": {
         "type": "Point",
         "coordinates": [-38.2233941,-9.4059751]
      }
    },
    {
      "type": "Feature",
      "properties": { 
      "IBGE:COD_UNICO_ENDERECO": "27306142",
      "addr:housenumber": "284",
      "addr:postcode": "48609-202",
      "addr:street": "Rua Duque de Caxias",
      "addr:suburb": "Paulo Afonso Centro",
      "building": "yes"
      },
      "geometry": {
         "type": "Point",
         "coordinates": [-38.222926296005,-9.4066959857377]
      }
    },
    {
      "type": "Feature",
      "properties": { 
      "IBGE:COD_UNICO_ENDERECO": "27306199",
      "addr:housenumber": "268",
      "addr:postcode": "48602-140",
      "addr:street": "Rua Presidente Costa e Silva",
      "addr:suburb": "Paulo Afonso Centro",
      "building": "construction"
      },
      "geometry": {
         "type": "Point",
         "coordinates": [-38.2224243,-9.4064122]
      }
    },
    {
      "type": "Feature",
      "properties": { 
      "IBGE:COD_UNICO_ENDERECO": "27306288",
      "addr:housenumber": "482",
      "addr:postcode": "48602-140",
      "addr:street": "Rua Presidente Costa e Silva",
      "addr:suburb": "Paulo Afonso Centro",
      "building": "yes"
      },
      "geometry": {
         "type": "Point",
         "coordinates": [-38.2212655,-9.4081211]
      }
    },
    {
      "type": "Feature",
      "properties": { 
      "IBGE:COD_UNICO_ENDERECO": "223856365",
      "addr:housenumber": "196",
      "addr:postcode": "48609-202",
      "addr:street": "Rua Duque de Caxias",
      "addr:suburb": "Paulo Afonso Centro",
      "addr:unit": "Fundos 3",
      "building": "yes"
      },
      "geometry": {
         "type": "Point",
         "coordinates": [-38.223375316581,-9.4060229114057]
      }
    },
    {
      "type": "Feature",
      "properties": { 
      "IBGE:COD_UNICO_ENDERECO": "27306303",
      "addr:housenumber": "537",
      "addr:postcode": "48609-202",
      "addr:street": "Rua Duque de Caxias",
      "addr:suburb": "Paulo Afonso Centro",
      "building": "yes"
      },
      "geometry": {
         "type": "Point",
         "coordinates": [-38.2214427,-9.4082695]
      }
    }
  ]
}
