{
  "type": "FeatureCollection",
  "source": "IBGE CNEFE + Faces de Logradouros - 2022",
  "generator": "CSV-CNEFE2GeoJSON.lua 1.5.7 - fidelis.assis@gmail.com",
  "date": "2025-02-02T09:05:27-0300",
  "features": [
    {
      "type": "Feature",
      "properties": { 
      "IBGE:COD_UNICO_ENDERECO": "192022515",
      "addr:housenumber": "22",
      "addr:postcode": "48610-488",
      "addr:street": "Povoado Matinha",
      "addr:suburb": "Matinha",
      "building": "yes",
      "fixme": "Verificar coordenadas",
      "note": "Sem setor ou quadra no bayface do IBGE 0500-0106P-0-94"
      },
      "geometry": {
         "type": "Point",
         "coordinates": [-38.222323,-9.594435]
      }
    },
    {
      "type": "Feature",
      "properties": { 
      "IBGE:COD_UNICO_ENDERECO": "27411666;112580183",
      "addr:housenumber": "58",
      "addr:postcode": "48601-018",
      "addr:street": "Povoado Matinha",
      "addr:suburb": "Matinha",
      "building": "yes",
      "fixme": "Verificar coordenadas",
      "note": "Sem setor ou quadra no bayface do IBGE 0500-0106P-0-95"
      },
      "geometry": {
         "type": "Point",
         "coordinates": [-38.2031295,-9.611559]
      }
    },
    {
      "type": "Feature",
      "properties": { 
      "IBGE:COD_UNICO_ENDERECO": "112580216",
      "addr:housenumber": "21",
      "addr:postcode": "48601-018",
      "addr:street": "Povoado Matinha",
      "addr:suburb": "Matinha",
      "building": "construction",
      "fixme": "Verificar coordenadas",
      "note": "Sem setor ou quadra no bayface do IBGE 0500-0106P-0-95"
      },
      "geometry": {
         "type": "Point",
         "coordinates": [-38.22105,-9.596231]
      }
    },
    {
      "type": "Feature",
      "properties": { 
      "IBGE:COD_UNICO_ENDERECO": "192022567",
      "addr:housenumber": "39",
      "addr:postcode": "48610-488",
      "addr:street": "Povoado Matinha",
      "addr:suburb": "Matinha",
      "building": "yes",
      "fixme": "Verificar coordenadas",
      "note": "Sem setor ou quadra no bayface do IBGE 0500-0106P-0-94"
      },
      "geometry": {
         "type": "Point",
         "coordinates": [-38.214927,-9.598161]
      }
    },
    {
      "type": "Feature",
      "properties": { 
      "IBGE:COD_UNICO_ENDERECO": "192022457",
      "addr:housenumber": "5",
      "addr:postcode": "48610-488",
      "addr:street": "Povoado Matinha",
      "addr:suburb": "Matinha",
      "building": "yes",
      "fixme": "Verificar coordenadas",
      "note": "Sem setor ou quadra no bayface do IBGE 0500-0106P-0-94"
      },
      "geometry": {
         "type": "Point",
         "coordinates": [-38.224431,-9.589645]
      }
    },
    {
      "type": "Feature",
      "properties": { 
      "IBGE:COD_UNICO_ENDERECO": "27411663",
      "addr:housenumber": "56",
      "addr:postcode": "48601-018",
      "addr:street": "Povoado Matinha",
      "addr:suburb": "Matinha",
      "building": "yes",
      "fixme": "Verificar coordenadas",
      "note": "Sem setor ou quadra no bayface do IBGE 0500-0106P-0-95"
      },
      "geometry": {
         "type": "Point",
         "coordinates": [-38.205198,-9.601969]
      }
    },
    {
      "type": "Feature",
      "properties": { 
      "IBGE:COD_UNICO_ENDERECO": "192022447",
      "addr:housenumber": "2",
      "addr:postcode": "48610-488",
      "addr:street": "Povoado Matinha",
      "addr:suburb": "Matinha",
      "building": "yes",
      "fixme": "Verificar coordenadas",
      "note": "Sem setor ou quadra no bayface do IBGE 0500-0106P-0-94"
      },
      "geometry": {
         "type": "Point",
         "coordinates": [-38.224808,-9.588737]
      }
    },
    {
      "type": "Feature",
      "properties": { 
      "IBGE:COD_UNICO_ENDERECO": "192022579",
      "addr:housenumber": "43",
      "addr:postcode": "48610-488",
      "addr:street": "Povoado Matinha",
      "addr:suburb": "Matinha",
      "building": "yes",
      "fixme": "Verificar coordenadas",
      "note": "Sem setor ou quadra no bayface do IBGE 0500-0106P-0-94"
      },
      "geometry": {
         "type": "Point",
         "coordinates": [-38.214983,-9.598037]
      }
    },
    {
      "type": "Feature",
      "properties": { 
      "IBGE:COD_UNICO_ENDERECO": "27411670",
      "addr:housenumber": "16",
      "addr:postcode": "48601-022",
      "addr:street": "Povoado Matinha",
      "addr:suburb": "Matinha",
      "building": "yes",
      "fixme": "Verificar coordenadas",
      "note": "Sem setor ou quadra no bayface do IBGE 0500-0106P-0-96"
      },
      "geometry": {
         "type": "Point",
         "coordinates": [-38.22441,-9.594242]
      }
    },
    {
      "type": "Feature",
      "properties": { 
      "IBGE:COD_UNICO_ENDERECO": "192022791",
      "addr:housenumber": "86",
      "addr:postcode": "48608-610",
      "addr:street": "Povoado Matinha",
      "addr:suburb": "Matinha",
      "building": "yes",
      "fixme": "Verificar coordenadas",
      "note": "Sem setor ou quadra no bayface do IBGE 0500-0106P-0-102"
      },
      "geometry": {
         "type": "Point",
         "coordinates": [-38.185494,-9.59254]
      }
    },
    {
      "type": "Feature",
      "properties": { 
      "IBGE:COD_UNICO_ENDERECO": "192022608",
      "addr:housenumber": "65",
      "addr:postcode": "48610-488",
      "addr:street": "Povoado Matinha",
      "addr:suburb": "Matinha",
      "building": "yes",
      "fixme": "Verificar coordenadas",
      "note": "Sem setor ou quadra no bayface do IBGE 0500-0106P-0-94"
      },
      "geometry": {
         "type": "Point",
         "coordinates": [-38.190604,-9.60985]
      }
    },
    {
      "type": "Feature",
      "properties": { 
      "IBGE:COD_UNICO_ENDERECO": "192022507",
      "addr:housenumber": "20",
      "addr:postcode": "48610-488",
      "addr:street": "Povoado Matinha",
      "addr:suburb": "Matinha",
      "building": "yes",
      "fixme": "Verificar coordenadas",
      "note": "Sem setor ou quadra no bayface do IBGE 0500-0106P-0-94"
      },
      "geometry": {
         "type": "Point",
         "coordinates": [-38.223089,-9.593898]
      }
    },
    {
      "type": "Feature",
      "properties": { 
      "IBGE:COD_UNICO_ENDERECO": "192023307",
      "addr:housenumber": "1",
      "addr:postcode": "48610-488",
      "addr:street": "Saída Para Rodovia BR-110",
      "addr:suburb": "Matinha",
      "building": "yes",
      "fixme": "Verificar coordenadas",
      "note": "Sem setor ou quadra no bayface do IBGE 0500-0106P-0-132"
      },
      "geometry": {
         "type": "Point",
         "coordinates": [-38.224641,-9.594829]
      }
    },
    {
      "type": "Feature",
      "properties": { 
      "IBGE:COD_UNICO_ENDERECO": "192022511",
      "addr:housenumber": "21",
      "addr:postcode": "48610-488",
      "addr:street": "Povoado Matinha",
      "addr:suburb": "Matinha",
      "building": "yes",
      "fixme": "Verificar coordenadas",
      "note": "Sem setor ou quadra no bayface do IBGE 0500-0106P-0-94"
      },
      "geometry": {
         "type": "Point",
         "coordinates": [-38.222592,-9.594362]
      }
    },
    {
      "type": "Feature",
      "properties": { 
      "IBGE:COD_UNICO_ENDERECO": "192022440",
      "addr:housenumber": "1",
      "addr:postcode": "48610-488",
      "addr:street": "Povoado Matinha",
      "addr:suburb": "Matinha",
      "building": "yes",
      "fixme": "Verificar coordenadas",
      "note": "Sem setor ou quadra no bayface do IBGE 0500-0106P-0-94"
      },
      "geometry": {
         "type": "Point",
         "coordinates": [-38.224439,-9.587982]
      }
    },
    {
      "type": "Feature",
      "properties": { 
      "IBGE:COD_UNICO_ENDERECO": "112583326",
      "addr:housenumber": "88",
      "addr:postcode": "48601-016",
      "addr:street": "Estrada do Tara",
      "addr:suburb": "Matinha",
      "building": "service",
      "fixme": "Verificar coordenadas",
      "man_made": "pumping_station",
      "name": "Casa da Bomba",
      "note": "Sem setor ou quadra no bayface do IBGE 0500-0106P-0-98"
      },
      "geometry": {
         "type": "Point",
         "coordinates": [-38.188266,-9.587309]
      }
    },
    {
      "type": "Feature",
      "properties": { 
      "IBGE:COD_UNICO_ENDERECO": "112583346",
      "addr:housenumber": "85",
      "addr:postcode": "48601-018",
      "addr:street": "Estrada do Tara",
      "addr:suburb": "Matinha",
      "building": "yes",
      "fixme": "Verificar coordenadas",
      "note": "Sem setor ou quadra no bayface do IBGE 0500-0106P-0-100"
      },
      "geometry": {
         "type": "Point",
         "coordinates": [-38.184007,-9.593466]
      }
    },
    {
      "type": "Feature",
      "properties": { 
      "IBGE:COD_UNICO_ENDERECO": "192022538",
      "addr:housenumber": "28",
      "addr:postcode": "48610-488",
      "addr:street": "Povoado Matinha",
      "addr:suburb": "Matinha",
      "building": "yes",
      "fixme": "Verificar coordenadas",
      "note": "Sem setor ou quadra no bayface do IBGE 0500-0106P-0-94"
      },
      "geometry": {
         "type": "Point",
         "coordinates": [-38.216439,-9.594086]
      }
    },
    {
      "type": "Feature",
      "properties": { 
      "IBGE:COD_UNICO_ENDERECO": "192022725",
      "addr:housenumber": "29",
      "addr:postcode": "48601-018",
      "addr:street": "Povoado Matinha",
      "addr:suburb": "Matinha",
      "building": "yes",
      "fixme": "Verificar coordenadas",
      "note": "Sem setor ou quadra no bayface do IBGE 0500-0106P-0-95"
      },
      "geometry": {
         "type": "Point",
         "coordinates": [-38.216467,-9.594139]
      }
    },
    {
      "type": "Feature",
      "properties": { 
      "IBGE:COD_UNICO_ENDERECO": "112580145",
      "addr:housenumber": "65",
      "addr:postcode": "48601-018",
      "addr:street": "Estrada do Tara",
      "addr:suburb": "Matinha",
      "building": "yes",
      "fixme": "Verificar coordenadas",
      "note": "Sem setor ou quadra no bayface do IBGE 0500-0106P-0-100"
      },
      "geometry": {
         "type": "Point",
         "coordinates": [-38.190297,-9.611682]
      }
    },
    {
      "type": "Feature",
      "properties": { 
      "IBGE:COD_UNICO_ENDERECO": "27411674",
      "addr:housenumber": "60",
      "addr:postcode": "48601-018",
      "addr:street": "Povoado Matinha",
      "addr:suburb": "Matinha",
      "building": "yes",
      "fixme": "Verificar coordenadas",
      "note": "Sem setor ou quadra no bayface do IBGE 0500-0106P-0-95"
      },
      "geometry": {
         "type": "Point",
         "coordinates": [-38.200248,-9.608587]
      }
    },
    {
      "type": "Feature",
      "properties": { 
      "IBGE:COD_UNICO_ENDERECO": "192022533",
      "addr:housenumber": "27",
      "addr:postcode": "48610-488",
      "addr:street": "Povoado Matinha",
      "addr:suburb": "Matinha",
      "building": "yes",
      "fixme": "Verificar coordenadas",
      "note": "Sem setor ou quadra no bayface do IBGE 0500-0106P-0-94"
      },
      "geometry": {
         "type": "Point",
         "coordinates": [-38.217411,-9.596143]
      }
    },
    {
      "type": "Feature",
      "properties": { 
      "IBGE:COD_UNICO_ENDERECO": "27411669",
      "addr:housenumber": "18",
      "addr:postcode": "48601-018",
      "addr:street": "Povoado Matinha",
      "addr:suburb": "Matinha",
      "building": "yes",
      "fixme": "Verificar coordenadas",
      "note": "Sem setor ou quadra no bayface do IBGE 0500-0106P-0-95"
      },
      "geometry": {
         "type": "Point",
         "coordinates": [-38.224142,-9.594268]
      }
    },
    {
      "type": "Feature",
      "properties": { 
      "IBGE:COD_UNICO_ENDERECO": "192022461",
      "addr:housenumber": "6",
      "addr:postcode": "48610-488",
      "addr:street": "Povoado Matinha",
      "addr:suburb": "Matinha",
      "building": "construction",
      "fixme": "Verificar coordenadas",
      "note": "Sem setor ou quadra no bayface do IBGE 0500-0106P-0-94"
      },
      "geometry": {
         "type": "Point",
         "coordinates": [-38.223948,-9.589736]
      }
    },
    {
      "type": "Feature",
      "properties": { 
      "IBGE:COD_UNICO_ENDERECO": "192022551",
      "addr:housenumber": "32",
      "addr:postcode": "48610-488",
      "addr:street": "Povoado Matinha",
      "addr:suburb": "Matinha",
      "building": "yes",
      "fixme": "Verificar coordenadas",
      "note": "Sem setor ou quadra no bayface do IBGE 0500-0106P-0-94"
      },
      "geometry": {
         "type": "Point",
         "coordinates": [-38.215598,-9.592118]
      }
    },
    {
      "type": "Feature",
      "properties": { 
      "IBGE:COD_UNICO_ENDERECO": "192022572",
      "addr:housenumber": "42",
      "addr:postcode": "48610-488",
      "addr:street": "Povoado Matinha",
      "addr:suburb": "Matinha",
      "building": "yes",
      "fixme": "Verificar coordenadas",
      "note": "Sem setor ou quadra no bayface do IBGE 0500-0106P-0-94"
      },
      "geometry": {
         "type": "Point",
         "coordinates": [-38.215935,-9.598458]
      }
    },
    {
      "type": "Feature",
      "properties": { 
      "IBGE:COD_UNICO_ENDERECO": "192022732",
      "addr:housenumber": "41",
      "addr:postcode": "48601-018",
      "addr:street": "Povoado Matinha",
      "addr:suburb": "Matinha",
      "building": "yes",
      "fixme": "Verificar coordenadas",
      "note": "Sem setor ou quadra no bayface do IBGE 0500-0106P-0-95"
      },
      "geometry": {
         "type": "Point",
         "coordinates": [-38.215299,-9.598792]
      }
    },
    {
      "type": "Feature",
      "properties": { 
      "IBGE:COD_UNICO_ENDERECO": "192022654",
      "addr:housenumber": "73",
      "addr:postcode": "48610-488",
      "addr:street": "Povoado Matinha",
      "addr:suburb": "Matinha",
      "building": "yes",
      "fixme": "Verificar coordenadas",
      "note": "Sem setor ou quadra no bayface do IBGE 0500-0106P-0-94"
      },
      "geometry": {
         "type": "Point",
         "coordinates": [-38.188591,-9.613226]
      }
    },
    {
      "type": "Feature",
      "properties": { 
      "IBGE:COD_UNICO_ENDERECO": "192022495",
      "addr:housenumber": "14",
      "addr:postcode": "48610-488",
      "addr:street": "Povoado Matinha",
      "addr:suburb": "Matinha",
      "building": "yes",
      "fixme": "Verificar coordenadas",
      "note": "Sem setor ou quadra no bayface do IBGE 0500-0106P-0-94"
      },
      "geometry": {
         "type": "Point",
         "coordinates": [-38.22492,-9.590217]
      }
    },
    {
      "type": "Feature",
      "properties": { 
      "IBGE:COD_UNICO_ENDERECO": "27411673",
      "addr:housenumber": "54",
      "addr:postcode": "48601-018",
      "addr:street": "Povoado Matinha",
      "addr:suburb": "Matinha",
      "building": "yes",
      "fixme": "Verificar coordenadas",
      "note": "Sem setor ou quadra no bayface do IBGE 0500-0106P-0-95"
      },
      "geometry": {
         "type": "Point",
         "coordinates": [-38.200993,-9.599968]
      }
    },
    {
      "type": "Feature",
      "properties": { 
      "IBGE:COD_UNICO_ENDERECO": "27411662",
      "addr:housenumber": "46",
      "addr:postcode": "48601-018",
      "addr:street": "Povoado Matinha",
      "addr:suburb": "Matinha",
      "building": "yes",
      "fixme": "Verificar coordenadas",
      "note": "Sem setor ou quadra no bayface do IBGE 0500-0106P-0-95"
      },
      "geometry": {
         "type": "Point",
         "coordinates": [-38.211621,-9.596232]
      }
    },
    {
      "type": "Feature",
      "properties": { 
      "IBGE:COD_UNICO_ENDERECO": "27411657",
      "addr:housenumber": "51",
      "addr:postcode": "48601-018",
      "addr:street": "Povoado Matinha",
      "addr:suburb": "Matinha",
      "building": "yes",
      "fixme": "Verificar coordenadas",
      "note": "Sem setor ou quadra no bayface do IBGE 0500-0106P-0-95"
      },
      "geometry": {
         "type": "Point",
         "coordinates": [-38.205952,-9.596157]
      }
    },
    {
      "type": "Feature",
      "properties": { 
      "IBGE:COD_UNICO_ENDERECO": "27411655",
      "addr:housenumber": "48",
      "addr:postcode": "48601-018",
      "addr:street": "Povoado Matinha",
      "addr:suburb": "Matinha",
      "building": "yes",
      "fixme": "Verificar coordenadas",
      "note": "Sem setor ou quadra no bayface do IBGE 0500-0106P-0-95"
      },
      "geometry": {
         "type": "Point",
         "coordinates": [-38.205943,-9.596096]
      }
    },
    {
      "type": "Feature",
      "properties": { 
      "IBGE:COD_UNICO_ENDERECO": "192023319",
      "addr:housenumber": "4",
      "addr:postcode": "48610-488",
      "addr:street": "Saída Para Rodovia BR-110",
      "addr:suburb": "Matinha",
      "amenity": "restaurant",
      "building": "yes",
      "fixme": "Verificar coordenadas",
      "name": "Restaurante Rota 110",
      "note": "Sem setor ou quadra no bayface do IBGE 0500-0106P-0-132"
      },
      "geometry": {
         "type": "Point",
         "coordinates": [-38.224955,-9.596152]
      }
    },
    {
      "type": "Feature",
      "properties": { 
      "IBGE:COD_UNICO_ENDERECO": "192022562",
      "addr:housenumber": "38",
      "addr:postcode": "48610-488",
      "addr:street": "Povoado Matinha",
      "addr:suburb": "Matinha",
      "building": "yes",
      "fixme": "Verificar coordenadas",
      "note": "Sem setor ou quadra no bayface do IBGE 0500-0106P-0-94"
      },
      "geometry": {
         "type": "Point",
         "coordinates": [-38.215065,-9.597534]
      }
    },
    {
      "type": "Feature",
      "properties": { 
      "IBGE:COD_UNICO_ENDERECO": "192022524",
      "addr:housenumber": "24",
      "addr:postcode": "48610-488",
      "addr:street": "Povoado Matinha",
      "addr:suburb": "Matinha",
      "building": "yes",
      "fixme": "Verificar coordenadas",
      "note": "Sem setor ou quadra no bayface do IBGE 0500-0106P-0-94"
      },
      "geometry": {
         "type": "Point",
         "coordinates": [-38.221045,-9.595156]
      }
    },
    {
      "type": "Feature",
      "properties": { 
      "IBGE:COD_UNICO_ENDERECO": "192022740",
      "addr:housenumber": "68",
      "addr:postcode": "48601-018",
      "addr:street": "Povoado Matinha",
      "addr:suburb": "Matinha",
      "building": "yes",
      "fixme": "Verificar coordenadas",
      "note": "Sem setor ou quadra no bayface do IBGE 0500-0106P-0-95"
      },
      "geometry": {
         "type": "Point",
         "coordinates": [-38.189012,-9.61432]
      }
    },
    {
      "type": "Feature",
      "properties": { 
      "IBGE:COD_UNICO_ENDERECO": "192022600",
      "addr:housenumber": "63",
      "addr:postcode": "48610-488",
      "addr:street": "Povoado Matinha",
      "addr:suburb": "Matinha",
      "building": "yes",
      "fixme": "Verificar coordenadas",
      "note": "Sem setor ou quadra no bayface do IBGE 0500-0106P-0-94"
      },
      "geometry": {
         "type": "Point",
         "coordinates": [-38.191536,-9.604466]
      }
    },
    {
      "type": "Feature",
      "properties": { 
      "IBGE:COD_UNICO_ENDERECO": "192022546",
      "addr:housenumber": "31",
      "addr:postcode": "48610-488",
      "addr:street": "Povoado Matinha",
      "addr:suburb": "Matinha",
      "building": "yes",
      "fixme": "Verificar coordenadas",
      "note": "Sem setor ou quadra no bayface do IBGE 0500-0106P-0-94"
      },
      "geometry": {
         "type": "Point",
         "coordinates": [-38.216211,-9.592309]
      }
    },
    {
      "type": "Feature",
      "properties": { 
      "IBGE:COD_UNICO_ENDERECO": "27411678",
      "addr:housenumber": "61",
      "addr:postcode": "48601-018",
      "addr:street": "Povoado Matinha",
      "addr:suburb": "Matinha",
      "building": "yes",
      "fixme": "Verificar coordenadas",
      "note": "Sem setor ou quadra no bayface do IBGE 0500-0106P-0-95"
      },
      "geometry": {
         "type": "Point",
         "coordinates": [-38.195695,-9.607645]
      }
    },
    {
      "type": "Feature",
      "properties": { 
      "IBGE:COD_UNICO_ENDERECO": "192022714",
      "addr:housenumber": "4",
      "addr:postcode": "48601-018",
      "addr:street": "Povoado Matinha",
      "addr:suburb": "Matinha",
      "building": "yes",
      "fixme": "Verificar coordenadas",
      "note": "Sem setor ou quadra no bayface do IBGE 0500-0106P-0-95"
      },
      "geometry": {
         "type": "Point",
         "coordinates": [-38.224434,-9.589649]
      }
    },
    {
      "type": "Feature",
      "properties": { 
      "IBGE:COD_UNICO_ENDERECO": "192023323",
      "addr:housenumber": "5",
      "addr:postcode": "48610-488",
      "addr:street": "Saída Para Rodovia BR-110",
      "addr:suburb": "Matinha",
      "building": "yes",
      "fixme": "Verificar coordenadas",
      "note": "Sem setor ou quadra no bayface do IBGE 0500-0106P-0-132"
      },
      "geometry": {
         "type": "Point",
         "coordinates": [-38.220063,-9.610505]
      }
    },
    {
      "type": "Feature",
      "properties": { 
      "IBGE:COD_UNICO_ENDERECO": "192023311",
      "addr:housenumber": "2",
      "addr:postcode": "48610-488",
      "addr:street": "Saída Para Rodovia BR-110",
      "addr:suburb": "Matinha",
      "building": "yes",
      "fixme": "Verificar coordenadas",
      "name": "Ponto Comercial",
      "note": "Sem setor ou quadra no bayface do IBGE 0500-0106P-0-132",
      "shop": "yes"
      },
      "geometry": {
         "type": "Point",
         "coordinates": [-38.224891,-9.59585]
      }
    },
    {
      "type": "Feature",
      "properties": { 
      "IBGE:COD_UNICO_ENDERECO": "192022675",
      "addr:housenumber": "79",
      "addr:postcode": "48610-488",
      "addr:street": "Povoado Matinha",
      "addr:suburb": "Matinha",
      "building": "yes",
      "fixme": "Verificar coordenadas",
      "note": "Sem setor ou quadra no bayface do IBGE 0500-0106P-0-94"
      },
      "geometry": {
         "type": "Point",
         "coordinates": [-38.187232,-9.612394]
      }
    },
    {
      "type": "Feature",
      "properties": { 
      "IBGE:COD_UNICO_ENDERECO": "27413811",
      "addr:housenumber": "85 A",
      "addr:postcode": "48619-899",
      "addr:street": "Estrada BR-110",
      "addr:suburb": "Matinha",
      "addr:unit": "Casa",
      "building": "yes",
      "fixme": "Verificar coordenadas",
      "note": "Sem setor ou quadra no bayface do IBGE 0500-0241P-0-87"
      },
      "geometry": {
         "type": "Point",
         "coordinates": [-38.225774,-9.589888]
      }
    },
    {
      "type": "Feature",
      "properties": { 
      "IBGE:COD_UNICO_ENDERECO": "192022621",
      "addr:housenumber": "67",
      "addr:postcode": "48610-488",
      "addr:street": "Povoado Matinha",
      "addr:suburb": "Matinha",
      "building": "construction",
      "fixme": "Verificar coordenadas",
      "note": "Sem setor ou quadra no bayface do IBGE 0500-0106P-0-94"
      },
      "geometry": {
         "type": "Point",
         "coordinates": [-38.189599,-9.613483]
      }
    },
    {
      "type": "Feature",
      "properties": { 
      "IBGE:COD_UNICO_ENDERECO": "109862717",
      "addr:housenumber": "20 Km",
      "addr:postcode": "48601-018",
      "addr:street": "Rodovia BR-110",
      "addr:suburb": "Matinha",
      "building": "yes",
      "fixme": "Verificar coordenadas",
      "note": "Sem setor ou quadra no bayface do IBGE 0500-0106P-0-134"
      },
      "geometry": {
         "type": "Point",
         "coordinates": [-38.220664,-9.614591]
      }
    },
    {
      "type": "Feature",
      "properties": { 
      "IBGE:COD_UNICO_ENDERECO": "192022502",
      "addr:housenumber": "19",
      "addr:postcode": "48610-488",
      "addr:street": "Povoado Matinha",
      "addr:suburb": "Matinha",
      "building": "yes",
      "fixme": "Verificar coordenadas",
      "name": "Abaté de Porco",
      "note": "Sem setor ou quadra no bayface do IBGE 0500-0106P-0-94"
      },
      "geometry": {
         "type": "Point",
         "coordinates": [-38.223604,-9.594091]
      }
    },
    {
      "type": "Feature",
      "properties": { 
      "IBGE:COD_UNICO_ENDERECO": "27411658",
      "addr:housenumber": "49",
      "addr:postcode": "48601-018",
      "addr:street": "Povoado Matinha",
      "addr:suburb": "Matinha",
      "building": "yes",
      "fixme": "Verificar coordenadas",
      "note": "Sem setor ou quadra no bayface do IBGE 0500-0106P-0-95"
      },
      "geometry": {
         "type": "Point",
         "coordinates": [-38.208182,-9.596393]
      }
    },
    {
      "type": "Feature",
      "properties": { 
      "IBGE:COD_UNICO_ENDERECO": "27411771",
      "addr:housenumber": "8",
      "addr:postcode": "48601-018",
      "addr:street": "Rodovia BR-110",
      "addr:suburb": "Matinha",
      "building": "yes",
      "fixme": "Verificar coordenadas",
      "note": "Sem setor ou quadra no bayface do IBGE 0500-0106P-0-134"
      },
      "geometry": {
         "type": "Point",
         "coordinates": [-38.220626,-9.613252]
      }
    },
    {
      "type": "Feature",
      "properties": { 
      "IBGE:COD_UNICO_ENDERECO": "27411659",
      "addr:housenumber": "52",
      "addr:postcode": "48601-018",
      "addr:street": "Povoado Matinha",
      "addr:suburb": "Matinha",
      "building": "yes",
      "fixme": "Verificar coordenadas",
      "note": "Sem setor ou quadra no bayface do IBGE 0500-0106P-0-95"
      },
      "geometry": {
         "type": "Point",
         "coordinates": [-38.205916,-9.596369]
      }
    },
    {
      "type": "Feature",
      "properties": { 
      "IBGE:COD_UNICO_ENDERECO": "112581881",
      "addr:housenumber": "89",
      "addr:postcode": "48601-018",
      "addr:street": "Povoado Matinha",
      "addr:suburb": "Matinha",
      "building": "yes",
      "fixme": "Verificar coordenadas",
      "note": "Sem setor ou quadra no bayface do IBGE 0500-0106P-0-95"
      },
      "geometry": {
         "type": "Point",
         "coordinates": [-38.199674,-9.579354]
      }
    },
    {
      "type": "Feature",
      "properties": { 
      "IBGE:COD_UNICO_ENDERECO": "27411661;27411668",
      "addr:housenumber": "55",
      "addr:postcode": "48601-018",
      "addr:street": "Povoado Matinha",
      "addr:suburb": "Matinha",
      "building": "yes",
      "fixme": "Verificar coordenadas",
      "note": "Sem setor ou quadra no bayface do IBGE 0500-0106P-0-95"
      },
      "geometry": {
         "type": "Point",
         "coordinates": [-38.20655,-9.607027]
      }
    },
    {
      "type": "Feature",
      "properties": { 
      "IBGE:COD_UNICO_ENDERECO": "192022668",
      "addr:housenumber": "77",
      "addr:postcode": "48610-488",
      "addr:street": "Povoado Matinha",
      "addr:suburb": "Matinha",
      "building": "yes",
      "fixme": "Verificar coordenadas",
      "note": "Sem setor ou quadra no bayface do IBGE 0500-0106P-0-94"
      },
      "geometry": {
         "type": "Point",
         "coordinates": [-38.188026,-9.612168]
      }
    },
    {
      "type": "Feature",
      "properties": { 
      "IBGE:COD_UNICO_ENDERECO": "192023315",
      "addr:housenumber": "3",
      "addr:postcode": "48610-488",
      "addr:street": "Saída Para Rodovia BR-110",
      "addr:suburb": "Matinha",
      "building": "yes",
      "fixme": "Verificar coordenadas",
      "name": "Pousada Alice",
      "note": "Sem setor ou quadra no bayface do IBGE 0500-0106P-0-132",
      "tourism": "guest_house"
      },
      "geometry": {
         "type": "Point",
         "coordinates": [-38.224935,-9.596047]
      }
    },
    {
      "type": "Feature",
      "properties": { 
      "IBGE:COD_UNICO_ENDERECO": "27411677",
      "addr:housenumber": "34",
      "addr:postcode": "48601-022",
      "addr:street": "Povoado Matinha",
      "addr:suburb": "Matinha",
      "building": "yes",
      "fixme": "Verificar coordenadas",
      "note": "Sem setor ou quadra no bayface do IBGE 0500-0106P-0-96"
      },
      "geometry": {
         "type": "Point",
         "coordinates": [-38.215252,-9.588731]
      }
    },
    {
      "type": "Feature",
      "properties": { 
      "IBGE:COD_UNICO_ENDERECO": "112580154",
      "addr:housenumber": "64",
      "addr:postcode": "48601-018",
      "addr:street": "Povoado Matinha",
      "addr:suburb": "Matinha",
      "building": "yes",
      "fixme": "Verificar coordenadas",
      "note": "Sem setor ou quadra no bayface do IBGE 0500-0106P-0-95"
      },
      "geometry": {
         "type": "Point",
         "coordinates": [-38.191712,-9.610066]
      }
    },
    {
      "type": "Feature",
      "properties": { 
      "IBGE:COD_UNICO_ENDERECO": "192022486",
      "addr:housenumber": "10",
      "addr:postcode": "48610-488",
      "addr:street": "Povoado Matinha",
      "addr:suburb": "Matinha",
      "building": "yes",
      "fixme": "Verificar coordenadas",
      "note": "Sem setor ou quadra no bayface do IBGE 0500-0106P-0-94"
      },
      "geometry": {
         "type": "Point",
         "coordinates": [-38.223077,-9.588323]
      }
    },
    {
      "type": "Feature",
      "properties": { 
      "IBGE:COD_UNICO_ENDERECO": "192022747",
      "addr:housenumber": "75",
      "addr:postcode": "48601-018",
      "addr:street": "Povoado Matinha",
      "addr:suburb": "Matinha",
      "building": "yes",
      "fixme": "Verificar coordenadas",
      "note": "Sem setor ou quadra no bayface do IBGE 0500-0106P-0-95"
      },
      "geometry": {
         "type": "Point",
         "coordinates": [-38.188364,-9.612649]
      }
    },
    {
      "type": "Feature",
      "properties": { 
      "IBGE:COD_UNICO_ENDERECO": "192022660",
      "addr:housenumber": "74",
      "addr:postcode": "48610-488",
      "addr:street": "Povoado Matinha",
      "addr:suburb": "Matinha",
      "building": "yes",
      "fixme": "Verificar coordenadas",
      "note": "Sem setor ou quadra no bayface do IBGE 0500-0106P-0-94"
      },
      "geometry": {
         "type": "Point",
         "coordinates": [-38.188526,-9.613302]
      }
    },
    {
      "type": "Feature",
      "properties": { 
      "IBGE:COD_UNICO_ENDERECO": "192022542",
      "addr:housenumber": "2195",
      "addr:postcode": "48610-488",
      "addr:street": "Povoado Matinha",
      "addr:suburb": "Matinha",
      "building": "yes",
      "fixme": "Verificar coordenadas",
      "note": "Sem setor ou quadra no bayface do IBGE 0500-0106P-0-94"
      },
      "geometry": {
         "type": "Point",
         "coordinates": [-38.216455,-9.593289]
      }
    },
    {
      "type": "Feature",
      "properties": { 
      "IBGE:COD_UNICO_ENDERECO": "192022615",
      "addr:housenumber": "66",
      "addr:postcode": "48610-488",
      "addr:street": "Povoado Matinha",
      "addr:suburb": "Matinha",
      "building": "construction",
      "fixme": "Verificar coordenadas",
      "note": "Sem setor ou quadra no bayface do IBGE 0500-0106P-0-94"
      },
      "geometry": {
         "type": "Point",
         "coordinates": [-38.189637,-9.613395]
      }
    },
    {
      "type": "Feature",
      "properties": { 
      "IBGE:COD_UNICO_ENDERECO": "27411667",
      "addr:housenumber": "53",
      "addr:postcode": "48601-022",
      "addr:street": "Povoado Matinha",
      "addr:suburb": "Matinha",
      "building": "yes",
      "fixme": "Verificar coordenadas",
      "note": "Sem setor ou quadra no bayface do IBGE 0500-0106P-0-96"
      },
      "geometry": {
         "type": "Point",
         "coordinates": [-38.203226,-9.611766]
      }
    },
    {
      "type": "Feature",
      "properties": { 
      "IBGE:COD_UNICO_ENDERECO": "112580195",
      "addr:housenumber": "15",
      "addr:postcode": "48601-016",
      "addr:street": "Estrada do Tara",
      "addr:suburb": "Matinha",
      "building": "yes",
      "fixme": "Verificar coordenadas",
      "note": "Sem setor ou quadra no bayface do IBGE 0500-0106P-0-98"
      },
      "geometry": {
         "type": "Point",
         "coordinates": [-38.216534,-9.59854]
      }
    },
    {
      "type": "Feature",
      "properties": { 
      "IBGE:COD_UNICO_ENDERECO": "192022554",
      "addr:housenumber": "36",
      "addr:postcode": "48610-488",
      "addr:street": "Povoado Matinha",
      "addr:suburb": "Matinha",
      "building": "yes",
      "fixme": "Verificar coordenadas",
      "note": "Sem setor ou quadra no bayface do IBGE 0500-0106P-0-94"
      },
      "geometry": {
         "type": "Point",
         "coordinates": [-38.215299,-9.588679]
      }
    },
    {
      "type": "Feature",
      "properties": { 
      "IBGE:COD_UNICO_ENDERECO": "27411676",
      "addr:housenumber": "8589",
      "addr:postcode": "48601-018",
      "addr:street": "Povoado Matinha",
      "addr:suburb": "Matinha",
      "building": "yes",
      "fixme": "Verificar coordenadas",
      "note": "Sem setor ou quadra no bayface do IBGE 0500-0106P-0-95"
      },
      "geometry": {
         "type": "Point",
         "coordinates": [-38.198844,-9.608944]
      }
    },
    {
      "type": "Feature",
      "properties": { 
      "IBGE:COD_UNICO_ENDERECO": "192022681",
      "addr:housenumber": "82",
      "addr:postcode": "48610-488",
      "addr:street": "Povoado Matinha",
      "addr:suburb": "Matinha",
      "building": "yes",
      "fixme": "Verificar coordenadas",
      "note": "Sem setor ou quadra no bayface do IBGE 0500-0106P-0-94"
      },
      "geometry": {
         "type": "Point",
         "coordinates": [-38.182106,-9.604102]
      }
    },
    {
      "type": "Feature",
      "properties": { 
      "IBGE:COD_UNICO_ENDERECO": "27411671",
      "addr:housenumber": "59",
      "addr:postcode": "48601-018",
      "addr:street": "Povoado Matinha",
      "addr:suburb": "Matinha",
      "building": "yes",
      "fixme": "Verificar coordenadas",
      "note": "Sem setor ou quadra no bayface do IBGE 0500-0106P-0-95"
      },
      "geometry": {
         "type": "Point",
         "coordinates": [-38.203071,-9.612251]
      }
    },
    {
      "type": "Feature",
      "properties": { 
      "IBGE:COD_UNICO_ENDERECO": "192022684",
      "addr:housenumber": "85",
      "addr:postcode": "48610-488",
      "addr:street": "Povoado Matinha",
      "addr:suburb": "Matinha",
      "building": "yes",
      "fixme": "Verificar coordenadas",
      "note": "Sem setor ou quadra no bayface do IBGE 0500-0106P-0-94"
      },
      "geometry": {
         "type": "Point",
         "coordinates": [-38.181668,-9.60096]
      }
    },
    {
      "type": "Feature",
      "properties": { 
      "IBGE:COD_UNICO_ENDERECO": "27411660",
      "addr:housenumber": "53",
      "addr:postcode": "48601-018",
      "addr:street": "Povoado Matinha",
      "addr:suburb": "Matinha",
      "building": "yes",
      "fixme": "Verificar coordenadas",
      "note": "Sem setor ou quadra no bayface do IBGE 0500-0106P-0-95"
      },
      "geometry": {
         "type": "Point",
         "coordinates": [-38.204589,-9.595923]
      }
    },
    {
      "type": "Feature",
      "properties": { 
      "IBGE:COD_UNICO_ENDERECO": "192022491",
      "addr:housenumber": "13",
      "addr:postcode": "48610-488",
      "addr:street": "Povoado Matinha",
      "addr:suburb": "Matinha",
      "building": "yes",
      "fixme": "Verificar coordenadas",
      "note": "Sem setor ou quadra no bayface do IBGE 0500-0106P-0-94"
      },
      "geometry": {
         "type": "Point",
         "coordinates": [-38.222214,-9.589858]
      }
    },
    {
      "type": "Feature",
      "properties": { 
      "IBGE:COD_UNICO_ENDERECO": "192022630",
      "addr:housenumber": "70",
      "addr:postcode": "48610-488",
      "addr:street": "Povoado Matinha",
      "addr:suburb": "Matinha",
      "building": "yes",
      "fixme": "Verificar coordenadas",
      "note": "Sem setor ou quadra no bayface do IBGE 0500-0106P-0-94"
      },
      "geometry": {
         "type": "Point",
         "coordinates": [-38.188717,-9.613834]
      }
    },
    {
      "type": "Feature",
      "properties": { 
      "IBGE:COD_UNICO_ENDERECO": "192022779",
      "addr:housenumber": "35",
      "addr:postcode": "48609-048",
      "addr:street": "Povoado Matinha",
      "addr:suburb": "Matinha",
      "building": "yes",
      "fixme": "Verificar coordenadas",
      "note": "Sem setor ou quadra no bayface do IBGE 0500-0106P-0-97"
      },
      "geometry": {
         "type": "Point",
         "coordinates": [-38.21561,-9.592349]
      }
    },
    {
      "type": "Feature",
      "properties": { 
      "IBGE:COD_UNICO_ENDERECO": "192022586",
      "addr:housenumber": "44",
      "addr:postcode": "48610-488",
      "addr:street": "Povoado Matinha",
      "addr:suburb": "Matinha",
      "building": "yes",
      "fixme": "Verificar coordenadas",
      "note": "Sem setor ou quadra no bayface do IBGE 0500-0106P-0-94"
      },
      "geometry": {
         "type": "Point",
         "coordinates": [-38.214633,-9.597762]
      }
    },
    {
      "type": "Feature",
      "properties": { 
      "IBGE:COD_UNICO_ENDERECO": "192022637",
      "addr:housenumber": "71",
      "addr:postcode": "48610-488",
      "addr:street": "Povoado Matinha",
      "addr:suburb": "Matinha",
      "building": "construction",
      "fixme": "Verificar coordenadas",
      "note": "Sem setor ou quadra no bayface do IBGE 0500-0106P-0-94"
      },
      "geometry": {
         "type": "Point",
         "coordinates": [-38.188928,-9.614186]
      }
    },
    {
      "type": "Feature",
      "properties": { 
      "IBGE:COD_UNICO_ENDERECO": "27411656",
      "addr:housenumber": "50",
      "addr:postcode": "48601-018",
      "addr:street": "Povoado Matinha",
      "addr:suburb": "Matinha",
      "building": "yes",
      "fixme": "Verificar coordenadas",
      "note": "Sem setor ou quadra no bayface do IBGE 0500-0106P-0-95"
      },
      "geometry": {
         "type": "Point",
         "coordinates": [-38.208235,-9.596379]
      }
    },
    {
      "type": "Feature",
      "properties": { 
      "IBGE:COD_UNICO_ENDERECO": "192023336",
      "addr:housenumber": "4 A",
      "addr:postcode": "48609-048",
      "addr:street": "Saída Para Rodovia BR-110",
      "addr:suburb": "Matinha",
      "building": "yes",
      "fixme": "Verificar coordenadas",
      "note": "Sem setor ou quadra no bayface do IBGE 0500-0106P-0-133"
      },
      "geometry": {
         "type": "Point",
         "coordinates": [-38.224667,-9.597634]
      }
    },
    {
      "type": "Feature",
      "properties": { 
      "IBGE:COD_UNICO_ENDERECO": "27411665",
      "addr:housenumber": "14",
      "addr:postcode": "48601-018",
      "addr:street": "Povoado Matinha",
      "addr:suburb": "Matinha",
      "building": "yes",
      "fixme": "Verificar coordenadas",
      "note": "Sem setor ou quadra no bayface do IBGE 0500-0106P-0-95"
      },
      "geometry": {
         "type": "Point",
         "coordinates": [-38.216714,-9.600469]
      }
    },
    {
      "type": "Feature",
      "properties": { 
      "IBGE:COD_UNICO_ENDERECO": "27411664",
      "addr:housenumber": "57",
      "addr:postcode": "48601-018",
      "addr:street": "Povoado Matinha",
      "addr:suburb": "Matinha",
      "building": "yes",
      "fixme": "Verificar coordenadas",
      "name": "Ordenhadeira",
      "note": "Sem setor ou quadra no bayface do IBGE 0500-0106P-0-95"
      },
      "geometry": {
         "type": "Point",
         "coordinates": [-38.205064,-9.601796]
      }
    },
    {
      "type": "Feature",
      "properties": { 
      "IBGE:COD_UNICO_ENDERECO": "192022452",
      "addr:housenumber": "3",
      "addr:postcode": "48610-488",
      "addr:street": "Povoado Matinha",
      "addr:suburb": "Matinha",
      "building": "yes",
      "fixme": "Verificar coordenadas",
      "note": "Sem setor ou quadra no bayface do IBGE 0500-0106P-0-94"
      },
      "geometry": {
         "type": "Point",
         "coordinates": [-38.224855,-9.589586]
      }
    },
    {
      "type": "Feature",
      "properties": { 
      "IBGE:COD_UNICO_ENDERECO": "192022531",
      "addr:housenumber": "26",
      "addr:postcode": "48610-488",
      "addr:street": "Povoado Matinha",
      "addr:suburb": "Matinha",
      "building": "yes",
      "fixme": "Verificar coordenadas",
      "note": "Sem setor ou quadra no bayface do IBGE 0500-0106P-0-94"
      },
      "geometry": {
         "type": "Point",
         "coordinates": [-38.219579,-9.596156]
      }
    },
    {
      "type": "Feature",
      "properties": { 
      "IBGE:COD_UNICO_ENDERECO": "192022720",
      "addr:housenumber": "12",
      "addr:postcode": "48601-018",
      "addr:street": "Povoado Matinha",
      "addr:suburb": "Matinha",
      "building": "yes",
      "fixme": "Verificar coordenadas",
      "note": "Sem setor ou quadra no bayface do IBGE 0500-0106P-0-95"
      },
      "geometry": {
         "type": "Point",
         "coordinates": [-38.223073,-9.588635]
      }
    },
    {
      "type": "Feature",
      "properties": { 
      "IBGE:COD_UNICO_ENDERECO": "192022627",
      "addr:housenumber": "69",
      "addr:postcode": "48610-488",
      "addr:street": "Povoado Matinha",
      "addr:suburb": "Matinha",
      "building": "yes",
      "fixme": "Verificar coordenadas",
      "note": "Sem setor ou quadra no bayface do IBGE 0500-0106P-0-94"
      },
      "geometry": {
         "type": "Point",
         "coordinates": [-38.188915,-9.614398]
      }
    },
    {
      "type": "Feature",
      "properties": { 
      "IBGE:COD_UNICO_ENDERECO": "192022526",
      "addr:housenumber": "25",
      "addr:postcode": "48610-488",
      "addr:street": "Povoado Matinha",
      "addr:suburb": "Matinha",
      "building": "yes",
      "fixme": "Verificar coordenadas",
      "note": "Sem setor ou quadra no bayface do IBGE 0500-0106P-0-94"
      },
      "geometry": {
         "type": "Point",
         "coordinates": [-38.219961,-9.595422]
      }
    },
    {
      "type": "Feature",
      "properties": { 
      "IBGE:COD_UNICO_ENDERECO": "192022671",
      "addr:housenumber": "78",
      "addr:postcode": "48610-488",
      "addr:street": "Povoado Matinha",
      "addr:suburb": "Matinha",
      "building": "construction",
      "fixme": "Verificar coordenadas",
      "note": "Sem setor ou quadra no bayface do IBGE 0500-0106P-0-94"
      },
      "geometry": {
         "type": "Point",
         "coordinates": [-38.188042,-9.612182]
      }
    },
    {
      "type": "Feature",
      "properties": { 
      "IBGE:COD_UNICO_ENDERECO": "192022679",
      "addr:housenumber": "80",
      "addr:postcode": "48610-488",
      "addr:street": "Povoado Matinha",
      "addr:suburb": "Matinha",
      "building": "yes",
      "fixme": "Verificar coordenadas",
      "note": "Sem setor ou quadra no bayface do IBGE 0500-0106P-0-94"
      },
      "geometry": {
         "type": "Point",
         "coordinates": [-38.188316,-9.612872]
      }
    },
    {
      "type": "Feature",
      "properties": { 
      "IBGE:COD_UNICO_ENDERECO": "192022665",
      "addr:housenumber": "76",
      "addr:postcode": "48610-488",
      "addr:street": "Povoado Matinha",
      "addr:suburb": "Matinha",
      "building": "yes",
      "fixme": "Verificar coordenadas",
      "note": "Sem setor ou quadra no bayface do IBGE 0500-0106P-0-94"
      },
      "geometry": {
         "type": "Point",
         "coordinates": [-38.188348,-9.612598]
      }
    },
    {
      "type": "Feature",
      "properties": { 
      "IBGE:COD_UNICO_ENDERECO": "27411675",
      "addr:housenumber": "54",
      "addr:postcode": "48601-016",
      "addr:street": "Povoado Matinha",
      "addr:suburb": "Matinha",
      "building": "yes",
      "fixme": "Verificar coordenadas",
      "note": "Sem setor ou quadra no bayface do IBGE 0500-0106P-0-99"
      },
      "geometry": {
         "type": "Point",
         "coordinates": [-38.200956,-9.599915]
      }
    },
    {
      "type": "Feature",
      "properties": { 
      "IBGE:COD_UNICO_ENDERECO": "27411654;112580227",
      "addr:housenumber": "30",
      "addr:postcode": "48601-018",
      "addr:street": "Povoado Matinha",
      "addr:suburb": "Matinha",
      "building": "yes",
      "fixme": "Verificar coordenadas",
      "note": "Sem setor ou quadra no bayface do IBGE 0500-0106P-0-95"
      },
      "geometry": {
         "type": "Point",
         "coordinates": [-38.2186365,-9.5950725]
      }
    },
    {
      "type": "Feature",
      "properties": { 
      "IBGE:COD_UNICO_ENDERECO": "192022480",
      "addr:housenumber": "9",
      "addr:postcode": "48610-488",
      "addr:street": "Povoado Matinha",
      "addr:suburb": "Matinha",
      "building": "yes",
      "fixme": "Verificar coordenadas",
      "note": "Sem setor ou quadra no bayface do IBGE 0500-0106P-0-94"
      },
      "geometry": {
         "type": "Point",
         "coordinates": [-38.223186,-9.58843]
      }
    },
    {
      "type": "Feature",
      "properties": { 
      "IBGE:COD_UNICO_ENDERECO": "192022594",
      "addr:housenumber": "62",
      "addr:postcode": "48610-488",
      "addr:street": "Povoado Matinha",
      "addr:suburb": "Matinha",
      "building": "yes",
      "fixme": "Verificar coordenadas",
      "note": "Sem setor ou quadra no bayface do IBGE 0500-0106P-0-94"
      },
      "geometry": {
         "type": "Point",
         "coordinates": [-38.192012,-9.603758]
      }
    },
    {
      "type": "Feature",
      "properties": { 
      "IBGE:COD_UNICO_ENDERECO": "192022520",
      "addr:housenumber": "23",
      "addr:postcode": "48610-488",
      "addr:street": "Povoado Matinha",
      "addr:suburb": "Matinha",
      "building": "yes",
      "fixme": "Verificar coordenadas",
      "note": "Sem setor ou quadra no bayface do IBGE 0500-0106P-0-94"
      },
      "geometry": {
         "type": "Point",
         "coordinates": [-38.221679,-9.594912]
      }
    },
    {
      "type": "Feature",
      "properties": { 
      "IBGE:COD_UNICO_ENDERECO": "27411672",
      "addr:housenumber": "88",
      "addr:postcode": "48601-018",
      "addr:street": "Povoado Matinha",
      "addr:suburb": "Matinha",
      "amenity": "fuel",
      "building": "yes",
      "fixme": "Verificar coordenadas",
      "name": "Posto de Gasolina Joaquinzao",
      "note": "Sem setor ou quadra no bayface do IBGE 0500-0106P-0-95"
      },
      "geometry": {
         "type": "Point",
         "coordinates": [-38.200576,-9.60881]
      }
    },
    {
      "type": "Feature",
      "properties": { 
      "IBGE:COD_UNICO_ENDERECO": "192022474",
      "addr:housenumber": "8",
      "addr:postcode": "48610-488",
      "addr:street": "Povoado Matinha",
      "addr:suburb": "Matinha",
      "building": "yes",
      "fixme": "Verificar coordenadas",
      "note": "Sem setor ou quadra no bayface do IBGE 0500-0106P-0-94"
      },
      "geometry": {
         "type": "Point",
         "coordinates": [-38.223074,-9.589763]
      }
    },
    {
      "type": "Feature",
      "properties": { 
      "IBGE:COD_UNICO_ENDERECO": "192023329",
      "addr:housenumber": "6",
      "addr:postcode": "48610-488",
      "addr:street": "Saída Para Rodovia BR-110",
      "addr:suburb": "Matinha",
      "building": "yes",
      "fixme": "Verificar coordenadas",
      "note": "Sem setor ou quadra no bayface do IBGE 0500-0106P-0-132"
      },
      "geometry": {
         "type": "Point",
         "coordinates": [-38.220034,-9.610501]
      }
    },
    {
      "type": "Feature",
      "properties": { 
      "IBGE:COD_UNICO_ENDERECO": "192022558",
      "addr:housenumber": "37",
      "addr:postcode": "48610-488",
      "addr:street": "Povoado Matinha",
      "addr:suburb": "Matinha",
      "building": "yes",
      "fixme": "Verificar coordenadas",
      "note": "Sem setor ou quadra no bayface do IBGE 0500-0106P-0-94"
      },
      "geometry": {
         "type": "Point",
         "coordinates": [-38.215237,-9.597337]
      }
    },
    {
      "type": "Feature",
      "properties": { 
      "IBGE:COD_UNICO_ENDERECO": "192022647",
      "addr:housenumber": "50",
      "addr:postcode": "48610-488",
      "addr:street": "Povoado Matinha",
      "addr:suburb": "Matinha",
      "building": "yes",
      "fixme": "Verificar coordenadas",
      "note": "Sem setor ou quadra no bayface do IBGE 0500-0106P-0-94"
      },
      "geometry": {
         "type": "Point",
         "coordinates": [-38.185976,-9.620139]
      }
    },
    {
      "type": "Feature",
      "properties": { 
      "IBGE:COD_UNICO_ENDERECO": "192022468",
      "addr:housenumber": "7",
      "addr:postcode": "48610-488",
      "addr:street": "Povoado Matinha",
      "addr:suburb": "Matinha",
      "building": "construction",
      "fixme": "Verificar coordenadas",
      "note": "Sem setor ou quadra no bayface do IBGE 0500-0106P-0-94"
      },
      "geometry": {
         "type": "Point",
         "coordinates": [-38.222891,-9.589654]
      }
    },
    {
      "type": "Feature",
      "properties": { 
      "IBGE:COD_UNICO_ENDERECO": "192022774",
      "addr:housenumber": "84",
      "addr:postcode": "48601-022",
      "addr:street": "Povoado Matinha",
      "addr:suburb": "Matinha",
      "building": "yes",
      "fixme": "Verificar coordenadas",
      "note": "Sem setor ou quadra no bayface do IBGE 0500-0106P-0-96"
      },
      "geometry": {
         "type": "Point",
         "coordinates": [-38.181645,-9.603596]
      }
    },
    {
      "type": "Feature",
      "properties": { 
      "IBGE:COD_UNICO_ENDERECO": "192022642",
      "addr:housenumber": "72",
      "addr:postcode": "48610-488",
      "addr:street": "Povoado Matinha",
      "addr:suburb": "Matinha",
      "building": "yes",
      "fixme": "Verificar coordenadas",
      "note": "Sem setor ou quadra no bayface do IBGE 0500-0106P-0-94"
      },
      "geometry": {
         "type": "Point",
         "coordinates": [-38.186805,-9.618548]
      }
    }
  ]
}
