{
  "type": "FeatureCollection",
  "source": "IBGE CNEFE + Faces de Logradouros - 2022",
  "generator": "CSV-CNEFE2GeoJSON.lua 1.5.7 - fidelis.assis@gmail.com",
  "date": "2025-02-02T09:05:14-0300",
  "features": [
    {
      "type": "Feature",
      "properties": { 
      "IBGE:COD_UNICO_ENDERECO": "112589801",
      "addr:housenumber": "12",
      "addr:postcode": "48619-899",
      "addr:street": "Estrada do Barro Vermelho A Casa de Pedra",
      "addr:suburb": "Casa de Pedra",
      "building": "yes",
      "fixme": "Verificar coordenadas",
      "note": "Sem setor ou quadra no bayface do IBGE 0500-0241P-0-105"
      },
      "geometry": {
         "type": "Point",
         "coordinates": [-38.265651,-9.617136]
      }
    },
    {
      "type": "Feature",
      "properties": { 
      "IBGE:COD_UNICO_ENDERECO": "112589529",
      "addr:housenumber": "20 B",
      "addr:postcode": "48619-899",
      "addr:street": "Estrada do Barro Vermelho A Casa de Pedra",
      "addr:suburb": "Casa de Pedra",
      "amenity": "animal_breeding",
      "animal_breeding": "cow;sheep",
      "crop": "corn",
      "fixme": "Verificar coordenadas",
      "landuse": "farmland;farmyard",
      "name": "Criação de Bovinos Ovinos e Plantio de Milho e Feijões",
      "note": "Sem setor ou quadra no bayface do IBGE 0500-0241P-0-105"
      },
      "geometry": {
         "type": "Point",
         "coordinates": [-38.266144,-9.617426]
      }
    },
    {
      "type": "Feature",
      "properties": { 
      "IBGE:COD_UNICO_ENDERECO": "27413810",
      "addr:housenumber": "133",
      "addr:postcode": "48619-899",
      "addr:street": "Acesso Na Estrada Casa de Pedra A Riacho",
      "addr:suburb": "Casa de Pedra",
      "building": "yes",
      "fixme": "Verificar coordenadas",
      "note": "Sem setor ou quadra no bayface do IBGE 0500-0241P-0-107"
      },
      "geometry": {
         "type": "Point",
         "coordinates": [-38.260423,-9.612437]
      }
    },
    {
      "type": "Feature",
      "properties": { 
      "IBGE:COD_UNICO_ENDERECO": "27414038",
      "addr:housenumber": "85",
      "addr:postcode": "48619-899",
      "addr:street": "Povoado Casa de Pedra",
      "addr:suburb": "Casa de Pedra",
      "building": "yes",
      "fixme": "Verificar coordenadas",
      "note": "Sem setor ou quadra no bayface do IBGE 0500-0117P-0-75"
      },
      "geometry": {
         "type": "Point",
         "coordinates": [-38.273712,-9.61103]
      }
    },
    {
      "type": "Feature",
      "properties": { 
      "IBGE:COD_UNICO_ENDERECO": "112589801",
      "addr:housenumber": "12",
      "addr:postcode": "48619-899",
      "addr:street": "Estrada do Barro Vermelho A Casa de Pedra",
      "addr:suburb": "Casa de Pedra",
      "amenity": "animal_breeding",
      "animal_breeding": "sheep",
      "fixme": "Verificar coordenadas",
      "landuse": "farmyard",
      "name": "Criação de Ovinos",
      "note": "Sem setor ou quadra no bayface do IBGE 0500-0241P-0-105"
      },
      "geometry": {
         "type": "Point",
         "coordinates": [-38.265650955804,-9.6171361616562]
      }
    },
    {
      "type": "Feature",
      "properties": { 
      "IBGE:COD_UNICO_ENDERECO": "27414040",
      "addr:housenumber": "60 A",
      "addr:postcode": "48619-899",
      "addr:street": "Povoado Casa de Pedra",
      "addr:suburb": "Casa de Pedra",
      "building": "yes",
      "fixme": "Verificar coordenadas",
      "note": "Sem setor ou quadra no bayface do IBGE 0500-0241P-0-85"
      },
      "geometry": {
         "type": "Point",
         "coordinates": [-38.273491,-9.610588]
      }
    },
    {
      "type": "Feature",
      "properties": { 
      "IBGE:COD_UNICO_ENDERECO": "27414040",
      "addr:housenumber": "60 A",
      "addr:postcode": "48619-899",
      "addr:street": "Povoado Casa de Pedra",
      "addr:suburb": "Casa de Pedra",
      "crop": "bean;corn",
      "fixme": "Confirmar nome;Verificar coordenadas",
      "landuse": "farmland",
      "name": "Plantio de Milho e Feijão",
      "note": "Sem setor ou quadra no bayface do IBGE 0500-0241P-0-85"
      },
      "geometry": {
         "type": "Point",
         "coordinates": [-38.273483294853,-9.6105895613881]
      }
    },
    {
      "type": "Feature",
      "properties": { 
      "IBGE:COD_UNICO_ENDERECO": "192034388",
      "addr:housenumber": "51",
      "addr:postcode": "48619-899",
      "addr:street": "Estrada do Barro Vermelho A Casa de Pedra",
      "addr:suburb": "Casa de Pedra",
      "building": "yes",
      "fixme": "Verificar coordenadas",
      "note": "Sem setor ou quadra no bayface do IBGE 0500-0241P-0-105"
      },
      "geometry": {
         "type": "Point",
         "coordinates": [-38.265192,-9.616107]
      }
    },
    {
      "type": "Feature",
      "properties": { 
      "IBGE:COD_UNICO_ENDERECO": "27413805",
      "addr:housenumber": "55 A",
      "addr:postcode": "48619-899",
      "addr:street": "Acesso Na Estrada Casa de Pedra A Riacho",
      "addr:suburb": "Casa de Pedra",
      "building": "yes",
      "fixme": "Verificar coordenadas",
      "note": "Sem setor ou quadra no bayface do IBGE 0500-0241P-0-107"
      },
      "geometry": {
         "type": "Point",
         "coordinates": [-38.262099,-9.61186]
      }
    },
    {
      "type": "Feature",
      "properties": { 
      "IBGE:COD_UNICO_ENDERECO": "192034388",
      "addr:housenumber": "51",
      "addr:postcode": "48619-899",
      "addr:street": "Estrada do Barro Vermelho A Casa de Pedra",
      "addr:suburb": "Casa de Pedra",
      "fixme": "Verificar coordenadas",
      "landuse": "farmyard;orchard",
      "name": "Sítio Santa Luzia",
      "note": "Sem setor ou quadra no bayface do IBGE 0500-0241P-0-105"
      },
      "geometry": {
         "type": "Point",
         "coordinates": [-38.265193747122,-9.6161119000032]
      }
    },
    {
      "type": "Feature",
      "properties": { 
      "IBGE:COD_UNICO_ENDERECO": "112589540",
      "addr:housenumber": "400162",
      "addr:postcode": "48619-899",
      "addr:street": "Estrada do Barro Vermelho A Casa de Pedra",
      "addr:suburb": "Casa de Pedra",
      "addr:unit": "Cisterna",
      "building": "yes",
      "fixme": "Verificar coordenadas",
      "name": "Fazenda Nossa Senhora do Socorro",
      "note": "Sem setor ou quadra no bayface do IBGE 0500-0241P-0-105",
      "place": "farm"
      },
      "geometry": {
         "type": "Point",
         "coordinates": [-38.267831,-9.619145]
      }
    },
    {
      "type": "Feature",
      "properties": { 
      "IBGE:COD_UNICO_ENDERECO": "112589540",
      "addr:housenumber": "400162",
      "addr:postcode": "48619-899",
      "addr:street": "Estrada do Barro Vermelho A Casa de Pedra",
      "addr:suburb": "Casa de Pedra",
      "addr:unit": "Cisterna",
      "building": "yes",
      "fixme": "Verificar coordenadas",
      "note": "Sem setor ou quadra no bayface do IBGE 0500-0241P-0-105"
      },
      "geometry": {
         "type": "Point",
         "coordinates": [-38.267834509867,-9.6191457951224]
      }
    },
    {
      "type": "Feature",
      "properties": { 
      "IBGE:COD_UNICO_ENDERECO": "27413802",
      "addr:housenumber": "10 A",
      "addr:postcode": "48619-899",
      "addr:street": "Estrada do Barro Vermelho A Casa de Pedra",
      "addr:suburb": "Casa de Pedra",
      "addr:unit": "Casa",
      "building": "yes",
      "fixme": "Verificar coordenadas",
      "note": "Sem setor ou quadra no bayface do IBGE 0500-0241P-0-105"
      },
      "geometry": {
         "type": "Point",
         "coordinates": [-38.265743,-9.616093]
      }
    },
    {
      "type": "Feature",
      "properties": { 
      "IBGE:COD_UNICO_ENDERECO": "27413802",
      "addr:housenumber": "10 A",
      "addr:postcode": "48619-899",
      "addr:street": "Estrada do Barro Vermelho A Casa de Pedra",
      "addr:suburb": "Casa de Pedra",
      "addr:unit": "Casa",
      "building": "yes",
      "fixme": "Verificar coordenadas",
      "name": "Fazenda São Jorge",
      "note": "Sem setor ou quadra no bayface do IBGE 0500-0241P-0-105",
      "place": "farm"
      },
      "geometry": {
         "type": "Point",
         "coordinates": [-38.265747790241,-9.616085622981]
      }
    },
    {
      "type": "Feature",
      "properties": { 
      "IBGE:COD_UNICO_ENDERECO": "112589809",
      "addr:housenumber": "65 A",
      "addr:postcode": "48619-899",
      "addr:street": "Estrada da Casa de Pedra ao Riacho",
      "addr:suburb": "Casa de Pedra",
      "building": "yes",
      "fixme": "Verificar coordenadas",
      "note": "Sem setor ou quadra no bayface do IBGE 0500-0241P-0-106"
      },
      "geometry": {
         "type": "Point",
         "coordinates": [-38.264234,-9.612517]
      }
    },
    {
      "type": "Feature",
      "properties": { 
      "IBGE:COD_UNICO_ENDERECO": "27413917",
      "addr:housenumber": "50 A",
      "addr:postcode": "48619-899",
      "addr:street": "Povoado Casa de Pedra",
      "addr:suburb": "Casa de Pedra",
      "building": "yes",
      "fixme": "Verificar coordenadas",
      "note": "Sem setor ou quadra no bayface do IBGE 0500-0241P-0-85"
      },
      "geometry": {
         "type": "Point",
         "coordinates": [-38.273379,-9.611166]
      }
    },
    {
      "type": "Feature",
      "properties": { 
      "IBGE:COD_UNICO_ENDERECO": "27413805",
      "addr:housenumber": "55 A",
      "addr:postcode": "48619-899",
      "addr:street": "Acesso Na Estrada Casa de Pedra A Riacho",
      "addr:suburb": "Casa de Pedra",
      "amenity": "animal_breeding",
      "animal_breeding": "sheep",
      "crop": "corn",
      "fixme": "Verificar coordenadas",
      "landuse": "farmland;farmyard",
      "name": "Plantio de Milho e Criação de Ovinos",
      "note": "Sem setor ou quadra no bayface do IBGE 0500-0241P-0-107"
      },
      "geometry": {
         "type": "Point",
         "coordinates": [-38.262090754395,-9.6118563955181]
      }
    },
    {
      "type": "Feature",
      "properties": { 
      "IBGE:COD_UNICO_ENDERECO": "192034397",
      "addr:housenumber": "20",
      "addr:postcode": "48619-899",
      "addr:street": "Estrada do Barro Vermelho A Casa de Pedra",
      "addr:suburb": "Casa de Pedra",
      "building": "yes",
      "fixme": "Verificar coordenadas",
      "name": "Casa de Controle do Poço",
      "note": "Sem setor ou quadra no bayface do IBGE 0500-0241P-0-105"
      },
      "geometry": {
         "type": "Point",
         "coordinates": [-38.259175,-9.618209]
      }
    },
    {
      "type": "Feature",
      "properties": { 
      "IBGE:COD_UNICO_ENDERECO": "112590622",
      "addr:housenumber": "75 A",
      "addr:postcode": "48619-899",
      "addr:street": "Acesso Na Estrada Casa de Pedra A Riacho",
      "addr:suburb": "Casa de Pedra",
      "building": "yes",
      "fixme": "Verificar coordenadas",
      "note": "Sem setor ou quadra no bayface do IBGE 0500-0241P-0-107"
      },
      "geometry": {
         "type": "Point",
         "coordinates": [-38.260889,-9.612308]
      }
    },
    {
      "type": "Feature",
      "properties": { 
      "IBGE:COD_UNICO_ENDERECO": "112589789",
      "addr:housenumber": "20 A",
      "addr:postcode": "48619-899",
      "addr:street": "Estrada do Barro Vermelho A Casa de Pedra",
      "addr:suburb": "Casa de Pedra",
      "building": "yes",
      "fixme": "Verificar coordenadas",
      "note": "Sem setor ou quadra no bayface do IBGE 0500-0241P-0-105"
      },
      "geometry": {
         "type": "Point",
         "coordinates": [-38.262941,-9.616777]
      }
    },
    {
      "type": "Feature",
      "properties": { 
      "IBGE:COD_UNICO_ENDERECO": "112590048",
      "addr:housenumber": "25 B",
      "addr:postcode": "48619-899",
      "addr:street": "Acesso Na Estrada Casa de Pedra A Riacho",
      "addr:suburb": "Casa de Pedra",
      "building": "yes",
      "fixme": "Verificar coordenadas",
      "note": "Sem setor ou quadra no bayface do IBGE 0500-0241P-0-107"
      },
      "geometry": {
         "type": "Point",
         "coordinates": [-38.262709,-9.611594]
      }
    },
    {
      "type": "Feature",
      "properties": { 
      "IBGE:COD_UNICO_ENDERECO": "112589789",
      "addr:housenumber": "20 A",
      "addr:postcode": "48619-899",
      "addr:street": "Estrada do Barro Vermelho A Casa de Pedra",
      "addr:suburb": "Casa de Pedra",
      "crop": "bean;corn",
      "fixme": "Confirmar nome;Verificar coordenadas",
      "landuse": "farmland",
      "name": "Plantio de Milho e Feijão",
      "note": "Sem setor ou quadra no bayface do IBGE 0500-0241P-0-105"
      },
      "geometry": {
         "type": "Point",
         "coordinates": [-38.262954751932,-9.6167748579953]
      }
    },
    {
      "type": "Feature",
      "properties": { 
      "IBGE:COD_UNICO_ENDERECO": "27414046",
      "addr:housenumber": "160 B",
      "addr:postcode": "48619-899",
      "addr:street": "Estrada da Casa de Pedra ao Riacho",
      "addr:suburb": "Casa de Pedra",
      "building": "yes",
      "fixme": "Verificar coordenadas",
      "note": "Sem setor ou quadra no bayface do IBGE 0500-0241P-0-106"
      },
      "geometry": {
         "type": "Point",
         "coordinates": [-38.276274,-9.598877]
      }
    },
    {
      "type": "Feature",
      "properties": { 
      "IBGE:COD_UNICO_ENDERECO": "27414048",
      "addr:housenumber": "40 A",
      "addr:postcode": "48619-899",
      "addr:street": "Estrada da Casa de Pedra ao Riacho",
      "addr:suburb": "Casa de Pedra",
      "building": "yes",
      "fixme": "Verificar coordenadas",
      "note": "Sem setor ou quadra no bayface do IBGE 0500-0241P-0-106"
      },
      "geometry": {
         "type": "Point",
         "coordinates": [-38.269102,-9.589806]
      }
    },
    {
      "type": "Feature",
      "properties": { 
      "IBGE:COD_UNICO_ENDERECO": "27414004",
      "addr:housenumber": "225 A",
      "addr:postcode": "48619-899",
      "addr:street": "Estrada da Casa de Pedra ao Riacho",
      "addr:suburb": "Casa de Pedra",
      "building": "yes",
      "fixme": "Verificar coordenadas",
      "note": "Sem setor ou quadra no bayface do IBGE 0500-0241P-0-106"
      },
      "geometry": {
         "type": "Point",
         "coordinates": [-38.260475,-9.609442]
      }
    },
    {
      "type": "Feature",
      "properties": { 
      "IBGE:COD_UNICO_ENDERECO": "27413917",
      "addr:housenumber": "50 A",
      "addr:postcode": "48619-899",
      "addr:street": "Povoado Casa de Pedra",
      "addr:suburb": "Casa de Pedra",
      "amenity": "animal_breeding",
      "animal_breeding": "goat",
      "crop": "bean;corn",
      "fixme": "Verificar coordenadas",
      "landuse": "farmland;farmyard",
      "name": "Plantio de Milho Feijão e Criação de Caprinos",
      "note": "Sem setor ou quadra no bayface do IBGE 0500-0241P-0-85"
      },
      "geometry": {
         "type": "Point",
         "coordinates": [-38.273374463833,-9.6111810276867]
      }
    },
    {
      "type": "Feature",
      "properties": { 
      "IBGE:COD_UNICO_ENDERECO": "112589529",
      "addr:housenumber": "20 B",
      "addr:postcode": "48619-899",
      "addr:street": "Estrada do Barro Vermelho A Casa de Pedra",
      "addr:suburb": "Casa de Pedra",
      "building": "yes",
      "fixme": "Verificar coordenadas",
      "note": "Sem setor ou quadra no bayface do IBGE 0500-0241P-0-105"
      },
      "geometry": {
         "type": "Point",
         "coordinates": [-38.266146603541,-9.6174228994432]
      }
    }
  ]
}
