{
  "type": "FeatureCollection",
  "generator": "CSV-CNEFE2GeoJSON.lua 1.5.7 - fidelis.assis@gmail.com",
  "source": "IBGE CNEFE + Faces de Logradouros - 2022",
  "date": "2025-02-02T09:05:26-0300",
  "features": [
    {
      "type": "Feature",
      "properties": { 
      "IBGE:COD_UNICO_ENDERECO": "27411718",
      "addr:housenumber": "18",
      "addr:postcode": "48601-018",
      "addr:street": "Cruzamento Malhada da Caiçara",
      "addr:suburb": "Malhada da Caiçara",
      "building": "yes",
      "fixme": "Verificar coordenadas",
      "note": "Sem setor ou quadra no bayface do IBGE 0500-0106P-0-107"
      },
      "geometry": {
         "type": "Point",
         "coordinates": [-38.126502,-9.61772]
      }
    },
    {
      "type": "Feature",
      "properties": { 
      "IBGE:COD_UNICO_ENDERECO": "27411704",
      "addr:housenumber": "45",
      "addr:postcode": "48601-036",
      "addr:street": "Cruzamento Malhada da Caiçara",
      "addr:suburb": "Malhada da Caiçara",
      "building": "yes",
      "fixme": "Verificar coordenadas",
      "note": "Sem setor ou quadra no bayface do IBGE 0500-0106P-0-108"
      },
      "geometry": {
         "type": "Point",
         "coordinates": [-38.124246,-9.612417]
      }
    },
    {
      "type": "Feature",
      "properties": { 
      "IBGE:COD_UNICO_ENDERECO": "27411706",
      "addr:housenumber": "46",
      "addr:postcode": "48601-016",
      "addr:street": "Cruzamento Malhada da Caiçara",
      "addr:suburb": "Malhada da Caiçara",
      "building": "yes",
      "fixme": "Verificar coordenadas",
      "note": "Sem setor ou quadra no bayface do IBGE 0500-0106P-0-109"
      },
      "geometry": {
         "type": "Point",
         "coordinates": [-38.124506,-9.613928]
      }
    },
    {
      "type": "Feature",
      "properties": { 
      "IBGE:COD_UNICO_ENDERECO": "27411697",
      "addr:housenumber": "45",
      "addr:postcode": "48601-018",
      "addr:street": "Cruzamento Malhada da Caiçara",
      "addr:suburb": "Malhada da Caiçara",
      "building": "yes",
      "fixme": "Verificar coordenadas",
      "name": "Venda de Guloseimas",
      "note": "Sem setor ou quadra no bayface do IBGE 0500-0106P-0-107",
      "shop": "yes"
      },
      "geometry": {
         "type": "Point",
         "coordinates": [-38.12269,-9.610549]
      }
    },
    {
      "type": "Feature",
      "properties": { 
      "IBGE:COD_UNICO_ENDERECO": "27411702",
      "addr:housenumber": "43",
      "addr:postcode": "48601-018",
      "addr:street": "Cruzamento Malhada da Caiçara",
      "addr:suburb": "Malhada da Caiçara",
      "building": "yes",
      "fixme": "Verificar coordenadas",
      "note": "Sem setor ou quadra no bayface do IBGE 0500-0106P-0-107"
      },
      "geometry": {
         "type": "Point",
         "coordinates": [-38.124641,-9.613818]
      }
    },
    {
      "type": "Feature",
      "properties": { 
      "IBGE:COD_UNICO_ENDERECO": "27411698",
      "addr:housenumber": "1",
      "addr:postcode": "48601-018",
      "addr:street": "Cruzamento Malhada da Caiçara",
      "addr:suburb": "Malhada da Caiçara",
      "building": "yes",
      "fixme": "Verificar coordenadas",
      "note": "Sem setor ou quadra no bayface do IBGE 0500-0106P-0-107"
      },
      "geometry": {
         "type": "Point",
         "coordinates": [-38.123015,-9.610429]
      }
    },
    {
      "type": "Feature",
      "properties": { 
      "IBGE:COD_UNICO_ENDERECO": "27411712",
      "addr:housenumber": "13",
      "addr:postcode": "48601-018",
      "addr:street": "Cruzamento Malhada da Caiçara",
      "addr:suburb": "Malhada da Caiçara",
      "building": "yes",
      "fixme": "Verificar coordenadas",
      "note": "Sem setor ou quadra no bayface do IBGE 0500-0106P-0-107"
      },
      "geometry": {
         "type": "Point",
         "coordinates": [-38.126351,-9.615111]
      }
    },
    {
      "type": "Feature",
      "properties": { 
      "IBGE:COD_UNICO_ENDERECO": "27411714",
      "addr:housenumber": "39 A",
      "addr:postcode": "48601-018",
      "addr:street": "Cruzamento Malhada da Caiçara",
      "addr:suburb": "Malhada da Caiçara",
      "building": "yes",
      "fixme": "Verificar coordenadas",
      "name": "Casa de Expisicao Maria Bonita",
      "note": "Sem setor ou quadra no bayface do IBGE 0500-0106P-0-107"
      },
      "geometry": {
         "type": "Point",
         "coordinates": [-38.126071,-9.615934]
      }
    },
    {
      "type": "Feature",
      "properties": { 
      "IBGE:COD_UNICO_ENDERECO": "27411696",
      "addr:housenumber": "47",
      "addr:postcode": "48601-018",
      "addr:street": "Cruzamento Malhada da Caiçara",
      "addr:suburb": "Malhada da Caiçara",
      "amenity": "school",
      "building": "yes",
      "fixme": "Verificar coordenadas",
      "name": "Escola João Pereira",
      "note": "Sem setor ou quadra no bayface do IBGE 0500-0106P-0-107"
      },
      "geometry": {
         "type": "Point",
         "coordinates": [-38.122672,-9.610472]
      }
    },
    {
      "type": "Feature",
      "properties": { 
      "IBGE:COD_UNICO_ENDERECO": "27411710",
      "addr:housenumber": "37",
      "addr:postcode": "48601-036",
      "addr:street": "Cruzamento Malhada da Caiçara",
      "addr:suburb": "Malhada da Caiçara",
      "building": "yes",
      "fixme": "Verificar coordenadas",
      "name": "Associação de Moradores",
      "note": "Sem setor ou quadra no bayface do IBGE 0500-0106P-0-108",
      "office": "association"
      },
      "geometry": {
         "type": "Point",
         "coordinates": [-38.124937,-9.614928]
      }
    },
    {
      "type": "Feature",
      "properties": { 
      "IBGE:COD_UNICO_ENDERECO": "27411705",
      "addr:housenumber": "52",
      "addr:postcode": "48601-018",
      "addr:street": "Cruzamento Malhada da Caiçara",
      "addr:suburb": "Malhada da Caiçara",
      "building": "yes",
      "fixme": "Verificar coordenadas",
      "note": "Sem setor ou quadra no bayface do IBGE 0500-0106P-0-107"
      },
      "geometry": {
         "type": "Point",
         "coordinates": [-38.124216,-9.614996]
      }
    },
    {
      "type": "Feature",
      "properties": { 
      "IBGE:COD_UNICO_ENDERECO": "27411700",
      "addr:housenumber": "2",
      "addr:postcode": "48601-018",
      "addr:street": "Cruzamento Malhada da Caiçara",
      "addr:suburb": "Malhada da Caiçara",
      "building": "yes",
      "fixme": "Verificar coordenadas",
      "note": "Sem setor ou quadra no bayface do IBGE 0500-0106P-0-107"
      },
      "geometry": {
         "type": "Point",
         "coordinates": [-38.12331,-9.610933]
      }
    },
    {
      "type": "Feature",
      "properties": { 
      "IBGE:COD_UNICO_ENDERECO": "112581246",
      "addr:housenumber": "20",
      "addr:postcode": "48601-018",
      "addr:street": "Povoado Malhada da Caiçara",
      "addr:suburb": "Malhada da Caiçara",
      "building": "yes",
      "fixme": "Verificar coordenadas",
      "note": "Sem setor ou quadra no bayface do IBGE 0500-0106P-0-112"
      },
      "geometry": {
         "type": "Point",
         "coordinates": [-38.127011,-9.618877]
      }
    },
    {
      "type": "Feature",
      "properties": { 
      "IBGE:COD_UNICO_ENDERECO": "27411719",
      "addr:housenumber": "31",
      "addr:postcode": "48601-018",
      "addr:street": "Cruzamento Malhada da Caiçara",
      "addr:suburb": "Malhada da Caiçara",
      "building": "yes",
      "fixme": "Verificar coordenadas",
      "note": "Sem setor ou quadra no bayface do IBGE 0500-0106P-0-107"
      },
      "geometry": {
         "type": "Point",
         "coordinates": [-38.12619,-9.618151]
      }
    },
    {
      "type": "Feature",
      "properties": { 
      "IBGE:COD_UNICO_ENDERECO": "27411716",
      "addr:housenumber": "38",
      "addr:postcode": "48601-018",
      "addr:street": "Cruzamento Malhada da Caiçara",
      "addr:suburb": "Malhada da Caiçara",
      "building": "yes",
      "fixme": "Verificar coordenadas",
      "note": "Sem setor ou quadra no bayface do IBGE 0500-0106P-0-107"
      },
      "geometry": {
         "type": "Point",
         "coordinates": [-38.125278,-9.615613]
      }
    },
    {
      "type": "Feature",
      "properties": { 
      "IBGE:COD_UNICO_ENDERECO": "27411717",
      "addr:housenumber": "1516",
      "addr:postcode": "48601-018",
      "addr:street": "Cruzamento Malhada da Caiçara",
      "addr:suburb": "Malhada da Caiçara",
      "building": "yes",
      "fixme": "Verificar coordenadas",
      "note": "Sem setor ou quadra no bayface do IBGE 0500-0106P-0-107"
      },
      "geometry": {
         "type": "Point",
         "coordinates": [-38.126291,-9.616257]
      }
    },
    {
      "type": "Feature",
      "properties": { 
      "IBGE:COD_UNICO_ENDERECO": "27411701",
      "addr:housenumber": "35",
      "addr:postcode": "48601-016",
      "addr:street": "Cruzamento Malhada da Caiçara",
      "addr:suburb": "Malhada da Caiçara",
      "building": "yes",
      "fixme": "Verificar coordenadas",
      "note": "Sem setor ou quadra no bayface do IBGE 0500-0106P-0-109"
      },
      "geometry": {
         "type": "Point",
         "coordinates": [-38.124566,-9.613922]
      }
    },
    {
      "type": "Feature",
      "properties": { 
      "IBGE:COD_UNICO_ENDERECO": "27411713",
      "addr:housenumber": "12",
      "addr:postcode": "48601-018",
      "addr:street": "Cruzamento Malhada da Caiçara",
      "addr:suburb": "Malhada da Caiçara",
      "building": "yes",
      "fixme": "Verificar coordenadas",
      "note": "Sem setor ou quadra no bayface do IBGE 0500-0106P-0-107"
      },
      "geometry": {
         "type": "Point",
         "coordinates": [-38.126403,-9.615298]
      }
    },
    {
      "type": "Feature",
      "properties": { 
      "IBGE:COD_UNICO_ENDERECO": "27411720",
      "addr:housenumber": "32",
      "addr:postcode": "48601-018",
      "addr:street": "Cruzamento Malhada da Caiçara",
      "addr:suburb": "Malhada da Caiçara",
      "building": "yes",
      "fixme": "Verificar coordenadas",
      "note": "Sem setor ou quadra no bayface do IBGE 0500-0106P-0-107"
      },
      "geometry": {
         "type": "Point",
         "coordinates": [-38.126507,-9.618854]
      }
    },
    {
      "type": "Feature",
      "properties": { 
      "IBGE:COD_UNICO_ENDERECO": "27411708",
      "addr:housenumber": "5",
      "addr:postcode": "48601-016",
      "addr:street": "Cruzamento Malhada da Caiçara",
      "addr:suburb": "Malhada da Caiçara",
      "building": "yes",
      "fixme": "Verificar coordenadas",
      "note": "Sem setor ou quadra no bayface do IBGE 0500-0106P-0-109"
      },
      "geometry": {
         "type": "Point",
         "coordinates": [-38.125115,-9.614685]
      }
    },
    {
      "type": "Feature",
      "properties": { 
      "IBGE:COD_UNICO_ENDERECO": "112583150",
      "addr:housenumber": "36",
      "addr:postcode": "48601-016",
      "addr:street": "Estrada do Tara",
      "addr:suburb": "Malhada da Caiçara",
      "building": "yes",
      "fixme": "Verificar coordenadas",
      "note": "Sem setor ou quadra no bayface do IBGE 0500-0106P-0-110"
      },
      "geometry": {
         "type": "Point",
         "coordinates": [-38.125251,-9.615595]
      }
    },
    {
      "type": "Feature",
      "properties": { 
      "IBGE:COD_UNICO_ENDERECO": "27411707",
      "addr:housenumber": "48",
      "addr:postcode": "48601-016",
      "addr:street": "Cruzamento Malhada da Caiçara",
      "addr:suburb": "Malhada da Caiçara",
      "building": "yes",
      "fixme": "Verificar coordenadas",
      "note": "Sem setor ou quadra no bayface do IBGE 0500-0106P-0-109"
      },
      "geometry": {
         "type": "Point",
         "coordinates": [-38.12497,-9.61443]
      }
    },
    {
      "type": "Feature",
      "properties": { 
      "IBGE:COD_UNICO_ENDERECO": "27411715",
      "addr:housenumber": "14",
      "addr:postcode": "48601-018",
      "addr:street": "Cruzamento Malhada da Caiçara",
      "addr:suburb": "Malhada da Caiçara",
      "amenity": "pub",
      "building": "yes",
      "fixme": "Verificar coordenadas",
      "name": "Bar Maria Bonita",
      "note": "Sem setor ou quadra no bayface do IBGE 0500-0106P-0-107"
      },
      "geometry": {
         "type": "Point",
         "coordinates": [-38.126264,-9.616005]
      }
    },
    {
      "type": "Feature",
      "properties": { 
      "IBGE:COD_UNICO_ENDERECO": "27411711",
      "addr:housenumber": "36",
      "addr:postcode": "48601-018",
      "addr:street": "Cruzamento Malhada da Caiçara",
      "addr:suburb": "Malhada da Caiçara",
      "amenity": "pub",
      "building": "yes",
      "fixme": "Verificar coordenadas",
      "name": "Bar Encontro dos Amigos",
      "note": "Sem setor ou quadra no bayface do IBGE 0500-0106P-0-107"
      },
      "geometry": {
         "type": "Point",
         "coordinates": [-38.125212,-9.61516]
      }
    },
    {
      "type": "Feature",
      "properties": { 
      "IBGE:COD_UNICO_ENDERECO": "27411703",
      "addr:housenumber": "3",
      "addr:postcode": "48601-018",
      "addr:street": "Cruzamento Malhada da Caiçara",
      "addr:suburb": "Malhada da Caiçara",
      "building": "yes",
      "fixme": "Verificar coordenadas",
      "note": "Sem setor ou quadra no bayface do IBGE 0500-0106P-0-107"
      },
      "geometry": {
         "type": "Point",
         "coordinates": [-38.123785,-9.611069]
      }
    },
    {
      "type": "Feature",
      "properties": { 
      "IBGE:COD_UNICO_ENDERECO": "27411699",
      "addr:housenumber": "48",
      "addr:postcode": "48601-018",
      "addr:street": "Cruzamento Malhada da Caiçara",
      "addr:suburb": "Malhada da Caiçara",
      "building": "yes",
      "fixme": "Verificar coordenadas",
      "note": "Sem setor ou quadra no bayface do IBGE 0500-0106P-0-107"
      },
      "geometry": {
         "type": "Point",
         "coordinates": [-38.122845,-9.610631]
      }
    },
    {
      "type": "Feature",
      "properties": { 
      "IBGE:COD_UNICO_ENDERECO": "112583006",
      "addr:housenumber": "37",
      "addr:postcode": "48601-016",
      "addr:street": "Estrada do Tara",
      "addr:suburb": "Malhada da Caiçara",
      "building": "yes",
      "fixme": "Verificar coordenadas",
      "note": "Sem setor ou quadra no bayface do IBGE 0500-0106P-0-110"
      },
      "geometry": {
         "type": "Point",
         "coordinates": [-38.125237,-9.615625]
      }
    }
  ]
}
