{
  "type": "FeatureCollection",
  "source": "IBGE CNEFE + Faces de Logradouros - 2022",
  "generator": "CSV-CNEFE2GeoJSON.lua 1.5.7 - fidelis.assis@gmail.com",
  "date": "2025-02-02T09:05:24-0300",
  "features": [
    {
      "type": "Feature",
      "properties": { 
      "IBGE:COD_UNICO_ENDERECO": "216994020",
      "addr:housenumber": "191",
      "addr:postcode": "48607-210",
      "addr:street": "Rua Engenheiro Marchetti",
      "addr:suburb": "General Dutra",
      "building": "yes"
      },
      "geometry": {
         "type": "Point",
         "coordinates": [-38.2192905,-9.3912327]
      }
    },
    {
      "type": "Feature",
      "properties": { 
      "IBGE:COD_UNICO_ENDERECO": "27364361",
      "addr:housenumber": "289",
      "addr:postcode": "48607-060",
      "addr:street": "Rua da Alvorada",
      "addr:suburb": "General Dutra",
      "building": "yes"
      },
      "geometry": {
         "type": "Point",
         "coordinates": [-38.2155637,-9.3913832]
      }
    },
    {
      "type": "Feature",
      "properties": { 
      "IBGE:COD_UNICO_ENDERECO": "27421187",
      "addr:housenumber": "95",
      "addr:postcode": "48607-510",
      "addr:street": "Rua P",
      "addr:suburb": "General Dutra",
      "building": "yes"
      },
      "geometry": {
         "type": "Point",
         "coordinates": [-38.2245081,-9.3874596]
      }
    },
    {
      "type": "Feature",
      "properties": { 
      "IBGE:COD_UNICO_ENDERECO": "216993968",
      "addr:housenumber": "553",
      "addr:postcode": "48602-700",
      "addr:street": "Avenida da Amizade",
      "addr:suburb": "General Dutra",
      "building": "yes"
      },
      "geometry": {
         "type": "Point",
         "coordinates": [-38.2204774,-9.3905205]
      }
    },
    {
      "type": "Feature",
      "properties": { 
      "IBGE:COD_UNICO_ENDERECO": "27421189",
      "addr:housenumber": "81",
      "addr:postcode": "48607-510",
      "addr:street": "Rua P",
      "addr:suburb": "General Dutra",
      "building": "construction"
      },
      "geometry": {
         "type": "Point",
         "coordinates": [-38.2243662,-9.3873658]
      }
    },
    {
      "type": "Feature",
      "properties": { 
      "IBGE:COD_UNICO_ENDERECO": "27364299",
      "addr:housenumber": "90",
      "addr:postcode": "48607-170",
      "addr:street": "Rua da Bondade",
      "addr:suburb": "General Dutra",
      "building": "yes"
      },
      "geometry": {
         "type": "Point",
         "coordinates": [-38.2184641,-9.3907938]
      }
    },
    {
      "type": "Feature",
      "properties": { 
      "IBGE:COD_UNICO_ENDERECO": "216994525",
      "addr:housenumber": "16",
      "addr:postcode": "48608-015",
      "addr:street": "Rua Eunápio Peltier de Queirós",
      "addr:suburb": "General Dutra",
      "building": "yes"
      },
      "geometry": {
         "type": "Point",
         "coordinates": [-38.2148335,-9.3943669]
      }
    },
    {
      "type": "Feature",
      "properties": { 
      "IBGE:COD_UNICO_ENDERECO": "27421211",
      "addr:housenumber": "107",
      "addr:postcode": "48607-310",
      "addr:street": "Rua Ceará",
      "addr:suburb": "General Dutra",
      "building": "yes"
      },
      "geometry": {
         "type": "Point",
         "coordinates": [-38.2219434,-9.3894348]
      }
    },
    {
      "type": "Feature",
      "properties": { 
      "IBGE:COD_UNICO_ENDERECO": "27421190",
      "addr:housenumber": "35",
      "addr:postcode": "48607-510",
      "addr:street": "Rua P",
      "addr:suburb": "General Dutra",
      "building": "yes"
      },
      "geometry": {
         "type": "Point",
         "coordinates": [-38.2243992,-9.3873876]
      }
    },
    {
      "type": "Feature",
      "properties": { 
      "IBGE:COD_UNICO_ENDERECO": "216994234",
      "addr:housenumber": "377",
      "addr:postcode": "48607-000",
      "addr:street": "Avenida Marcondes Ferraz",
      "addr:suburb": "General Dutra",
      "building": "yes",
      "fixme": "Verificar coordenadas",
      "note": "Fora da área de projeção da face 0500-0068P-4-1"
      },
      "geometry": {
         "type": "Point",
         "coordinates": [-38.215758,-9.389787]
      }
    },
    {
      "type": "Feature",
      "properties": { 
      "IBGE:COD_UNICO_ENDERECO": "27364355",
      "addr:housenumber": "449",
      "addr:postcode": "48607-240",
      "addr:street": "Rua da Concórdia",
      "addr:suburb": "General Dutra",
      "building": "yes",
      "description": "CNEFE 2022 Climepsi",
      "healthcare": "yes"
      },
      "geometry": {
         "type": "Point",
         "coordinates": [-38.2165352,-9.392249]
      }
    },
    {
      "type": "Feature",
      "properties": { 
      "IBGE:COD_UNICO_ENDERECO": "216994542",
      "addr:housenumber": "20",
      "addr:postcode": "48608-015",
      "addr:street": "Rua Eunápio Peltier de Queirós",
      "addr:suburb": "General Dutra",
      "building": "yes",
      "fixme": "Verificar coordenadas",
      "note": "Fora da área de projeção da face 0500-0068P-11-2"
      },
      "geometry": {
         "type": "Point",
         "coordinates": [-38.214827,-9.394051]
      }
    },
    {
      "type": "Feature",
      "properties": { 
      "IBGE:COD_UNICO_ENDERECO": "216993866",
      "addr:housenumber": "359",
      "addr:postcode": "48607-240",
      "addr:street": "Rua da Concórdia",
      "addr:suburb": "General Dutra",
      "building": "yes",
      "fixme": "Verificar coordenadas",
      "note": "Fora da área de projeção da face 0500-0068P-1-3"
      },
      "geometry": {
         "type": "Point",
         "coordinates": [-38.217202,-9.392335]
      }
    },
    {
      "type": "Feature",
      "properties": { 
      "IBGE:COD_UNICO_ENDERECO": "27421207",
      "addr:housenumber": "177",
      "addr:postcode": "48607-310",
      "addr:street": "Rua Ceará",
      "addr:suburb": "General Dutra",
      "building": "yes"
      },
      "geometry": {
         "type": "Point",
         "coordinates": [-38.2223062,-9.3896621]
      }
    },
    {
      "type": "Feature",
      "properties": { 
      "IBGE:COD_UNICO_ENDERECO": "216994071",
      "addr:housenumber": "53",
      "addr:postcode": "48607-180",
      "addr:street": "Rua Alberto Rocha",
      "addr:suburb": "General Dutra",
      "building": "yes"
      },
      "geometry": {
         "type": "Point",
         "coordinates": [-38.2197854,-9.392242]
      }
    },
    {
      "type": "Feature",
      "properties": { 
      "IBGE:COD_UNICO_ENDERECO": "216993979",
      "addr:housenumber": "513",
      "addr:postcode": "48602-700",
      "addr:street": "Avenida da Amizade",
      "addr:suburb": "General Dutra",
      "amenity": "school",
      "building": "yes",
      "fixme": "Confirmar nome",
      "name": "Escola Carrossel"
      },
      "geometry": {
         "type": "Point",
         "coordinates": [-38.2204631,-9.3908211]
      }
    },
    {
      "type": "Feature",
      "properties": { 
      "IBGE:COD_UNICO_ENDERECO": "223974440",
      "addr:housenumber": "29",
      "addr:postcode": "48605-330",
      "addr:street": "Rua Lago Paranoá",
      "addr:suburb": "General Dutra",
      "building": "yes",
      "fixme": "Verificar coordenadas",
      "note": "Sem face no bayface do IBGE 0500-0147P-22-2"
      },
      "geometry": {
         "type": "Point",
         "coordinates": [-38.225678,-9.387637]
      }
    },
    {
      "type": "Feature",
      "properties": { 
      "IBGE:COD_UNICO_ENDERECO": "216994192",
      "addr:housenumber": "199",
      "addr:postcode": "48607-000",
      "addr:street": "Avenida Marcondes Ferraz",
      "addr:suburb": "General Dutra",
      "building": "yes"
      },
      "geometry": {
         "type": "Point",
         "coordinates": [-38.2172683,-9.3899253]
      }
    },
    {
      "type": "Feature",
      "properties": { 
      "IBGE:COD_UNICO_ENDERECO": "27421247",
      "addr:housenumber": "92",
      "addr:postcode": "48607-310",
      "addr:street": "Rua Ceará",
      "addr:suburb": "General Dutra",
      "building": "yes"
      },
      "geometry": {
         "type": "Point",
         "coordinates": [-38.2215222,-9.3889889]
      }
    },
    {
      "type": "Feature",
      "properties": { 
      "IBGE:COD_UNICO_ENDERECO": "216994239",
      "addr:housenumber": "379",
      "addr:postcode": "48607-000",
      "addr:street": "Avenida Marcondes Ferraz",
      "addr:suburb": "General Dutra",
      "building": "yes",
      "fixme": "Verificar coordenadas",
      "note": "Fora da área de projeção da face 0500-0068P-4-1"
      },
      "geometry": {
         "type": "Point",
         "coordinates": [-38.215674,-9.389748]
      }
    },
    {
      "type": "Feature",
      "properties": { 
      "IBGE:COD_UNICO_ENDERECO": "223974281",
      "addr:housenumber": "51",
      "addr:postcode": "48605-380",
      "addr:street": "Rua Lago Itaparica",
      "addr:suburb": "General Dutra",
      "building": "yes",
      "fixme": "Verificar coordenadas",
      "note": "Sem face no bayface do IBGE 0500-0147P-15-4"
      },
      "geometry": {
         "type": "Point",
         "coordinates": [-38.224949,-9.388367]
      }
    },
    {
      "type": "Feature",
      "properties": { 
      "IBGE:COD_UNICO_ENDERECO": "223974317",
      "addr:housenumber": "284",
      "addr:postcode": "48607-325",
      "addr:street": "Travessa Ceará",
      "addr:suburb": "General Dutra",
      "building": "construction"
      },
      "geometry": {
         "type": "Point",
         "coordinates": [-38.2211874,-9.3908941]
      }
    },
    {
      "type": "Feature",
      "properties": { 
      "IBGE:COD_UNICO_ENDERECO": "216994272",
      "addr:housenumber": "90",
      "addr:postcode": "48605-768",
      "addr:street": "Rua do Sossego",
      "addr:suburb": "General Dutra",
      "building": "yes"
      },
      "geometry": {
         "type": "Point",
         "coordinates": [-38.2173303,-9.3907273]
      }
    },
    {
      "type": "Feature",
      "properties": { 
      "IBGE:COD_UNICO_ENDERECO": "216994415",
      "addr:housenumber": "101 B",
      "addr:postcode": "48607-240",
      "addr:street": "Rua da Concórdia",
      "addr:suburb": "General Dutra",
      "building": "yes",
      "fixme": "Verificar coordenadas",
      "note": "Fora da área de projeção da face 0500-0068P-7-3"
      },
      "geometry": {
         "type": "Point",
         "coordinates": [-38.214418,-9.395597]
      }
    },
    {
      "type": "Feature",
      "properties": { 
      "IBGE:COD_UNICO_ENDERECO": "216994124",
      "addr:housenumber": "282",
      "addr:postcode": "48607-210",
      "addr:street": "Rua Engenheiro Marchetti",
      "addr:suburb": "General Dutra",
      "building": "yes",
      "fixme": "Verificar coordenadas",
      "note": "Fora da área de projeção da face 0500-0068P-3-4"
      },
      "geometry": {
         "type": "Point",
         "coordinates": [-38.214426,-9.394903]
      }
    },
    {
      "type": "Feature",
      "properties": { 
      "IBGE:COD_UNICO_ENDERECO": "216994250",
      "addr:housenumber": "399",
      "addr:postcode": "48607-000",
      "addr:street": "Avenida Marcondes Ferraz",
      "addr:suburb": "General Dutra",
      "building": "yes",
      "fixme": "Verificar coordenadas",
      "note": "Fora da área de projeção da face 0500-0068P-4-1"
      },
      "geometry": {
         "type": "Point",
         "coordinates": [-38.215315,-9.389701]
      }
    },
    {
      "type": "Feature",
      "properties": { 
      "IBGE:COD_UNICO_ENDERECO": "216994245",
      "addr:housenumber": "389",
      "addr:postcode": "48607-000",
      "addr:street": "Avenida Marcondes Ferraz",
      "addr:suburb": "General Dutra",
      "building": "yes",
      "fixme": "Verificar coordenadas",
      "note": "Fora da área de projeção da face 0500-0068P-4-1"
      },
      "geometry": {
         "type": "Point",
         "coordinates": [-38.215496,-9.389674]
      }
    },
    {
      "type": "Feature",
      "properties": { 
      "IBGE:COD_UNICO_ENDERECO": "27421212",
      "addr:housenumber": "93",
      "addr:postcode": "48607-310",
      "addr:street": "Rua Ceará",
      "addr:suburb": "General Dutra",
      "building": "yes"
      },
      "geometry": {
         "type": "Point",
         "coordinates": [-38.2217836,-9.3893347]
      }
    },
    {
      "type": "Feature",
      "properties": { 
      "IBGE:COD_UNICO_ENDERECO": "27364322;216994263",
      "addr:housenumber": "190",
      "addr:postcode": "48607-000",
      "addr:street": "Avenida Marcondes Ferraz",
      "addr:suburb": "General Dutra",
      "building": "construction"
      },
      "geometry": {
         "type": "Point",
         "coordinates": [-38.2173283,-9.3899269]
      }
    },
    {
      "type": "Feature",
      "properties": { 
      "IBGE:COD_UNICO_ENDERECO": "27421252",
      "addr:housenumber": "139",
      "addr:postcode": "48605-530",
      "addr:street": "Rua Bahia",
      "addr:suburb": "General Dutra",
      "addr:unit": "Casa B",
      "building": "yes"
      },
      "geometry": {
         "type": "Point",
         "coordinates": [-38.2229473,-9.3884335]
      }
    },
    {
      "type": "Feature",
      "properties": { 
      "IBGE:COD_UNICO_ENDERECO": "216994381",
      "addr:housenumber": "88",
      "addr:postcode": "48607-060",
      "addr:street": "Rua da Alvorada",
      "addr:suburb": "General Dutra",
      "building": "yes",
      "fixme": "Verificar coordenadas",
      "note": "Fora da área de projeção da face 0500-0068P-7-1"
      },
      "geometry": {
         "type": "Point",
         "coordinates": [-38.217495,-9.391595]
      }
    },
    {
      "type": "Feature",
      "properties": { 
      "IBGE:COD_UNICO_ENDERECO": "27364291",
      "addr:housenumber": "145",
      "addr:postcode": "48607-180",
      "addr:street": "Rua Alberto Rocha",
      "addr:suburb": "General Dutra",
      "building": "yes"
      },
      "geometry": {
         "type": "Point",
         "coordinates": [-38.2197942,-9.3918732]
      }
    },
    {
      "type": "Feature",
      "properties": { 
      "IBGE:COD_UNICO_ENDERECO": "27421248",
      "addr:housenumber": "122",
      "addr:postcode": "48607-310",
      "addr:street": "Rua Ceará",
      "addr:suburb": "General Dutra",
      "building": "yes"
      },
      "geometry": {
         "type": "Point",
         "coordinates": [-38.2219381,-9.3892469]
      }
    },
    {
      "type": "Feature",
      "properties": { 
      "IBGE:COD_UNICO_ENDERECO": "27364329",
      "addr:housenumber": "50",
      "addr:postcode": "48605-768",
      "addr:street": "Rua do Sossego",
      "addr:suburb": "General Dutra",
      "building": "yes",
      "fixme": "Verificar coordenadas",
      "note": "Fora da área de projeção da face 0500-0068P-5-1"
      },
      "geometry": {
         "type": "Point",
         "coordinates": [-38.214432,-9.395318]
      }
    },
    {
      "type": "Feature",
      "properties": { 
      "IBGE:COD_UNICO_ENDERECO": "27421277",
      "addr:housenumber": "57",
      "addr:postcode": "48607-330",
      "addr:street": "Rua Alagoas",
      "addr:suburb": "General Dutra",
      "building": "yes"
      },
      "geometry": {
         "type": "Point",
         "coordinates": [-38.2227788,-9.3864218]
      }
    },
    {
      "type": "Feature",
      "properties": { 
      "IBGE:COD_UNICO_ENDERECO": "27364292",
      "addr:housenumber": "12",
      "addr:postcode": "48607-180",
      "addr:street": "Rua Alberto Rocha",
      "addr:suburb": "General Dutra",
      "addr:unit": "Fundos",
      "building": "yes"
      },
      "geometry": {
         "type": "Point",
         "coordinates": [-38.2197487,-9.3917153]
      }
    },
    {
      "type": "Feature",
      "properties": { 
      "IBGE:COD_UNICO_ENDERECO": "27421244",
      "addr:housenumber": "17",
      "addr:postcode": "48607-335",
      "addr:street": "Rua Rio Grande do Norte",
      "addr:suburb": "General Dutra",
      "building": "yes"
      },
      "geometry": {
         "type": "Point",
         "coordinates": [-38.2214801,-9.3882181]
      }
    },
    {
      "type": "Feature",
      "properties": { 
      "IBGE:COD_UNICO_ENDERECO": "216993841;216993939",
      "addr:housenumber": "449",
      "addr:postcode": "48607-240",
      "addr:street": "Rua da Concórdia",
      "addr:suburb": "General Dutra",
      "building": "yes",
      "description": "CNEFE 2022 Climepsi",
      "fixme": "Verificar coordenadas",
      "healthcare": "yes",
      "note": "Fora da área de projeção da face 0500-0068P-1-3"
      },
      "geometry": {
         "type": "Point",
         "coordinates": [-38.2164195,-9.3923105]
      }
    },
    {
      "type": "Feature",
      "properties": { 
      "IBGE:COD_UNICO_ENDERECO": "27421202",
      "addr:housenumber": "47",
      "addr:postcode": "48605-530",
      "addr:street": "Rua Bahia",
      "addr:suburb": "General Dutra",
      "building": "yes"
      },
      "geometry": {
         "type": "Point",
         "coordinates": [-38.2234254,-9.3878276]
      }
    },
    {
      "type": "Feature",
      "properties": { 
      "IBGE:COD_UNICO_ENDERECO": "216994040",
      "addr:housenumber": "261 B",
      "addr:postcode": "48607-210",
      "addr:street": "Rua Engenheiro Marchetti",
      "addr:suburb": "General Dutra",
      "building": "yes",
      "fixme": "Verificar coordenadas",
      "note": "Fora da área de projeção da face 0500-0068P-2-2"
      },
      "geometry": {
         "type": "Point",
         "coordinates": [-38.214425,-9.39557]
      }
    },
    {
      "type": "Feature",
      "properties": { 
      "IBGE:COD_UNICO_ENDERECO": "27421186",
      "addr:housenumber": "101",
      "addr:postcode": "48607-510",
      "addr:street": "Rua P",
      "addr:suburb": "General Dutra",
      "building": "yes"
      },
      "geometry": {
         "type": "Point",
         "coordinates": [-38.2245618,-9.387495]
      }
    },
    {
      "type": "Feature",
      "properties": { 
      "IBGE:COD_UNICO_ENDERECO": "216993922",
      "addr:housenumber": "419",
      "addr:postcode": "48607-240",
      "addr:street": "Rua da Concórdia",
      "addr:suburb": "General Dutra",
      "building": "yes",
      "fixme": "Verificar coordenadas",
      "note": "Fora da área de projeção da face 0500-0068P-1-3"
      },
      "geometry": {
         "type": "Point",
         "coordinates": [-38.21674,-9.392273]
      }
    },
    {
      "type": "Feature",
      "properties": { 
      "IBGE:COD_UNICO_ENDERECO": "223974293",
      "addr:housenumber": "15",
      "addr:postcode": "48607-510",
      "addr:street": "Rua P",
      "addr:suburb": "General Dutra",
      "building": "yes"
      },
      "geometry": {
         "type": "Point",
         "coordinates": [-38.2241881,-9.3872482]
      }
    },
    {
      "type": "Feature",
      "properties": { 
      "IBGE:COD_UNICO_ENDERECO": "27364360",
      "addr:housenumber": "325",
      "addr:postcode": "48607-060",
      "addr:street": "Rua da Alvorada",
      "addr:suburb": "General Dutra",
      "building": "yes",
      "fixme": "Verificar coordenadas",
      "note": "Fora da área de projeção da face 0500-0068P-8-3"
      },
      "geometry": {
         "type": "Point",
         "coordinates": [-38.214456,-9.394928]
      }
    },
    {
      "type": "Feature",
      "properties": { 
      "IBGE:COD_UNICO_ENDERECO": "27421215",
      "addr:housenumber": "104",
      "addr:postcode": "48607-325",
      "addr:street": "Travessa Ceará",
      "addr:suburb": "General Dutra",
      "building": "yes"
      },
      "geometry": {
         "type": "Point",
         "coordinates": [-38.2213619,-9.3897905]
      }
    },
    {
      "type": "Feature",
      "properties": { 
      "IBGE:COD_UNICO_ENDERECO": "216994187",
      "addr:housenumber": "225",
      "addr:postcode": "48607-000",
      "addr:street": "Avenida Marcondes Ferraz",
      "addr:suburb": "General Dutra",
      "building": "yes"
      },
      "geometry": {
         "type": "Point",
         "coordinates": [-38.2170422,-9.3899068]
      }
    },
    {
      "type": "Feature",
      "properties": { 
      "IBGE:COD_UNICO_ENDERECO": "27421276",
      "addr:housenumber": "77",
      "addr:postcode": "48607-330",
      "addr:street": "Rua Alagoas",
      "addr:suburb": "General Dutra",
      "building": "yes"
      },
      "geometry": {
         "type": "Point",
         "coordinates": [-38.2229448,-9.3865175]
      }
    },
    {
      "type": "Feature",
      "properties": { 
      "IBGE:COD_UNICO_ENDERECO": "216994005",
      "addr:housenumber": "261",
      "addr:postcode": "48607-210",
      "addr:street": "Rua Engenheiro Marchetti",
      "addr:suburb": "General Dutra",
      "building": "yes"
      },
      "geometry": {
         "type": "Point",
         "coordinates": [-38.219264,-9.3918109]
      }
    },
    {
      "type": "Feature",
      "properties": { 
      "IBGE:COD_UNICO_ENDERECO": "216994312",
      "addr:housenumber": "261 A",
      "addr:postcode": "48607-210",
      "addr:street": "Rua Engenheiro Marchetti",
      "addr:suburb": "General Dutra",
      "building": "yes",
      "fixme": "Verificar coordenadas",
      "note": "Sem face no bayface do IBGE 0500-0068P-5-5"
      },
      "geometry": {
         "type": "Point",
         "coordinates": [-38.219031,-9.391765]
      }
    },
    {
      "type": "Feature",
      "properties": { 
      "IBGE:COD_UNICO_ENDERECO": "27421268",
      "addr:housenumber": "58 A",
      "addr:postcode": "48607-360",
      "addr:street": "Rua Paraíba",
      "addr:suburb": "General Dutra",
      "addr:unit": "Casa A",
      "building": "yes"
      },
      "geometry": {
         "type": "Point",
         "coordinates": [-38.2222949,-9.3875786]
      }
    },
    {
      "type": "Feature",
      "properties": { 
      "IBGE:COD_UNICO_ENDERECO": "27364302",
      "addr:housenumber": "142",
      "addr:postcode": "48607-170",
      "addr:street": "Rua da Bondade",
      "addr:suburb": "General Dutra",
      "building": "yes"
      },
      "geometry": {
         "type": "Point",
         "coordinates": [-38.2184458,-9.391245]
      }
    },
    {
      "type": "Feature",
      "properties": { 
      "IBGE:COD_UNICO_ENDERECO": "27421214",
      "addr:housenumber": "53",
      "addr:postcode": "48607-325",
      "addr:street": "Travessa Ceará",
      "addr:suburb": "General Dutra",
      "building": "yes"
      },
      "geometry": {
         "type": "Point",
         "coordinates": [-38.2214313,-9.3894725]
      }
    },
    {
      "type": "Feature",
      "properties": { 
      "IBGE:COD_UNICO_ENDERECO": "216994444",
      "addr:housenumber": "55",
      "addr:postcode": "48607-000",
      "addr:street": "Avenida Marcondes Ferraz",
      "addr:suburb": "General Dutra",
      "building": "yes",
      "fixme": "Verificar coordenadas",
      "note": "Fora da área de projeção da face 0500-0068P-8-1"
      },
      "geometry": {
         "type": "Point",
         "coordinates": [-38.213688,-9.395394]
      }
    },
    {
      "type": "Feature",
      "properties": { 
      "IBGE:COD_UNICO_ENDERECO": "27421272",
      "addr:housenumber": "58",
      "addr:postcode": "48607-360",
      "addr:street": "Rua Paraíba",
      "addr:suburb": "General Dutra",
      "building": "yes"
      },
      "geometry": {
         "type": "Point",
         "coordinates": [-38.2222702,-9.3875625]
      }
    },
    {
      "type": "Feature",
      "properties": { 
      "IBGE:COD_UNICO_ENDERECO": "27364296",
      "addr:housenumber": "65",
      "addr:postcode": "48607-180",
      "addr:street": "Rua Alberto Rocha",
      "addr:suburb": "General Dutra",
      "building": "yes"
      },
      "geometry": {
         "type": "Point",
         "coordinates": [-38.2198435,-9.3910309]
      }
    },
    {
      "type": "Feature",
      "properties": { 
      "IBGE:COD_UNICO_ENDERECO": "27421195",
      "addr:housenumber": "39",
      "addr:postcode": "48607-510",
      "addr:street": "Rua P",
      "addr:suburb": "General Dutra",
      "building": "construction"
      },
      "geometry": {
         "type": "Point",
         "coordinates": [-38.224628,-9.3875388]
      }
    },
    {
      "type": "Feature",
      "properties": { 
      "IBGE:COD_UNICO_ENDERECO": "216994433",
      "addr:housenumber": "160",
      "addr:postcode": "48607-240",
      "addr:street": "Rua da Concórdia",
      "addr:suburb": "General Dutra",
      "building": "public",
      "fixme": "Verificar coordenadas",
      "name": "Justiça do Trabalho",
      "note": "Fora da área de projeção da face 0500-0068P-7-3",
      "office": "government"
      },
      "geometry": {
         "type": "Point",
         "coordinates": [-38.216978,-9.392302]
      }
    },
    {
      "type": "Feature",
      "properties": { 
      "IBGE:COD_UNICO_ENDERECO": "27421246",
      "addr:housenumber": "56",
      "addr:postcode": "48607-310",
      "addr:street": "Rua Ceará",
      "addr:suburb": "General Dutra",
      "building": "yes"
      },
      "geometry": {
         "type": "Point",
         "coordinates": [-38.2214473,-9.3889424]
      }
    },
    {
      "type": "Feature",
      "properties": { 
      "IBGE:COD_UNICO_ENDERECO": "216994067",
      "addr:housenumber": "173",
      "addr:postcode": "48607-180",
      "addr:street": "Rua Alberto Rocha",
      "addr:suburb": "General Dutra",
      "building": "yes"
      },
      "geometry": {
         "type": "Point",
         "coordinates": [-38.2197855,-9.3920234]
      }
    },
    {
      "type": "Feature",
      "properties": { 
      "IBGE:COD_UNICO_ENDERECO": "27421250",
      "addr:housenumber": "178",
      "addr:postcode": "48607-310",
      "addr:street": "Rua Ceará",
      "addr:suburb": "General Dutra",
      "building": "yes"
      },
      "geometry": {
         "type": "Point",
         "coordinates": [-38.2223697,-9.3895147]
      }
    },
    {
      "type": "Feature",
      "properties": { 
      "IBGE:COD_UNICO_ENDERECO": "27364365",
      "addr:housenumber": "185",
      "addr:postcode": "48607-060",
      "addr:street": "Rua da Alvorada",
      "addr:suburb": "General Dutra",
      "building": "yes",
      "fixme": "Verificar coordenadas",
      "note": "Fora da área de projeção da face 0500-0068P-8-3"
      },
      "geometry": {
         "type": "Point",
         "coordinates": [-38.214452,-9.394926]
      }
    },
    {
      "type": "Feature",
      "properties": { 
      "IBGE:COD_UNICO_ENDERECO": "216994101",
      "addr:housenumber": "112",
      "addr:postcode": "48607-170",
      "addr:street": "Rua da Bondade",
      "addr:suburb": "General Dutra",
      "building": "yes"
      },
      "geometry": {
         "type": "Point",
         "coordinates": [-38.218456,-9.3910393]
      }
    },
    {
      "type": "Feature",
      "properties": { 
      "IBGE:COD_UNICO_ENDERECO": "27364312",
      "addr:housenumber": "215",
      "addr:postcode": "48607-210",
      "addr:street": "Rua Engenheiro Marchetti",
      "addr:suburb": "General Dutra",
      "building": "yes",
      "fixme": "Verificar coordenadas",
      "note": "Fora da área de projeção da face 0500-0068P-3-4"
      },
      "geometry": {
         "type": "Point",
         "coordinates": [-38.214455,-9.394921]
      }
    },
    {
      "type": "Feature",
      "properties": { 
      "IBGE:COD_UNICO_ENDERECO": "216993927",
      "addr:housenumber": "20",
      "addr:postcode": "48607-240",
      "addr:street": "Rua da Concórdia",
      "addr:suburb": "General Dutra",
      "building": "yes"
      },
      "geometry": {
         "type": "Point",
         "coordinates": [-38.2201813,-9.3925317]
      }
    },
    {
      "type": "Feature",
      "properties": { 
      "IBGE:COD_UNICO_ENDERECO": "216993959",
      "addr:housenumber": "579",
      "addr:postcode": "48602-700",
      "addr:street": "Avenida da Amizade",
      "addr:suburb": "General Dutra",
      "building": "yes"
      },
      "geometry": {
         "type": "Point",
         "coordinates": [-38.2205011,-9.3904089]
      }
    },
    {
      "type": "Feature",
      "properties": { 
      "IBGE:COD_UNICO_ENDERECO": "27421254",
      "addr:housenumber": "139",
      "addr:postcode": "48607-360",
      "addr:street": "Rua Paraíba",
      "addr:suburb": "General Dutra",
      "building": "yes"
      },
      "geometry": {
         "type": "Point",
         "coordinates": [-38.222925,-9.3881248]
      }
    },
    {
      "type": "Feature",
      "properties": { 
      "IBGE:COD_UNICO_ENDERECO": "216994106",
      "addr:housenumber": "76",
      "addr:postcode": "48607-170",
      "addr:street": "Rua da Bondade",
      "addr:suburb": "General Dutra",
      "building": "yes"
      },
      "geometry": {
         "type": "Point",
         "coordinates": [-38.2184692,-9.3903249]
      }
    },
    {
      "type": "Feature",
      "properties": { 
      "IBGE:COD_UNICO_ENDERECO": "223974301",
      "addr:housenumber": "10",
      "addr:postcode": "48605-530",
      "addr:street": "Rua Bahia",
      "addr:suburb": "General Dutra",
      "building": "yes"
      },
      "geometry": {
         "type": "Point",
         "coordinates": [-38.2235706,-9.3875002]
      }
    },
    {
      "type": "Feature",
      "properties": { 
      "IBGE:COD_UNICO_ENDERECO": "27421196",
      "addr:housenumber": "121",
      "addr:postcode": "48607-510",
      "addr:street": "Rua P",
      "addr:suburb": "General Dutra",
      "addr:unit": "Fundos",
      "building": "yes"
      },
      "geometry": {
         "type": "Point",
         "coordinates": [-38.2246413,-9.3876125]
      }
    },
    {
      "type": "Feature",
      "properties": { 
      "IBGE:COD_UNICO_ENDERECO": "216994278",
      "addr:housenumber": "86",
      "addr:postcode": "48605-768",
      "addr:street": "Rua do Sossego",
      "addr:suburb": "General Dutra",
      "building": "yes"
      },
      "geometry": {
         "type": "Point",
         "coordinates": [-38.2174926,-9.3907333]
      }
    },
    {
      "type": "Feature",
      "properties": { 
      "IBGE:COD_UNICO_ENDERECO": "216994440",
      "addr:housenumber": "199",
      "addr:postcode": "48607-000",
      "addr:street": "Avenida Marcondes Ferraz",
      "addr:suburb": "General Dutra",
      "building": "yes",
      "fixme": "Verificar coordenadas",
      "note": "Fora da área de projeção da face 0500-0068P-8-1"
      },
      "geometry": {
         "type": "Point",
         "coordinates": [-38.214106,-9.396463]
      }
    },
    {
      "type": "Feature",
      "properties": { 
      "IBGE:COD_UNICO_ENDERECO": "216994316",
      "addr:housenumber": "261",
      "addr:postcode": "48607-210",
      "addr:street": "Rua Engenheiro Marchetti",
      "addr:suburb": "General Dutra",
      "building": "yes",
      "fixme": "Verificar coordenadas",
      "note": "Sem face no bayface do IBGE 0500-0068P-5-5"
      },
      "geometry": {
         "type": "Point",
         "coordinates": [-38.218986,-9.39176]
      }
    },
    {
      "type": "Feature",
      "properties": { 
      "IBGE:COD_UNICO_ENDERECO": "216993873",
      "addr:housenumber": "171",
      "addr:postcode": "48607-240",
      "addr:street": "Rua da Concórdia",
      "addr:suburb": "General Dutra",
      "building": "yes",
      "fixme": "Verificar coordenadas",
      "note": "Fora da área de projeção da face 0500-0068P-1-3"
      },
      "geometry": {
         "type": "Point",
         "coordinates": [-38.218619,-9.392433]
      }
    },
    {
      "type": "Feature",
      "properties": { 
      "IBGE:COD_UNICO_ENDERECO": "216993951",
      "addr:housenumber": "533",
      "addr:postcode": "48602-700",
      "addr:street": "Avenida da Amizade",
      "addr:suburb": "General Dutra",
      "building": "yes"
      },
      "geometry": {
         "type": "Point",
         "coordinates": [-38.2204687,-9.3906888]
      }
    },
    {
      "type": "Feature",
      "properties": { 
      "IBGE:COD_UNICO_ENDERECO": "216994339",
      "addr:housenumber": "263",
      "addr:postcode": "48607-060",
      "addr:street": "Rua da Alvorada",
      "addr:suburb": "General Dutra",
      "building": "yes"
      },
      "geometry": {
         "type": "Point",
         "coordinates": [-38.2158876,-9.3915716]
      }
    },
    {
      "type": "Feature",
      "properties": { 
      "IBGE:COD_UNICO_ENDERECO": "27364313",
      "addr:housenumber": "191",
      "addr:postcode": "48607-210",
      "addr:street": "Rua Engenheiro Marchetti",
      "addr:suburb": "General Dutra",
      "building": "yes",
      "fixme": "Verificar coordenadas",
      "note": "Fora da área de projeção da face 0500-0068P-3-4"
      },
      "geometry": {
         "type": "Point",
         "coordinates": [-38.214428,-9.394916]
      }
    },
    {
      "type": "Feature",
      "properties": { 
      "IBGE:COD_UNICO_ENDERECO": "27421281",
      "addr:housenumber": "76",
      "addr:postcode": "48607-390",
      "addr:street": "Rua Pernambuco",
      "addr:suburb": "General Dutra",
      "building": "yes"
      },
      "geometry": {
         "type": "Point",
         "coordinates": [-38.2226955,-9.3869183]
      }
    },
    {
      "type": "Feature",
      "properties": { 
      "IBGE:COD_UNICO_ENDERECO": "216993988",
      "addr:housenumber": "215",
      "addr:postcode": "48607-210",
      "addr:street": "Rua Engenheiro Marchetti",
      "addr:suburb": "General Dutra",
      "building": "yes"
      },
      "geometry": {
         "type": "Point",
         "coordinates": [-38.2192898,-9.3913238]
      }
    },
    {
      "type": "Feature",
      "properties": { 
      "IBGE:COD_UNICO_ENDERECO": "216994030",
      "addr:housenumber": "167",
      "addr:postcode": "48607-210",
      "addr:street": "Rua Engenheiro Marchetti",
      "addr:suburb": "General Dutra",
      "building": "yes"
      },
      "geometry": {
         "type": "Point",
         "coordinates": [-38.219293,-9.3908851]
      }
    },
    {
      "type": "Feature",
      "properties": { 
      "IBGE:COD_UNICO_ENDERECO": "27364282",
      "addr:housenumber": "190",
      "addr:postcode": "48607-210",
      "addr:street": "Rua Engenheiro Marchetti",
      "addr:suburb": "General Dutra",
      "building": "yes"
      },
      "geometry": {
         "type": "Point",
         "coordinates": [-38.2192359,-9.3921673]
      }
    },
    {
      "type": "Feature",
      "properties": { 
      "IBGE:COD_UNICO_ENDERECO": "216994345",
      "addr:housenumber": "185",
      "addr:postcode": "48607-060",
      "addr:street": "Rua da Alvorada",
      "addr:suburb": "General Dutra",
      "building": "yes"
      },
      "geometry": {
         "type": "Point",
         "coordinates": [-38.2165612,-9.3916211]
      }
    },
    {
      "type": "Feature",
      "properties": { 
      "IBGE:COD_UNICO_ENDERECO": "216994457",
      "addr:housenumber": "17",
      "addr:postcode": "48608-005",
      "addr:street": "Rua da Aurora",
      "addr:suburb": "General Dutra",
      "building": "yes",
      "fixme": "Verificar coordenadas",
      "name": "Núcleo Integrado de Segurança Urbana",
      "note": "Fora da área de projeção da face 0500-0068P-8-2"
      },
      "geometry": {
         "type": "Point",
         "coordinates": [-38.213676,-9.395416]
      }
    },
    {
      "type": "Feature",
      "properties": { 
      "IBGE:COD_UNICO_ENDERECO": "27364356",
      "addr:housenumber": "419",
      "addr:postcode": "48607-240",
      "addr:street": "Rua da Concórdia",
      "addr:suburb": "General Dutra",
      "building": "yes",
      "fixme": "Verificar coordenadas",
      "note": "Fora da área de projeção da face 0500-0068P-7-3"
      },
      "geometry": {
         "type": "Point",
         "coordinates": [-38.214443,-9.394926]
      }
    },
    {
      "type": "Feature",
      "properties": { 
      "IBGE:COD_UNICO_ENDERECO": "216994181",
      "addr:housenumber": "281",
      "addr:postcode": "48607-000",
      "addr:street": "Avenida Marcondes Ferraz",
      "addr:suburb": "General Dutra",
      "building": "yes",
      "fixme": "Verificar coordenadas",
      "note": "Fora da área de projeção da face 0500-0068P-4-1"
      },
      "geometry": {
         "type": "Point",
         "coordinates": [-38.216561,-9.38975]
      }
    },
    {
      "type": "Feature",
      "properties": { 
      "IBGE:COD_UNICO_ENDERECO": "27421181",
      "addr:housenumber": "135",
      "addr:postcode": "48607-510",
      "addr:street": "Rua P",
      "addr:suburb": "General Dutra",
      "building": "yes",
      "name": "Mercadinho São Francisco",
      "shop": "convenience"
      },
      "geometry": {
         "type": "Point",
         "coordinates": [-38.2248831,-9.3877059]
      }
    },
    {
      "type": "Feature",
      "properties": { 
      "IBGE:COD_UNICO_ENDERECO": "27421193",
      "addr:housenumber": "21",
      "addr:postcode": "48607-510",
      "addr:street": "Rua P",
      "addr:suburb": "General Dutra",
      "building": "yes"
      },
      "geometry": {
         "type": "Point",
         "coordinates": [-38.224251,-9.3872897]
      }
    },
    {
      "type": "Feature",
      "properties": { 
      "IBGE:COD_UNICO_ENDERECO": "216993947",
      "addr:housenumber": "473 A",
      "addr:postcode": "48602-700",
      "addr:street": "Avenida da Amizade",
      "addr:suburb": "General Dutra",
      "building": "yes"
      },
      "geometry": {
         "type": "Point",
         "coordinates": [-38.2204485,-9.391197]
      }
    },
    {
      "type": "Feature",
      "properties": { 
      "IBGE:COD_UNICO_ENDERECO": "27364316",
      "addr:housenumber": "93",
      "addr:postcode": "48607-210",
      "addr:street": "Rua Engenheiro Marchetti",
      "addr:suburb": "General Dutra",
      "building": "yes",
      "fixme": "Verificar coordenadas",
      "note": "Fora da área de projeção da face 0500-0068P-3-4"
      },
      "geometry": {
         "type": "Point",
         "coordinates": [-38.214412,-9.394945]
      }
    },
    {
      "type": "Feature",
      "properties": { 
      "IBGE:COD_UNICO_ENDERECO": "27421263",
      "addr:housenumber": "97",
      "addr:postcode": "48607-390",
      "addr:street": "Rua Pernambuco",
      "addr:suburb": "General Dutra",
      "building": "yes"
      },
      "geometry": {
         "type": "Point",
         "coordinates": [-38.2228117,-9.3871665]
      }
    },
    {
      "type": "Feature",
      "properties": { 
      "IBGE:COD_UNICO_ENDERECO": "27364327",
      "addr:housenumber": "19",
      "addr:postcode": "48605-768",
      "addr:street": "Rua do Sossego",
      "addr:suburb": "General Dutra",
      "building": "yes"
      },
      "geometry": {
         "type": "Point",
         "coordinates": [-38.2179955,-9.3907521]
      }
    },
    {
      "type": "Feature",
      "properties": { 
      "IBGE:COD_UNICO_ENDERECO": "223974285",
      "addr:housenumber": "73",
      "addr:postcode": "48607-510",
      "addr:street": "Rua P",
      "addr:suburb": "General Dutra",
      "building": "yes"
      },
      "geometry": {
         "type": "Point",
         "coordinates": [-38.2247462,-9.3876169]
      }
    },
    {
      "type": "Feature",
      "properties": { 
      "IBGE:COD_UNICO_ENDERECO": "27364344",
      "addr:housenumber": "214",
      "addr:postcode": "48607-060",
      "addr:street": "Rua da Alvorada",
      "addr:suburb": "General Dutra",
      "building": "yes"
      },
      "geometry": {
         "type": "Point",
         "coordinates": [-38.2163323,-9.3916043]
      }
    },
    {
      "type": "Feature",
      "properties": { 
      "IBGE:COD_UNICO_ENDERECO": "216994298",
      "addr:housenumber": "605",
      "addr:postcode": "48605-768",
      "addr:street": "Rua do Sossego",
      "addr:suburb": "General Dutra",
      "building": "yes",
      "fixme": "Verificar coordenadas",
      "note": "Fora da área de projeção da face 0500-0068P-4-3"
      },
      "geometry": {
         "type": "Point",
         "coordinates": [-38.216838,-9.390405]
      }
    },
    {
      "type": "Feature",
      "properties": { 
      "IBGE:COD_UNICO_ENDERECO": "223974302",
      "addr:housenumber": "10 Lado A",
      "addr:postcode": "48605-530",
      "addr:street": "Rua Bahia",
      "addr:suburb": "General Dutra",
      "building": "yes",
      "name": "Oficina no Grau"
      },
      "geometry": {
         "type": "Point",
         "coordinates": [-38.2235448,-9.3875583]
      }
    },
    {
      "type": "Feature",
      "properties": { 
      "IBGE:COD_UNICO_ENDERECO": "27364304",
      "addr:housenumber": "180",
      "addr:postcode": "48607-170",
      "addr:street": "Rua da Bondade",
      "addr:suburb": "General Dutra",
      "building": "yes"
      },
      "geometry": {
         "type": "Point",
         "coordinates": [-38.2184224,-9.3917163]
      }
    },
    {
      "type": "Feature",
      "properties": { 
      "IBGE:COD_UNICO_ENDERECO": "216994412",
      "addr:housenumber": "101 A",
      "addr:postcode": "48607-240",
      "addr:street": "Rua da Concórdia",
      "addr:suburb": "General Dutra",
      "building": "yes",
      "fixme": "Verificar coordenadas",
      "note": "Fora da área de projeção da face 0500-0068P-7-3"
      },
      "geometry": {
         "type": "Point",
         "coordinates": [-38.214426,-9.395594]
      }
    },
    {
      "type": "Feature",
      "properties": { 
      "IBGE:COD_UNICO_ENDERECO": "27364342",
      "addr:housenumber": "257",
      "addr:postcode": "48607-240",
      "addr:street": "Rua da Concórdia",
      "addr:suburb": "General Dutra",
      "building": "yes",
      "fixme": "Confirmar nome",
      "name": "Delizza"
      },
      "geometry": {
         "type": "Point",
         "coordinates": [-38.217992,-9.3923283]
      }
    },
    {
      "type": "Feature",
      "properties": { 
      "IBGE:COD_UNICO_ENDERECO": "216994207",
      "addr:housenumber": "113",
      "addr:postcode": "48607-000",
      "addr:street": "Avenida Marcondes Ferraz",
      "addr:suburb": "General Dutra",
      "building": "yes"
      },
      "geometry": {
         "type": "Point",
         "coordinates": [-38.218065,-9.3899526]
      }
    },
    {
      "type": "Feature",
      "properties": { 
      "IBGE:COD_UNICO_ENDERECO": "27421223",
      "addr:housenumber": "407",
      "addr:postcode": "48602-700",
      "addr:street": "Avenida da Amizade",
      "addr:suburb": "General Dutra",
      "building": "yes"
      },
      "geometry": {
         "type": "Point",
         "coordinates": [-38.2206063,-9.3917522]
      }
    },
    {
      "type": "Feature",
      "properties": { 
      "IBGE:COD_UNICO_ENDERECO": "27364300",
      "addr:housenumber": "100",
      "addr:postcode": "48607-170",
      "addr:street": "Rua da Bondade",
      "addr:suburb": "General Dutra",
      "building": "yes"
      },
      "geometry": {
         "type": "Point",
         "coordinates": [-38.2184616,-9.3909263]
      }
    },
    {
      "type": "Feature",
      "properties": { 
      "IBGE:COD_UNICO_ENDERECO": "216994284",
      "addr:housenumber": "50",
      "addr:postcode": "48605-768",
      "addr:street": "Rua do Sossego",
      "addr:suburb": "General Dutra",
      "building": "yes"
      },
      "geometry": {
         "type": "Point",
         "coordinates": [-38.2177532,-9.3907431]
      }
    },
    {
      "type": "Feature",
      "properties": { 
      "IBGE:COD_UNICO_ENDERECO": "27364310",
      "addr:housenumber": "261",
      "addr:postcode": "48607-210",
      "addr:street": "Rua Engenheiro Marchetti",
      "addr:suburb": "General Dutra",
      "building": "yes",
      "fixme": "Verificar coordenadas",
      "note": "Fora da área de projeção da face 0500-0068P-3-4"
      },
      "geometry": {
         "type": "Point",
         "coordinates": [-38.214413,-9.394905]
      }
    },
    {
      "type": "Feature",
      "properties": { 
      "IBGE:COD_UNICO_ENDERECO": "216993900",
      "addr:housenumber": "480",
      "addr:postcode": "48607-240",
      "addr:street": "Rua da Concórdia",
      "addr:suburb": "General Dutra",
      "building": "yes",
      "fixme": "Verificar coordenadas",
      "note": "Fora da área de projeção da face 0500-0068P-1-3"
      },
      "geometry": {
         "type": "Point",
         "coordinates": [-38.215848,-9.392141]
      }
    },
    {
      "type": "Feature",
      "properties": { 
      "IBGE:COD_UNICO_ENDERECO": "27364347",
      "addr:housenumber": "298",
      "addr:postcode": "48607-060",
      "addr:street": "Rua da Alvorada",
      "addr:suburb": "General Dutra",
      "building": "yes"
      },
      "geometry": {
         "type": "Point",
         "coordinates": [-38.2155214,-9.3915446]
      }
    },
    {
      "type": "Feature",
      "properties": { 
      "IBGE:COD_UNICO_ENDERECO": "27421240",
      "addr:housenumber": "151",
      "addr:postcode": "48607-335",
      "addr:street": "Rua Rio Grande do Norte",
      "addr:suburb": "General Dutra",
      "building": "yes"
      },
      "geometry": {
         "type": "Point",
         "coordinates": [-38.2225197,-9.3888272]
      }
    },
    {
      "type": "Feature",
      "properties": { 
      "IBGE:COD_UNICO_ENDERECO": "27421271",
      "addr:housenumber": "156",
      "addr:postcode": "48607-360",
      "addr:street": "Rua Paraíba",
      "addr:suburb": "General Dutra",
      "building": "yes"
      },
      "geometry": {
         "type": "Point",
         "coordinates": [-38.2229163,-9.3879497]
      }
    },
    {
      "type": "Feature",
      "properties": { 
      "IBGE:COD_UNICO_ENDERECO": "216994034",
      "addr:housenumber": "137",
      "addr:postcode": "48607-210",
      "addr:street": "Rua Engenheiro Marchetti",
      "addr:suburb": "General Dutra",
      "building": "yes"
      },
      "geometry": {
         "type": "Point",
         "coordinates": [-38.219294,-9.3907551]
      }
    },
    {
      "type": "Feature",
      "properties": { 
      "IBGE:COD_UNICO_ENDERECO": "216993911",
      "addr:housenumber": "479",
      "addr:postcode": "48607-240",
      "addr:street": "Rua da Concórdia",
      "addr:suburb": "General Dutra",
      "building": "yes",
      "fixme": "Verificar coordenadas",
      "note": "Fora da área de projeção da face 0500-0068P-1-3"
      },
      "geometry": {
         "type": "Point",
         "coordinates": [-38.216118,-9.392254]
      }
    },
    {
      "type": "Feature",
      "properties": { 
      "IBGE:COD_UNICO_ENDERECO": "223974298",
      "addr:housenumber": "50",
      "addr:postcode": "48605-530",
      "addr:street": "Rua Bahia",
      "addr:suburb": "General Dutra",
      "building": "yes"
      },
      "geometry": {
         "type": "Point",
         "coordinates": [-38.2238025,-9.3870721]
      }
    },
    {
      "type": "Feature",
      "properties": { 
      "IBGE:COD_UNICO_ENDERECO": "216994289",
      "addr:housenumber": "14",
      "addr:postcode": "48605-768",
      "addr:street": "Rua do Sossego",
      "addr:suburb": "General Dutra",
      "building": "yes"
      },
      "geometry": {
         "type": "Point",
         "coordinates": [-38.2180246,-9.3907532]
      }
    },
    {
      "type": "Feature",
      "properties": { 
      "IBGE:COD_UNICO_ENDERECO": "27364345",
      "addr:housenumber": "242",
      "addr:postcode": "48607-060",
      "addr:street": "Rua da Alvorada",
      "addr:suburb": "General Dutra",
      "building": "yes"
      },
      "geometry": {
         "type": "Point",
         "coordinates": [-38.2160965,-9.3915869]
      }
    },
    {
      "type": "Feature",
      "properties": { 
      "IBGE:COD_UNICO_ENDERECO": "27364320;216994196",
      "addr:housenumber": "130",
      "addr:postcode": "48607-000",
      "addr:street": "Avenida Marcondes Ferraz",
      "addr:suburb": "General Dutra",
      "building": "yes"
      },
      "geometry": {
         "type": "Point",
         "coordinates": [-38.2178418,-9.3899436]
      }
    },
    {
      "type": "Feature",
      "properties": { 
      "IBGE:COD_UNICO_ENDERECO": "27421225",
      "addr:housenumber": "1",
      "addr:postcode": "48607-325",
      "addr:street": "Travessa Ceará",
      "addr:suburb": "General Dutra",
      "building": "yes"
      },
      "geometry": {
         "type": "Point",
         "coordinates": [-38.2212903,-9.3893834]
      }
    },
    {
      "type": "Feature",
      "properties": { 
      "IBGE:COD_UNICO_ENDERECO": "27421270",
      "addr:housenumber": "128",
      "addr:postcode": "48607-360",
      "addr:street": "Rua Paraíba",
      "addr:suburb": "General Dutra",
      "building": "yes"
      },
      "geometry": {
         "type": "Point",
         "coordinates": [-38.2227672,-9.3878658]
      }
    },
    {
      "type": "Feature",
      "properties": { 
      "IBGE:COD_UNICO_ENDERECO": "216994371",
      "addr:housenumber": "15",
      "addr:postcode": "48607-060",
      "addr:street": "Rua da Alvorada",
      "addr:suburb": "General Dutra",
      "building": "yes",
      "fixme": "Verificar coordenadas",
      "note": "Fora da área de projeção da face 0500-0068P-7-1"
      },
      "geometry": {
         "type": "Point",
         "coordinates": [-38.218138,-9.391554]
      }
    },
    {
      "type": "Feature",
      "properties": { 
      "IBGE:COD_UNICO_ENDERECO": "27364295",
      "addr:housenumber": "89",
      "addr:postcode": "48607-180",
      "addr:street": "Rua Alberto Rocha",
      "addr:suburb": "General Dutra",
      "building": "yes"
      },
      "geometry": {
         "type": "Point",
         "coordinates": [-38.2198245,-9.3913557]
      }
    },
    {
      "type": "Feature",
      "properties": { 
      "IBGE:COD_UNICO_ENDERECO": "216994078",
      "addr:housenumber": "302",
      "addr:postcode": "48607-180",
      "addr:street": "Rua Alberto Rocha",
      "addr:suburb": "General Dutra",
      "building": "yes"
      },
      "geometry": {
         "type": "Point",
         "coordinates": [-38.2198067,-9.39166]
      }
    },
    {
      "type": "Feature",
      "properties": { 
      "IBGE:COD_UNICO_ENDERECO": "27421205",
      "addr:housenumber": "3 Km",
      "addr:postcode": "48605-530",
      "addr:street": "Rua Bahia",
      "addr:suburb": "General Dutra",
      "building": "yes"
      },
      "geometry": {
         "type": "Point",
         "coordinates": [-38.2233659,-9.3879619]
      }
    },
    {
      "type": "Feature",
      "properties": { 
      "IBGE:COD_UNICO_ENDERECO": "27421203",
      "addr:housenumber": "7",
      "addr:postcode": "48605-530",
      "addr:street": "Rua Bahia",
      "addr:suburb": "General Dutra",
      "building": "yes"
      },
      "geometry": {
         "type": "Point",
         "coordinates": [-38.2233915,-9.3879042]
      }
    },
    {
      "type": "Feature",
      "properties": { 
      "IBGE:COD_UNICO_ENDERECO": "27364334",
      "addr:housenumber": "83",
      "addr:postcode": "48607-060",
      "addr:street": "Rua da Alvorada",
      "addr:suburb": "General Dutra",
      "building": "yes",
      "fixme": "Verificar coordenadas",
      "note": "Fora da área de projeção da face 0500-0068P-5-3"
      },
      "geometry": {
         "type": "Point",
         "coordinates": [-38.214427,-9.394917]
      }
    },
    {
      "type": "Feature",
      "properties": { 
      "IBGE:COD_UNICO_ENDERECO": "27421183",
      "addr:housenumber": "120",
      "addr:postcode": "48607-510",
      "addr:street": "Rua P",
      "addr:suburb": "General Dutra",
      "building": "yes"
      },
      "geometry": {
         "type": "Point",
         "coordinates": [-38.2246358,-9.3875439]
      }
    },
    {
      "type": "Feature",
      "properties": { 
      "IBGE:COD_UNICO_ENDERECO": "27421234",
      "addr:housenumber": "579",
      "addr:postcode": "48602-700",
      "addr:street": "Avenida da Amizade",
      "addr:suburb": "General Dutra",
      "building": "yes"
      },
      "geometry": {
         "type": "Point",
         "coordinates": [-38.2206985,-9.3902475]
      }
    },
    {
      "type": "Feature",
      "properties": { 
      "IBGE:COD_UNICO_ENDERECO": "216993836",
      "addr:housenumber": "555",
      "addr:postcode": "48607-240",
      "addr:street": "Rua da Concórdia",
      "addr:suburb": "General Dutra",
      "building": "yes",
      "fixme": "Verificar coordenadas",
      "note": "Fora da área de projeção da face 0500-0068P-1-3"
      },
      "geometry": {
         "type": "Point",
         "coordinates": [-38.215201,-9.392244]
      }
    },
    {
      "type": "Feature",
      "properties": { 
      "IBGE:COD_UNICO_ENDERECO": "27364286",
      "addr:housenumber": "282",
      "addr:postcode": "48607-210",
      "addr:street": "Rua Engenheiro Marchetti",
      "addr:suburb": "General Dutra",
      "building": "yes"
      },
      "geometry": {
         "type": "Point",
         "coordinates": [-38.21925,-9.3919895]
      }
    },
    {
      "type": "Feature",
      "properties": { 
      "IBGE:COD_UNICO_ENDERECO": "216994294",
      "addr:housenumber": "7",
      "addr:postcode": "48605-768",
      "addr:street": "Rua do Sossego",
      "addr:suburb": "General Dutra",
      "amenity": "car_wash",
      "building": "yes",
      "name": "Tevencar lava a jato"
      },
      "geometry": {
         "type": "Point",
         "coordinates": [-38.2169368,-9.3907589]
      }
    },
    {
      "type": "Feature",
      "properties": { 
      "IBGE:COD_UNICO_ENDERECO": "27421194",
      "addr:housenumber": "19",
      "addr:postcode": "48607-510",
      "addr:street": "Rua P",
      "addr:suburb": "General Dutra",
      "building": "yes"
      },
      "geometry": {
         "type": "Point",
         "coordinates": [-38.2242306,-9.3872763]
      }
    },
    {
      "type": "Feature",
      "properties": { 
      "IBGE:COD_UNICO_ENDERECO": "27364326",
      "addr:housenumber": "53",
      "addr:postcode": "48605-768",
      "addr:street": "Rua do Sossego",
      "addr:suburb": "General Dutra",
      "building": "yes"
      },
      "geometry": {
         "type": "Point",
         "coordinates": [-38.2176904,-9.3907407]
      }
    },
    {
      "type": "Feature",
      "properties": { 
      "IBGE:COD_UNICO_ENDERECO": "216993977",
      "addr:housenumber": "395",
      "addr:postcode": "48602-700",
      "addr:street": "Avenida da Amizade",
      "addr:suburb": "General Dutra",
      "building": "yes"
      },
      "geometry": {
         "type": "Point",
         "coordinates": [-38.2204081,-9.3919359]
      }
    },
    {
      "type": "Feature",
      "properties": { 
      "IBGE:COD_UNICO_ENDERECO": "27364350",
      "addr:housenumber": "509 A",
      "addr:postcode": "48607-240",
      "addr:street": "Rua da Concórdia",
      "addr:suburb": "General Dutra",
      "building": "yes",
      "fixme": "Verificar coordenadas",
      "note": "Fora da área de projeção da face 0500-0068P-7-3"
      },
      "geometry": {
         "type": "Point",
         "coordinates": [-38.214441,-9.394929]
      }
    },
    {
      "type": "Feature",
      "properties": { 
      "IBGE:COD_UNICO_ENDERECO": "216994045",
      "addr:housenumber": "50",
      "addr:postcode": "48607-210",
      "addr:street": "Rua Engenheiro Marchetti",
      "addr:suburb": "General Dutra",
      "building": "yes",
      "fixme": "Verificar coordenadas",
      "name": "Clube Paulo Afonso Cpa",
      "note": "Fora da área de projeção da face 0500-0068P-2-2"
      },
      "geometry": {
         "type": "Point",
         "coordinates": [-38.219934,-9.390361]
      }
    },
    {
      "type": "Feature",
      "properties": { 
      "IBGE:COD_UNICO_ENDERECO": "216993882",
      "addr:housenumber": "481",
      "addr:postcode": "48607-240",
      "addr:street": "Rua da Concórdia",
      "addr:suburb": "General Dutra",
      "building": "yes",
      "description": "CNEFE 2022 Sem Nome",
      "fixme": "Verificar coordenadas",
      "note": "Fora da área de projeção da face 0500-0068P-1-3"
      },
      "geometry": {
         "type": "Point",
         "coordinates": [-38.215739,-9.392284]
      }
    },
    {
      "type": "Feature",
      "properties": { 
      "IBGE:COD_UNICO_ENDERECO": "27364317",
      "addr:housenumber": "85",
      "addr:postcode": "48607-210",
      "addr:street": "Rua Engenheiro Marchetti",
      "addr:suburb": "General Dutra",
      "building": "yes"
      },
      "geometry": {
         "type": "Point",
         "coordinates": [-38.2191284,-9.3899999]
      }
    },
    {
      "type": "Feature",
      "properties": { 
      "IBGE:COD_UNICO_ENDERECO": "27364341",
      "addr:housenumber": "293",
      "addr:postcode": "48607-240",
      "addr:street": "Rua da Concórdia",
      "addr:suburb": "General Dutra",
      "building": "yes",
      "fixme": "Verificar coordenadas",
      "note": "Fora da área de projeção da face 0500-0068P-6-3"
      },
      "geometry": {
         "type": "Point",
         "coordinates": [-38.214425,-9.394938]
      }
    },
    {
      "type": "Feature",
      "properties": { 
      "IBGE:COD_UNICO_ENDERECO": "216993889",
      "addr:housenumber": "459",
      "addr:postcode": "48607-240",
      "addr:street": "Rua da Concórdia",
      "addr:suburb": "General Dutra",
      "building": "yes",
      "fixme": "Verificar coordenadas",
      "note": "Fora da área de projeção da face 0500-0068P-1-3"
      },
      "geometry": {
         "type": "Point",
         "coordinates": [-38.215968,-9.392105]
      }
    },
    {
      "type": "Feature",
      "properties": { 
      "IBGE:COD_UNICO_ENDERECO": "27421208",
      "addr:housenumber": "151",
      "addr:postcode": "48607-310",
      "addr:street": "Rua Ceará",
      "addr:suburb": "General Dutra",
      "building": "yes"
      },
      "geometry": {
         "type": "Point",
         "coordinates": [-38.222225,-9.3896112]
      }
    },
    {
      "type": "Feature",
      "properties": { 
      "IBGE:COD_UNICO_ENDERECO": "27364348",
      "addr:housenumber": "328",
      "addr:postcode": "48607-060",
      "addr:street": "Rua da Alvorada",
      "addr:suburb": "General Dutra",
      "building": "yes"
      },
      "geometry": {
         "type": "Point",
         "coordinates": [-38.2152912,-9.3915277]
      }
    },
    {
      "type": "Feature",
      "properties": { 
      "IBGE:COD_UNICO_ENDERECO": "216994427",
      "addr:housenumber": "103 B",
      "addr:postcode": "48607-240",
      "addr:street": "Rua da Concórdia",
      "addr:suburb": "General Dutra",
      "building": "yes"
      },
      "geometry": {
         "type": "Point",
         "coordinates": [-38.2164543,-9.3922451]
      }
    },
    {
      "type": "Feature",
      "properties": { 
      "IBGE:COD_UNICO_ENDERECO": "27364331",
      "addr:housenumber": "86",
      "addr:postcode": "48605-768",
      "addr:street": "Rua do Sossego",
      "addr:suburb": "General Dutra",
      "building": "yes",
      "fixme": "Verificar coordenadas",
      "note": "Fora da área de projeção da face 0500-0068P-5-1"
      },
      "geometry": {
         "type": "Point",
         "coordinates": [-38.214415,-9.39492]
      }
    },
    {
      "type": "Feature",
      "properties": { 
      "IBGE:COD_UNICO_ENDERECO": "216993862",
      "addr:housenumber": "257",
      "addr:postcode": "48607-240",
      "addr:street": "Rua da Concórdia",
      "addr:suburb": "General Dutra",
      "building": "yes",
      "fixme": "Confirmar nome;Verificar coordenadas",
      "name": "Delizza",
      "note": "Fora da área de projeção da face 0500-0068P-1-3"
      },
      "geometry": {
         "type": "Point",
         "coordinates": [-38.216711,-9.392301]
      }
    },
    {
      "type": "Feature",
      "properties": { 
      "IBGE:COD_UNICO_ENDERECO": "27364309",
      "addr:housenumber": "289",
      "addr:postcode": "48607-210",
      "addr:street": "Rua Engenheiro Marchetti",
      "addr:suburb": "General Dutra",
      "building": "yes",
      "fixme": "Verificar coordenadas",
      "note": "Fora da área de projeção da face 0500-0068P-3-4"
      },
      "geometry": {
         "type": "Point",
         "coordinates": [-38.214428,-9.394935]
      }
    },
    {
      "type": "Feature",
      "properties": { 
      "IBGE:COD_UNICO_ENDERECO": "27421249",
      "addr:housenumber": "152",
      "addr:postcode": "48607-310",
      "addr:street": "Rua Ceará",
      "addr:suburb": "General Dutra",
      "building": "yes"
      },
      "geometry": {
         "type": "Point",
         "coordinates": [-38.2221425,-9.3893738]
      }
    },
    {
      "type": "Feature",
      "properties": { 
      "IBGE:COD_UNICO_ENDERECO": "216994351",
      "addr:housenumber": "185 B",
      "addr:postcode": "48607-060",
      "addr:street": "Rua da Alvorada",
      "addr:suburb": "General Dutra",
      "building": "yes"
      },
      "geometry": {
         "type": "Point",
         "coordinates": [-38.216377,-9.3916075]
      }
    },
    {
      "type": "Feature",
      "properties": { 
      "IBGE:COD_UNICO_ENDERECO": "216994224",
      "addr:housenumber": "173",
      "addr:postcode": "48607-000",
      "addr:street": "Avenida Marcondes Ferraz",
      "addr:suburb": "General Dutra",
      "building": "yes"
      },
      "geometry": {
         "type": "Point",
         "coordinates": [-38.2174154,-9.3899292]
      }
    },
    {
      "type": "Feature",
      "properties": { 
      "IBGE:COD_UNICO_ENDERECO": "216994015",
      "addr:housenumber": "93",
      "addr:postcode": "48607-210",
      "addr:street": "Rua Engenheiro Marchetti",
      "addr:suburb": "General Dutra",
      "building": "yes",
      "fixme": "Verificar coordenadas",
      "note": "Fora da área de projeção da face 0500-0068P-2-2"
      },
      "geometry": {
         "type": "Point",
         "coordinates": [-38.21917,-9.390415]
      }
    },
    {
      "type": "Feature",
      "properties": { 
      "IBGE:COD_UNICO_ENDERECO": "27421179",
      "addr:housenumber": "161",
      "addr:postcode": "48607-510",
      "addr:street": "Rua P",
      "addr:suburb": "General Dutra",
      "building": "yes"
      },
      "geometry": {
         "type": "Point",
         "coordinates": [-38.2249078,-9.3877882]
      }
    },
    {
      "type": "Feature",
      "properties": { 
      "IBGE:COD_UNICO_ENDERECO": "216994405",
      "addr:housenumber": "102 A",
      "addr:postcode": "48607-240",
      "addr:street": "Rua da Concórdia",
      "addr:suburb": "General Dutra",
      "building": "yes"
      },
      "geometry": {
         "type": "Point",
         "coordinates": [-38.2164203,-9.3922435]
      }
    },
    {
      "type": "Feature",
      "properties": { 
      "IBGE:COD_UNICO_ENDERECO": "216994536",
      "addr:housenumber": "18",
      "addr:postcode": "48608-015",
      "addr:street": "Rua Eunápio Peltier de Queirós",
      "addr:suburb": "General Dutra",
      "building": "yes"
      },
      "geometry": {
         "type": "Point",
         "coordinates": [-38.2148289,-9.3943708]
      }
    },
    {
      "type": "Feature",
      "properties": { 
      "IBGE:COD_UNICO_ENDERECO": "216994056",
      "addr:housenumber": "66",
      "addr:postcode": "48607-180",
      "addr:street": "Rua Alberto Rocha",
      "addr:suburb": "General Dutra",
      "building": "yes"
      },
      "geometry": {
         "type": "Point",
         "coordinates": [-38.2198309,-9.3912468]
      }
    },
    {
      "type": "Feature",
      "properties": { 
      "IBGE:COD_UNICO_ENDERECO": "223974339",
      "addr:housenumber": "193",
      "addr:postcode": "48607-325",
      "addr:street": "Travessa Ceará",
      "addr:suburb": "General Dutra",
      "building": "yes"
      },
      "geometry": {
         "type": "Point",
         "coordinates": [-38.2210148,-9.3909322]
      }
    },
    {
      "type": "Feature",
      "properties": { 
      "IBGE:COD_UNICO_ENDERECO": "27364305",
      "addr:housenumber": "212",
      "addr:postcode": "48607-170",
      "addr:street": "Rua da Bondade",
      "addr:suburb": "General Dutra",
      "building": "yes"
      },
      "geometry": {
         "type": "Point",
         "coordinates": [-38.2184066,-9.392036]
      }
    },
    {
      "type": "Feature",
      "properties": { 
      "IBGE:COD_UNICO_ENDERECO": "223974283",
      "addr:housenumber": "45",
      "addr:postcode": "48605-380",
      "addr:street": "Rua Lago Itaparica",
      "addr:suburb": "General Dutra",
      "building": "yes",
      "fixme": "Verificar coordenadas",
      "note": "Sem face no bayface do IBGE 0500-0147P-15-4"
      },
      "geometry": {
         "type": "Point",
         "coordinates": [-38.22494,-9.388332]
      }
    },
    {
      "type": "Feature",
      "properties": { 
      "IBGE:COD_UNICO_ENDERECO": "27421197",
      "addr:housenumber": "27",
      "addr:postcode": "48607-510",
      "addr:street": "Rua P",
      "addr:suburb": "General Dutra",
      "building": "yes"
      },
      "geometry": {
         "type": "Point",
         "coordinates": [-38.2240582,-9.3871624]
      }
    },
    {
      "type": "Feature",
      "properties": { 
      "IBGE:COD_UNICO_ENDERECO": "216994049",
      "addr:housenumber": "44",
      "addr:postcode": "48607-210",
      "addr:street": "Rua Engenheiro Marchetti",
      "addr:suburb": "General Dutra",
      "building": "yes",
      "fixme": "Verificar coordenadas",
      "note": "Muito afastado da face: 59m 0500-0068P-2-2"
      },
      "geometry": {
         "type": "Point",
         "coordinates": [-38.219783,-9.390573]
      }
    },
    {
      "type": "Feature",
      "properties": { 
      "IBGE:COD_UNICO_ENDERECO": "27421204",
      "addr:housenumber": "5 Km",
      "addr:postcode": "48605-530",
      "addr:street": "Rua Bahia",
      "addr:suburb": "General Dutra",
      "building": "yes"
      },
      "geometry": {
         "type": "Point",
         "coordinates": [-38.2233812,-9.3879274]
      }
    },
    {
      "type": "Feature",
      "properties": { 
      "IBGE:COD_UNICO_ENDERECO": "27421219;223974326",
      "addr:housenumber": "292",
      "addr:postcode": "48607-325",
      "addr:street": "Travessa Ceará",
      "addr:suburb": "General Dutra",
      "building": "yes"
      },
      "geometry": {
         "type": "Point",
         "coordinates": [-38.2209764,-9.3912246]
      }
    },
    {
      "type": "Feature",
      "properties": { 
      "IBGE:COD_UNICO_ENDERECO": "27421279",
      "addr:housenumber": "24",
      "addr:postcode": "48607-390",
      "addr:street": "Rua Pernambuco",
      "addr:suburb": "General Dutra",
      "building": "yes"
      },
      "geometry": {
         "type": "Point",
         "coordinates": [-38.2222979,-9.3867093]
      }
    },
    {
      "type": "Feature",
      "properties": { 
      "IBGE:COD_UNICO_ENDERECO": "216993955",
      "addr:housenumber": "553 A",
      "addr:postcode": "48602-700",
      "addr:street": "Avenida da Amizade",
      "addr:suburb": "General Dutra",
      "building": "yes"
      },
      "geometry": {
         "type": "Point",
         "coordinates": [-38.2204729,-9.3906026]
      }
    },
    {
      "type": "Feature",
      "properties": { 
      "IBGE:COD_UNICO_ENDERECO": "27421210",
      "addr:housenumber": "121",
      "addr:postcode": "48607-310",
      "addr:street": "Rua Ceará",
      "addr:suburb": "General Dutra",
      "building": "yes"
      },
      "geometry": {
         "type": "Point",
         "coordinates": [-38.2220202,-9.3894829]
      }
    },
    {
      "type": "Feature",
      "properties": { 
      "IBGE:COD_UNICO_ENDERECO": "27364318",
      "addr:housenumber": "261",
      "addr:postcode": "48607-210",
      "addr:street": "Rua Engenheiro Marchetti",
      "addr:suburb": "General Dutra",
      "addr:unit": "13 Fundos",
      "building": "yes",
      "fixme": "Verificar coordenadas",
      "note": "Fora da área de projeção da face 0500-0068P-3-4"
      },
      "geometry": {
         "type": "Point",
         "coordinates": [-38.21439,-9.394957]
      }
    },
    {
      "type": "Feature",
      "properties": { 
      "IBGE:COD_UNICO_ENDERECO": "216994163",
      "addr:housenumber": "44",
      "addr:postcode": "48607-210",
      "addr:street": "Rua Engenheiro Marchetti",
      "addr:suburb": "General Dutra",
      "building": "yes",
      "fixme": "Verificar coordenadas",
      "note": "Muito afastado da face: 64m 0500-0068P-3-4"
      },
      "geometry": {
         "type": "Point",
         "coordinates": [-38.219763,-9.390642]
      }
    },
    {
      "type": "Feature",
      "properties": { 
      "IBGE:COD_UNICO_ENDERECO": "27421230",
      "addr:housenumber": "649 C",
      "addr:postcode": "48602-700",
      "addr:street": "Avenida da Amizade",
      "addr:suburb": "General Dutra",
      "building": "yes"
      },
      "geometry": {
         "type": "Point",
         "coordinates": [-38.2207347,-9.3897302]
      }
    },
    {
      "type": "Feature",
      "properties": { 
      "IBGE:COD_UNICO_ENDERECO": "27421198",
      "addr:housenumber": "79",
      "addr:postcode": "48607-510",
      "addr:street": "Rua P",
      "addr:suburb": "General Dutra",
      "building": "yes"
      },
      "geometry": {
         "type": "Point",
         "coordinates": [-38.2244537,-9.3874236]
      }
    },
    {
      "type": "Feature",
      "properties": { 
      "IBGE:COD_UNICO_ENDERECO": "27421257",
      "addr:housenumber": "98",
      "addr:postcode": "48607-335",
      "addr:street": "Rua Rio Grande do Norte",
      "addr:suburb": "General Dutra",
      "building": "yes"
      },
      "geometry": {
         "type": "Point",
         "coordinates": [-38.2221024,-9.3884008]
      }
    },
    {
      "type": "Feature",
      "properties": { 
      "IBGE:COD_UNICO_ENDERECO": "27421261",
      "addr:housenumber": "153",
      "addr:postcode": "48607-390",
      "addr:street": "Rua Pernambuco",
      "addr:suburb": "General Dutra",
      "building": "yes"
      },
      "geometry": {
         "type": "Point",
         "coordinates": [-38.2232437,-9.3874233]
      }
    },
    {
      "type": "Feature",
      "properties": { 
      "IBGE:COD_UNICO_ENDERECO": "27421226",
      "addr:housenumber": "2",
      "addr:postcode": "48602-700",
      "addr:street": "Avenida da Amizade",
      "addr:suburb": "General Dutra",
      "building": "yes"
      },
      "geometry": {
         "type": "Point",
         "coordinates": [-38.2206276,-9.3913213]
      }
    },
    {
      "type": "Feature",
      "properties": { 
      "IBGE:COD_UNICO_ENDERECO": "27421280;27421283",
      "addr:housenumber": "56",
      "addr:postcode": "48607-390",
      "addr:street": "Rua Pernambuco",
      "addr:suburb": "General Dutra",
      "building": "yes"
      },
      "geometry": {
         "type": "Point",
         "coordinates": [-38.2225484,-9.3868307]
      }
    },
    {
      "type": "Feature",
      "properties": { 
      "IBGE:COD_UNICO_ENDERECO": "27421285",
      "addr:housenumber": "140",
      "addr:postcode": "48607-390",
      "addr:street": "Rua Pernambuco",
      "addr:suburb": "General Dutra",
      "amenity": "events_venue",
      "building": "yes",
      "name": "Espaço para Festas"
      },
      "geometry": {
         "type": "Point",
         "coordinates": [-38.2232828,-9.3872588]
      }
    },
    {
      "type": "Feature",
      "properties": { 
      "IBGE:COD_UNICO_ENDERECO": "216993851",
      "addr:housenumber": "325",
      "addr:postcode": "48607-240",
      "addr:street": "Rua da Concórdia",
      "addr:suburb": "General Dutra",
      "building": "yes",
      "fixme": "Verificar coordenadas",
      "note": "Fora da área de projeção da face 0500-0068P-1-3"
      },
      "geometry": {
         "type": "Point",
         "coordinates": [-38.217415,-9.39231]
      }
    },
    {
      "type": "Feature",
      "properties": { 
      "IBGE:COD_UNICO_ENDERECO": "27421264",
      "addr:housenumber": "57",
      "addr:postcode": "48607-390",
      "addr:street": "Rua Pernambuco",
      "addr:suburb": "General Dutra",
      "building": "yes"
      },
      "geometry": {
         "type": "Point",
         "coordinates": [-38.2225646,-9.3870197]
      }
    },
    {
      "type": "Feature",
      "properties": { 
      "IBGE:COD_UNICO_ENDERECO": "27421192",
      "addr:housenumber": "37",
      "addr:postcode": "48607-510",
      "addr:street": "Rua P",
      "addr:suburb": "General Dutra",
      "building": "yes"
      },
      "geometry": {
         "type": "Point",
         "coordinates": [-38.2243471,-9.3873532]
      }
    },
    {
      "type": "Feature",
      "properties": { 
      "IBGE:COD_UNICO_ENDERECO": "27421284",
      "addr:housenumber": "136",
      "addr:postcode": "48607-390",
      "addr:street": "Rua Pernambuco",
      "addr:suburb": "General Dutra",
      "building": "yes"
      },
      "geometry": {
         "type": "Point",
         "coordinates": [-38.223122,-9.3871668]
      }
    },
    {
      "type": "Feature",
      "properties": { 
      "IBGE:COD_UNICO_ENDERECO": "223974335",
      "addr:housenumber": "403",
      "addr:postcode": "48602-700",
      "addr:street": "Avenida da Amizade",
      "addr:suburb": "General Dutra",
      "building": "yes"
      },
      "geometry": {
         "type": "Point",
         "coordinates": [-38.2206022,-9.3918347]
      }
    },
    {
      "type": "Feature",
      "properties": { 
      "IBGE:COD_UNICO_ENDERECO": "216993935",
      "addr:housenumber": "54",
      "addr:postcode": "48607-240",
      "addr:street": "Rua da Concórdia",
      "addr:suburb": "General Dutra",
      "building": "yes"
      },
      "geometry": {
         "type": "Point",
         "coordinates": [-38.2200079,-9.3925173]
      }
    },
    {
      "type": "Feature",
      "properties": { 
      "IBGE:COD_UNICO_ENDERECO": "27421259",
      "addr:housenumber": "150",
      "addr:postcode": "48607-335",
      "addr:street": "Rua Rio Grande do Norte",
      "addr:suburb": "General Dutra",
      "building": "yes"
      },
      "geometry": {
         "type": "Point",
         "coordinates": [-38.2224989,-9.3886347]
      }
    },
    {
      "type": "Feature",
      "properties": { 
      "IBGE:COD_UNICO_ENDERECO": "27421282",
      "addr:housenumber": "96",
      "addr:postcode": "48607-390",
      "addr:street": "Rua Pernambuco",
      "addr:suburb": "General Dutra",
      "building": "yes"
      },
      "geometry": {
         "type": "Point",
         "coordinates": [-38.2228385,-9.3870034]
      }
    },
    {
      "type": "Feature",
      "properties": { 
      "IBGE:COD_UNICO_ENDERECO": "216994450",
      "addr:housenumber": "341",
      "addr:postcode": "48607-000",
      "addr:street": "Avenida Marcondes Ferraz",
      "addr:suburb": "General Dutra",
      "building": "yes"
      },
      "geometry": {
         "type": "Point",
         "coordinates": [-38.2160298,-9.3898846]
      }
    },
    {
      "type": "Feature",
      "properties": { 
      "IBGE:COD_UNICO_ENDERECO": "27421241",
      "addr:housenumber": "121",
      "addr:postcode": "48607-335",
      "addr:street": "Rua Rio Grande do Norte",
      "addr:suburb": "General Dutra",
      "building": "yes"
      },
      "geometry": {
         "type": "Point",
         "coordinates": [-38.222265,-9.3886749]
      }
    },
    {
      "type": "Feature",
      "properties": { 
      "IBGE:COD_UNICO_ENDERECO": "27421242",
      "addr:housenumber": "91",
      "addr:postcode": "48607-335",
      "addr:street": "Rua Rio Grande do Norte",
      "addr:suburb": "General Dutra",
      "addr:unit": "Casa",
      "building": "yes"
      },
      "geometry": {
         "type": "Point",
         "coordinates": [-38.2220733,-9.3885626]
      }
    },
    {
      "type": "Feature",
      "properties": { 
      "IBGE:COD_UNICO_ENDERECO": "27364353",
      "addr:housenumber": "479",
      "addr:postcode": "48607-240",
      "addr:street": "Rua da Concórdia",
      "addr:suburb": "General Dutra",
      "building": "yes",
      "fixme": "Verificar coordenadas",
      "note": "Fora da área de projeção da face 0500-0068P-7-3"
      },
      "geometry": {
         "type": "Point",
         "coordinates": [-38.214418,-9.394938]
      }
    },
    {
      "type": "Feature",
      "properties": { 
      "IBGE:COD_UNICO_ENDERECO": "216993963",
      "addr:housenumber": "434",
      "addr:postcode": "48602-700",
      "addr:street": "Avenida da Amizade",
      "addr:suburb": "General Dutra",
      "building": "yes"
      },
      "geometry": {
         "type": "Point",
         "coordinates": [-38.220426,-9.391626]
      }
    },
    {
      "type": "Feature",
      "properties": { 
      "IBGE:COD_UNICO_ENDERECO": "27364362",
      "addr:housenumber": "263",
      "addr:postcode": "48607-060",
      "addr:street": "Rua da Alvorada",
      "addr:suburb": "General Dutra",
      "building": "yes",
      "fixme": "Verificar coordenadas",
      "note": "Fora da área de projeção da face 0500-0068P-8-3"
      },
      "geometry": {
         "type": "Point",
         "coordinates": [-38.214466,-9.394929]
      }
    },
    {
      "type": "Feature",
      "properties": { 
      "IBGE:COD_UNICO_ENDERECO": "27364308",
      "addr:housenumber": "171",
      "addr:postcode": "48607-240",
      "addr:street": "Rua da Concórdia",
      "addr:suburb": "General Dutra",
      "building": "yes",
      "fixme": "Verificar coordenadas",
      "note": "Fora da área de projeção da face 0500-0068P-3-3"
      },
      "geometry": {
         "type": "Point",
         "coordinates": [-38.214432,-9.394943]
      }
    },
    {
      "type": "Feature",
      "properties": { 
      "IBGE:COD_UNICO_ENDERECO": "27364340",
      "addr:housenumber": "325",
      "addr:postcode": "48607-240",
      "addr:street": "Rua da Concórdia",
      "addr:suburb": "General Dutra",
      "building": "yes",
      "fixme": "Verificar coordenadas",
      "note": "Fora da área de projeção da face 0500-0068P-6-3"
      },
      "geometry": {
         "type": "Point",
         "coordinates": [-38.21443,-9.394971]
      }
    },
    {
      "type": "Feature",
      "properties": { 
      "IBGE:COD_UNICO_ENDERECO": "27364323",
      "addr:housenumber": "220",
      "addr:postcode": "48607-000",
      "addr:street": "Avenida Marcondes Ferraz",
      "addr:suburb": "General Dutra",
      "building": "yes"
      },
      "geometry": {
         "type": "Point",
         "coordinates": [-38.2170525,-9.3899125]
      }
    },
    {
      "type": "Feature",
      "properties": { 
      "IBGE:COD_UNICO_ENDERECO": "27421262",
      "addr:housenumber": "127",
      "addr:postcode": "48607-390",
      "addr:street": "Rua Pernambuco",
      "addr:suburb": "General Dutra",
      "building": "yes"
      },
      "geometry": {
         "type": "Point",
         "coordinates": [-38.2230236,-9.3872925]
      }
    },
    {
      "type": "Feature",
      "properties": { 
      "IBGE:COD_UNICO_ENDERECO": "27421258",
      "addr:housenumber": "124",
      "addr:postcode": "48607-335",
      "addr:street": "Rua Rio Grande do Norte",
      "addr:suburb": "General Dutra",
      "building": "yes"
      },
      "geometry": {
         "type": "Point",
         "coordinates": [-38.2223406,-9.3885393]
      }
    },
    {
      "type": "Feature",
      "properties": { 
      "IBGE:COD_UNICO_ENDERECO": "216994359",
      "addr:housenumber": "83",
      "addr:postcode": "48607-060",
      "addr:street": "Rua da Alvorada",
      "addr:suburb": "General Dutra",
      "building": "yes",
      "fixme": "Verificar coordenadas",
      "note": "Fora da área de projeção da face 0500-0068P-7-1"
      },
      "geometry": {
         "type": "Point",
         "coordinates": [-38.217454,-9.391481]
      }
    },
    {
      "type": "Feature",
      "properties": { 
      "IBGE:COD_UNICO_ENDERECO": "27364363",
      "addr:housenumber": "239",
      "addr:postcode": "48607-060",
      "addr:street": "Rua da Alvorada",
      "addr:suburb": "General Dutra",
      "building": "yes"
      },
      "geometry": {
         "type": "Point",
         "coordinates": [-38.2159807,-9.3914021]
      }
    },
    {
      "type": "Feature",
      "properties": { 
      "IBGE:COD_UNICO_ENDERECO": "216993869",
      "addr:housenumber": "209",
      "addr:postcode": "48607-240",
      "addr:street": "Rua da Concórdia",
      "addr:suburb": "General Dutra",
      "building": "yes",
      "fixme": "Verificar coordenadas",
      "note": "Fora da área de projeção da face 0500-0068P-1-3"
      },
      "geometry": {
         "type": "Point",
         "coordinates": [-38.218512,-9.392398]
      }
    },
    {
      "type": "Feature",
      "properties": { 
      "IBGE:COD_UNICO_ENDERECO": "27364330",
      "addr:housenumber": "88",
      "addr:postcode": "48605-768",
      "addr:street": "Rua do Sossego",
      "addr:suburb": "General Dutra",
      "building": "construction",
      "fixme": "Verificar coordenadas",
      "note": "Fora da área de projeção da face 0500-0068P-5-1"
      },
      "geometry": {
         "type": "Point",
         "coordinates": [-38.214396,-9.395562]
      }
    },
    {
      "type": "Feature",
      "properties": { 
      "IBGE:COD_UNICO_ENDERECO": "216994546",
      "addr:housenumber": "21",
      "addr:postcode": "48608-015",
      "addr:street": "Rua Eunápio Peltier de Queirós",
      "addr:suburb": "General Dutra",
      "building": "yes",
      "fixme": "Verificar coordenadas",
      "note": "Fora da área de projeção da face 0500-0068P-11-2"
      },
      "geometry": {
         "type": "Point",
         "coordinates": [-38.214966,-9.393996]
      }
    },
    {
      "type": "Feature",
      "properties": { 
      "IBGE:COD_UNICO_ENDERECO": "27421218",
      "addr:housenumber": "286",
      "addr:postcode": "48607-325",
      "addr:street": "Travessa Ceará",
      "addr:suburb": "General Dutra",
      "building": "yes"
      },
      "geometry": {
         "type": "Point",
         "coordinates": [-38.2211561,-9.3910119]
      }
    },
    {
      "type": "Feature",
      "properties": { 
      "IBGE:COD_UNICO_ENDERECO": "223974369",
      "addr:housenumber": "659",
      "addr:postcode": "48602-700",
      "addr:street": "Avenida da Amizade",
      "addr:suburb": "General Dutra",
      "building": "construction"
      },
      "geometry": {
         "type": "Point",
         "coordinates": [-38.2207489,-9.3895275]
      }
    },
    {
      "type": "Feature",
      "properties": { 
      "IBGE:COD_UNICO_ENDERECO": "223974447",
      "addr:housenumber": "43",
      "addr:postcode": "48605-330",
      "addr:street": "Rua Lago Paranoá",
      "addr:suburb": "General Dutra",
      "building": "yes",
      "fixme": "Verificar coordenadas",
      "note": "Sem face no bayface do IBGE 0500-0147P-22-2"
      },
      "geometry": {
         "type": "Point",
         "coordinates": [-38.22565,-9.387763]
      }
    },
    {
      "type": "Feature",
      "properties": { 
      "IBGE:COD_UNICO_ENDERECO": "216994111",
      "addr:housenumber": "72",
      "addr:postcode": "48607-170",
      "addr:street": "Rua da Bondade",
      "addr:suburb": "General Dutra",
      "building": "yes"
      },
      "geometry": {
         "type": "Point",
         "coordinates": [-38.2184696,-9.3905367]
      }
    },
    {
      "type": "Feature",
      "properties": { 
      "IBGE:COD_UNICO_ENDERECO": "216994229;216994255",
      "addr:housenumber": "311",
      "addr:postcode": "48607-000",
      "addr:street": "Avenida Marcondes Ferraz",
      "addr:suburb": "General Dutra",
      "building": "yes",
      "fixme": "Verificar coordenadas",
      "note": "Fora da área de projeção da face 0500-0068P-4-1"
      },
      "geometry": {
         "type": "Point",
         "coordinates": [-38.2163005,-9.3898085]
      }
    },
    {
      "type": "Feature",
      "properties": { 
      "IBGE:COD_UNICO_ENDERECO": "27364293",
      "addr:housenumber": "125",
      "addr:postcode": "48607-180",
      "addr:street": "Rua Alberto Rocha",
      "addr:suburb": "General Dutra",
      "building": "yes"
      },
      "geometry": {
         "type": "Point",
         "coordinates": [-38.219801,-9.3917577]
      }
    },
    {
      "type": "Feature",
      "properties": { 
      "IBGE:COD_UNICO_ENDERECO": "27364325",
      "addr:housenumber": "87",
      "addr:postcode": "48605-768",
      "addr:street": "Rua do Sossego",
      "addr:suburb": "General Dutra",
      "building": "yes"
      },
      "geometry": {
         "type": "Point",
         "coordinates": [-38.2173636,-9.3907285]
      }
    },
    {
      "type": "Feature",
      "properties": { 
      "IBGE:COD_UNICO_ENDERECO": "27421221",
      "addr:housenumber": "453",
      "addr:postcode": "48602-700",
      "addr:street": "Avenida da Amizade",
      "addr:suburb": "General Dutra",
      "building": "yes"
      },
      "geometry": {
         "type": "Point",
         "coordinates": [-38.2206228,-9.3914196]
      }
    },
    {
      "type": "Feature",
      "properties": { 
      "IBGE:COD_UNICO_ENDERECO": "27421256",
      "addr:housenumber": "97",
      "addr:postcode": "48607-360",
      "addr:street": "Rua Paraíba",
      "addr:suburb": "General Dutra",
      "building": "yes"
      },
      "geometry": {
         "type": "Point",
         "coordinates": [-38.2224856,-9.3878578]
      }
    },
    {
      "type": "Feature",
      "properties": { 
      "IBGE:COD_UNICO_ENDERECO": "27421233",
      "addr:housenumber": "603",
      "addr:postcode": "48602-700",
      "addr:street": "Avenida da Amizade",
      "addr:suburb": "General Dutra",
      "building": "yes"
      },
      "geometry": {
         "type": "Point",
         "coordinates": [-38.2207175,-9.3899764]
      }
    },
    {
      "type": "Feature",
      "properties": { 
      "IBGE:COD_UNICO_ENDERECO": "27421238",
      "addr:housenumber": "553 A",
      "addr:postcode": "48602-700",
      "addr:street": "Avenida da Amizade",
      "addr:suburb": "General Dutra",
      "addr:unit": "Fundos",
      "building": "yes"
      },
      "geometry": {
         "type": "Point",
         "coordinates": [-38.2207289,-9.390597]
      }
    },
    {
      "type": "Feature",
      "properties": { 
      "IBGE:COD_UNICO_ENDERECO": "27364332",
      "addr:housenumber": "4",
      "addr:postcode": "48605-768",
      "addr:street": "Rua do Sossego",
      "addr:suburb": "General Dutra",
      "building": "construction",
      "fixme": "Verificar coordenadas",
      "note": "Fora da área de projeção da face 0500-0068P-5-1"
      },
      "geometry": {
         "type": "Point",
         "coordinates": [-38.214395955833,-9.3955621616562]
      }
    },
    {
      "type": "Feature",
      "properties": { 
      "IBGE:COD_UNICO_ENDERECO": "27364311",
      "addr:housenumber": "237",
      "addr:postcode": "48607-210",
      "addr:street": "Rua Engenheiro Marchetti",
      "addr:suburb": "General Dutra",
      "building": "yes"
      },
      "geometry": {
         "type": "Point",
         "coordinates": [-38.2191084,-9.3914995]
      }
    },
    {
      "type": "Feature",
      "properties": { 
      "IBGE:COD_UNICO_ENDERECO": "27421229",
      "addr:housenumber": "699",
      "addr:postcode": "48602-700",
      "addr:street": "Avenida da Amizade",
      "addr:suburb": "General Dutra",
      "building": "yes"
      },
      "geometry": {
         "type": "Point",
         "coordinates": [-38.2207369,-9.3890632]
      }
    },
    {
      "type": "Feature",
      "properties": { 
      "IBGE:COD_UNICO_ENDERECO": "27364368",
      "addr:housenumber": "160",
      "addr:postcode": "48608-025",
      "addr:street": "Avenida dos Aflitos",
      "addr:suburb": "General Dutra",
      "building": "yes"
      },
      "geometry": {
         "type": "Point",
         "coordinates": [-38.2136632,-9.3952697]
      }
    },
    {
      "type": "Feature",
      "properties": { 
      "IBGE:COD_UNICO_ENDERECO": "27421224",
      "addr:housenumber": "69",
      "addr:postcode": "48607-325",
      "addr:street": "Travessa Ceará",
      "addr:suburb": "General Dutra",
      "building": "yes"
      },
      "geometry": {
         "type": "Point",
         "coordinates": [-38.2212756,-9.3894567]
      }
    },
    {
      "type": "Feature",
      "properties": { 
      "IBGE:COD_UNICO_ENDERECO": "27421227",
      "addr:housenumber": "669",
      "addr:postcode": "48602-700",
      "addr:street": "Avenida da Amizade",
      "addr:suburb": "General Dutra",
      "building": "yes"
      },
      "geometry": {
         "type": "Point",
         "coordinates": [-38.2207541,-9.3894532]
      }
    },
    {
      "type": "Feature",
      "properties": { 
      "IBGE:COD_UNICO_ENDERECO": "27421237",
      "addr:housenumber": "513",
      "addr:postcode": "48602-700",
      "addr:street": "Avenida da Amizade",
      "addr:suburb": "General Dutra",
      "amenity": "school",
      "building": "yes",
      "fixme": "Confirmar nome",
      "name": "Escola Carrossel"
      },
      "geometry": {
         "type": "Point",
         "coordinates": [-38.2206542,-9.3908812]
      }
    },
    {
      "type": "Feature",
      "properties": { 
      "IBGE:COD_UNICO_ENDERECO": "27421222",
      "addr:housenumber": "433",
      "addr:postcode": "48602-700",
      "addr:street": "Avenida da Amizade",
      "addr:suburb": "General Dutra",
      "building": "yes"
      },
      "geometry": {
         "type": "Point",
         "coordinates": [-38.2206157,-9.3915613]
      }
    },
    {
      "type": "Feature",
      "properties": { 
      "IBGE:COD_UNICO_ENDERECO": "223974435",
      "addr:housenumber": "69",
      "addr:postcode": "48605-330",
      "addr:street": "Rua Lago Paranoá",
      "addr:suburb": "General Dutra",
      "building": "yes",
      "fixme": "Verificar coordenadas",
      "note": "Sem face no bayface do IBGE 0500-0147P-22-2"
      },
      "geometry": {
         "type": "Point",
         "coordinates": [-38.225599,-9.387978]
      }
    },
    {
      "type": "Feature",
      "properties": { 
      "IBGE:COD_UNICO_ENDERECO": "27421255",
      "addr:housenumber": "127",
      "addr:postcode": "48607-360",
      "addr:street": "Rua Paraíba",
      "addr:suburb": "General Dutra",
      "building": "yes"
      },
      "geometry": {
         "type": "Point",
         "coordinates": [-38.2226956,-9.3879854]
      }
    },
    {
      "type": "Feature",
      "properties": { 
      "IBGE:COD_UNICO_ENDERECO": "27421273",
      "addr:housenumber": "137",
      "addr:postcode": "48607-330",
      "addr:street": "Rua Alagoas",
      "addr:suburb": "General Dutra",
      "building": "yes"
      },
      "geometry": {
         "type": "Point",
         "coordinates": [-38.223307,-9.3867261]
      }
    },
    {
      "type": "Feature",
      "properties": { 
      "IBGE:COD_UNICO_ENDERECO": "216993943",
      "addr:housenumber": "433",
      "addr:postcode": "48602-700",
      "addr:street": "Avenida da Amizade",
      "addr:suburb": "General Dutra",
      "building": "yes"
      },
      "geometry": {
         "type": "Point",
         "coordinates": [-38.2204323,-9.391516]
      }
    },
    {
      "type": "Feature",
      "properties": { 
      "IBGE:COD_UNICO_ENDERECO": "27421231",
      "addr:housenumber": "649 B",
      "addr:postcode": "48602-700",
      "addr:street": "Avenida da Amizade",
      "addr:suburb": "General Dutra",
      "building": "yes"
      },
      "geometry": {
         "type": "Point",
         "coordinates": [-38.2207324,-9.3897633]
      }
    },
    {
      "type": "Feature",
      "properties": { 
      "IBGE:COD_UNICO_ENDERECO": "27364297",
      "addr:housenumber": "26",
      "addr:postcode": "48607-170",
      "addr:street": "Rua da Bondade",
      "addr:suburb": "General Dutra",
      "building": "yes"
      },
      "geometry": {
         "type": "Point",
         "coordinates": [-38.2184794,-9.3902011]
      }
    },
    {
      "type": "Feature",
      "properties": { 
      "IBGE:COD_UNICO_ENDERECO": "223974337",
      "addr:housenumber": "395",
      "addr:postcode": "48602-700",
      "addr:street": "Avenida da Amizade",
      "addr:suburb": "General Dutra",
      "building": "yes"
      },
      "geometry": {
         "type": "Point",
         "coordinates": [-38.2205963,-9.391954]
      }
    },
    {
      "type": "Feature",
      "properties": { 
      "IBGE:COD_UNICO_ENDERECO": "223974443",
      "addr:housenumber": "81",
      "addr:postcode": "48605-330",
      "addr:street": "Rua Lago Paranoá",
      "addr:suburb": "General Dutra",
      "addr:unit": "Casa",
      "building": "yes",
      "fixme": "Verificar coordenadas",
      "note": "Sem face no bayface do IBGE 0500-0147P-22-2"
      },
      "geometry": {
         "type": "Point",
         "coordinates": [-38.225569,-9.388188]
      }
    },
    {
      "type": "Feature",
      "properties": { 
      "IBGE:COD_UNICO_ENDERECO": "27421265",
      "addr:housenumber": "23",
      "addr:postcode": "48607-390",
      "addr:street": "Rua Pernambuco",
      "addr:suburb": "General Dutra",
      "building": "yes"
      },
      "geometry": {
         "type": "Point",
         "coordinates": [-38.2222567,-9.3868213]
      }
    },
    {
      "type": "Feature",
      "properties": { 
      "IBGE:COD_UNICO_ENDERECO": "216994365",
      "addr:housenumber": "325",
      "addr:postcode": "48607-060",
      "addr:street": "Rua da Alvorada",
      "addr:suburb": "General Dutra",
      "building": "yes"
      },
      "geometry": {
         "type": "Point",
         "coordinates": [-38.2152349,-9.3915236]
      }
    },
    {
      "type": "Feature",
      "properties": { 
      "IBGE:COD_UNICO_ENDERECO": "27364367",
      "addr:housenumber": "150",
      "addr:postcode": "48608-025",
      "addr:street": "Avenida dos Aflitos",
      "addr:suburb": "General Dutra",
      "building": "yes"
      },
      "geometry": {
         "type": "Point",
         "coordinates": [-38.2136612,-9.3952727]
      }
    },
    {
      "type": "Feature",
      "properties": { 
      "IBGE:COD_UNICO_ENDERECO": "216994129",
      "addr:housenumber": "258",
      "addr:postcode": "48607-210",
      "addr:street": "Rua Engenheiro Marchetti",
      "addr:suburb": "General Dutra",
      "building": "yes",
      "fixme": "Verificar coordenadas",
      "note": "Fora da área de projeção da face 0500-0068P-3-4"
      },
      "geometry": {
         "type": "Point",
         "coordinates": [-38.214418299707,-9.3949045613881]
      }
    },
    {
      "type": "Feature",
      "properties": { 
      "IBGE:COD_UNICO_ENDERECO": "27364366",
      "addr:housenumber": "140",
      "addr:postcode": "48608-025",
      "addr:street": "Avenida dos Aflitos",
      "addr:suburb": "General Dutra",
      "building": "yes"
      },
      "geometry": {
         "type": "Point",
         "coordinates": [-38.213509,-9.3955519]
      }
    },
    {
      "type": "Feature",
      "properties": { 
      "IBGE:COD_UNICO_ENDERECO": "216993886",
      "addr:housenumber": "509",
      "addr:postcode": "48607-240",
      "addr:street": "Rua da Concórdia",
      "addr:suburb": "General Dutra",
      "building": "yes",
      "fixme": "Verificar coordenadas",
      "note": "Fora da área de projeção da face 0500-0068P-1-3"
      },
      "geometry": {
         "type": "Point",
         "coordinates": [-38.21574074598,-9.3922889000032]
      }
    },
    {
      "type": "Feature",
      "properties": { 
      "IBGE:COD_UNICO_ENDERECO": "216994468",
      "addr:housenumber": "14",
      "addr:postcode": "48608-025",
      "addr:street": "Avenida dos Aflitos",
      "addr:suburb": "General Dutra",
      "building": "warehouse",
      "description": "CNEFE 2022 Depósito da Gard"
      },
      "geometry": {
         "type": "Point",
         "coordinates": [-38.2136374,-9.3953101]
      }
    },
    {
      "type": "Feature",
      "properties": { 
      "IBGE:COD_UNICO_ENDERECO": "223974307",
      "addr:housenumber": "30",
      "addr:postcode": "48605-530",
      "addr:street": "Rua Bahia",
      "addr:suburb": "General Dutra",
      "association": "lawyer",
      "building": "yes",
      "name": "OAB Ordem dos Advogados",
      "office": "association"
      },
      "geometry": {
         "type": "Point",
         "coordinates": [-38.221568,-9.3911693]
      }
    },
    {
      "type": "Feature",
      "properties": { 
      "IBGE:COD_UNICO_ENDERECO": "27421184",
      "addr:housenumber": "121",
      "addr:postcode": "48607-510",
      "addr:street": "Rua P",
      "addr:suburb": "General Dutra",
      "building": "yes"
      },
      "geometry": {
         "type": "Point",
         "coordinates": [-38.2246715,-9.3875675]
      }
    },
    {
      "type": "Feature",
      "properties": { 
      "IBGE:COD_UNICO_ENDERECO": "27421201",
      "addr:housenumber": "46",
      "addr:postcode": "48605-530",
      "addr:street": "Rua Bahia",
      "addr:suburb": "General Dutra",
      "building": "yes"
      },
      "geometry": {
         "type": "Point",
         "coordinates": [-38.2234227,-9.3878337]
      }
    },
    {
      "type": "Feature",
      "properties": { 
      "IBGE:COD_UNICO_ENDERECO": "27421217",
      "addr:housenumber": "110",
      "addr:postcode": "48607-325",
      "addr:street": "Travessa Ceará",
      "addr:suburb": "General Dutra",
      "building": "yes"
      },
      "geometry": {
         "type": "Point",
         "coordinates": [-38.2213181,-9.3899822]
      }
    },
    {
      "type": "Feature",
      "properties": { 
      "IBGE:COD_UNICO_ENDERECO": "223974295",
      "addr:housenumber": "513",
      "addr:postcode": "48605-530",
      "addr:street": "Rua Bahia",
      "addr:suburb": "General Dutra",
      "building": "yes"
      },
      "geometry": {
         "type": "Point",
         "coordinates": [-38.2238392,-9.3870273]
      }
    },
    {
      "type": "Feature",
      "properties": { 
      "IBGE:COD_UNICO_ENDERECO": "27421266",
      "addr:housenumber": "24",
      "addr:postcode": "48607-360",
      "addr:street": "Rua Paraíba",
      "addr:suburb": "General Dutra",
      "building": "yes"
      },
      "geometry": {
         "type": "Point",
         "coordinates": [-38.2219136,-9.3873584]
      }
    },
    {
      "type": "Feature",
      "properties": { 
      "IBGE:COD_UNICO_ENDERECO": "27421236",
      "addr:housenumber": "533",
      "addr:postcode": "48602-700",
      "addr:street": "Avenida da Amizade",
      "addr:suburb": "General Dutra",
      "building": "yes"
      },
      "geometry": {
         "type": "Point",
         "coordinates": [-38.2206688,-9.3906729]
      }
    },
    {
      "type": "Feature",
      "properties": { 
      "IBGE:COD_UNICO_ENDERECO": "216993932",
      "addr:housenumber": "38",
      "addr:postcode": "48607-240",
      "addr:street": "Rua da Concórdia",
      "addr:suburb": "General Dutra",
      "building": "yes"
      },
      "geometry": {
         "type": "Point",
         "coordinates": [-38.2201066,-9.3925242]
      }
    },
    {
      "type": "Feature",
      "properties": { 
      "IBGE:COD_UNICO_ENDERECO": "27421269",
      "addr:housenumber": "96",
      "addr:postcode": "48607-360",
      "addr:street": "Rua Paraíba",
      "addr:suburb": "General Dutra",
      "building": "yes"
      },
      "geometry": {
         "type": "Point",
         "coordinates": [-38.2225069,-9.3877163]
      }
    },
    {
      "type": "Feature",
      "properties": { 
      "IBGE:COD_UNICO_ENDERECO": "216994093",
      "addr:housenumber": "101",
      "addr:postcode": "48607-180",
      "addr:street": "Rua Alberto Rocha",
      "addr:suburb": "General Dutra",
      "building": "yes",
      "fixme": "Verificar coordenadas",
      "note": "Fora da área de projeção da face 0500-0068P-2-4"
      },
      "geometry": {
         "type": "Point",
         "coordinates": [-38.214418,-9.395578]
      }
    },
    {
      "type": "Feature",
      "properties": { 
      "IBGE:COD_UNICO_ENDERECO": "216994530",
      "addr:housenumber": "17",
      "addr:postcode": "48608-015",
      "addr:street": "Rua Eunápio Peltier de Queirós",
      "addr:suburb": "General Dutra",
      "building": "yes"
      },
      "geometry": {
         "type": "Point",
         "coordinates": [-38.2148433,-9.3943525]
      }
    },
    {
      "type": "Feature",
      "properties": { 
      "IBGE:COD_UNICO_ENDERECO": "27364319",
      "addr:housenumber": "100",
      "addr:postcode": "48607-000",
      "addr:street": "Avenida Marcondes Ferraz",
      "addr:suburb": "General Dutra",
      "building": "yes"
      },
      "geometry": {
         "type": "Point",
         "coordinates": [-38.2181847,-9.3899574]
      }
    },
    {
      "type": "Feature",
      "properties": { 
      "IBGE:COD_UNICO_ENDERECO": "223974305",
      "addr:housenumber": "5",
      "addr:postcode": "48605-530",
      "addr:street": "Rua Bahia",
      "addr:suburb": "General Dutra",
      "addr:unit": "Prédio",
      "amenity": "police",
      "building": "yes",
      "name": "Deam Delegacia da Mulher"
      },
      "geometry": {
         "type": "Point",
         "coordinates": [-38.2208807,-9.3920392]
      }
    },
    {
      "type": "Feature",
      "properties": { 
      "IBGE:COD_UNICO_ENDERECO": "216993877",
      "addr:housenumber": "111",
      "addr:postcode": "48607-240",
      "addr:street": "Rua da Concórdia",
      "addr:suburb": "General Dutra",
      "building": "yes",
      "fixme": "Verificar coordenadas",
      "note": "Fora da área de projeção da face 0500-0068P-1-3"
      },
      "geometry": {
         "type": "Point",
         "coordinates": [-38.219406,-9.392458]
      }
    },
    {
      "type": "Feature",
      "properties": { 
      "IBGE:COD_UNICO_ENDERECO": "27421278",
      "addr:housenumber": "23",
      "addr:postcode": "48607-330",
      "addr:street": "Rua Alagoas",
      "addr:suburb": "General Dutra",
      "building": "yes"
      },
      "geometry": {
         "type": "Point",
         "coordinates": [-38.2225808,-9.3863045]
      }
    },
    {
      "type": "Feature",
      "properties": { 
      "IBGE:COD_UNICO_ENDERECO": "27364321",
      "addr:housenumber": "160",
      "addr:postcode": "48607-000",
      "addr:street": "Avenida Marcondes Ferraz",
      "addr:suburb": "General Dutra",
      "building": "yes"
      },
      "geometry": {
         "type": "Point",
         "coordinates": [-38.2175439,-9.3899327]
      }
    },
    {
      "type": "Feature",
      "properties": { 
      "IBGE:COD_UNICO_ENDERECO": "27364349",
      "addr:housenumber": "555",
      "addr:postcode": "48607-240",
      "addr:street": "Rua da Concórdia",
      "addr:suburb": "General Dutra",
      "building": "yes",
      "fixme": "Verificar coordenadas",
      "note": "Fora da área de projeção da face 0500-0068P-7-3"
      },
      "geometry": {
         "type": "Point",
         "coordinates": [-38.214399,-9.394912]
      }
    },
    {
      "type": "Feature",
      "properties": { 
      "IBGE:COD_UNICO_ENDERECO": "216994266",
      "addr:housenumber": "120",
      "addr:postcode": "48605-768",
      "addr:street": "Rua do Sossego",
      "addr:suburb": "General Dutra",
      "building": "yes"
      },
      "geometry": {
         "type": "Point",
         "coordinates": [-38.2172925,-9.3907259]
      }
    },
    {
      "type": "Feature",
      "properties": { 
      "IBGE:COD_UNICO_ENDERECO": "216994356",
      "addr:housenumber": "117",
      "addr:postcode": "48607-060",
      "addr:street": "Rua da Alvorada",
      "addr:suburb": "General Dutra",
      "building": "yes",
      "fixme": "Verificar coordenadas",
      "note": "Fora da área de projeção da face 0500-0068P-7-1"
      },
      "geometry": {
         "type": "Point",
         "coordinates": [-38.217149,-9.391476]
      }
    },
    {
      "type": "Feature",
      "properties": { 
      "IBGE:COD_UNICO_ENDERECO": "216994157",
      "addr:housenumber": "190",
      "addr:postcode": "48607-210",
      "addr:street": "Rua Engenheiro Marchetti",
      "addr:suburb": "General Dutra",
      "building": "yes"
      },
      "geometry": {
         "type": "Point",
         "coordinates": [-38.2191169,-9.3910952]
      }
    },
    {
      "type": "Feature",
      "properties": { 
      "IBGE:COD_UNICO_ENDERECO": "216994376",
      "addr:housenumber": "120",
      "addr:postcode": "48607-060",
      "addr:street": "Rua da Alvorada",
      "addr:suburb": "General Dutra",
      "building": "yes",
      "fixme": "Verificar coordenadas",
      "note": "Fora da área de projeção da face 0500-0068P-7-1"
      },
      "geometry": {
         "type": "Point",
         "coordinates": [-38.217122,-9.391538]
      }
    },
    {
      "type": "Feature",
      "properties": { 
      "IBGE:COD_UNICO_ENDERECO": "216993914",
      "addr:housenumber": "83",
      "addr:postcode": "48607-240",
      "addr:street": "Rua da Concórdia",
      "addr:suburb": "General Dutra",
      "building": "yes",
      "fixme": "Verificar coordenadas",
      "note": "Fora da área de projeção da face 0500-0068P-1-3"
      },
      "geometry": {
         "type": "Point",
         "coordinates": [-38.219505,-9.392464]
      }
    },
    {
      "type": "Feature",
      "properties": { 
      "IBGE:COD_UNICO_ENDERECO": "27421275",
      "addr:housenumber": "95",
      "addr:postcode": "48607-330",
      "addr:street": "Rua Alagoas",
      "addr:suburb": "General Dutra",
      "building": "yes"
      },
      "geometry": {
         "type": "Point",
         "coordinates": [-38.2231286,-9.3866233]
      }
    },
    {
      "type": "Feature",
      "properties": { 
      "IBGE:COD_UNICO_ENDERECO": "27421178",
      "addr:housenumber": "167",
      "addr:postcode": "48605-380",
      "addr:street": "Rua Lago Itaparica",
      "addr:suburb": "General Dutra",
      "building": "yes",
      "fixme": "Verificar coordenadas",
      "note": "Sem face no bayface do IBGE 0500-0147P-15-4"
      },
      "geometry": {
         "type": "Point",
         "coordinates": [-38.225005,-9.387851]
      }
    },
    {
      "type": "Feature",
      "properties": { 
      "IBGE:COD_UNICO_ENDERECO": "27364364",
      "addr:housenumber": "213",
      "addr:postcode": "48607-060",
      "addr:street": "Rua da Alvorada",
      "addr:suburb": "General Dutra",
      "building": "yes",
      "fixme": "Verificar coordenadas",
      "note": "Fora da área de projeção da face 0500-0068P-8-3"
      },
      "geometry": {
         "type": "Point",
         "coordinates": [-38.214451,-9.394941]
      }
    },
    {
      "type": "Feature",
      "properties": { 
      "IBGE:COD_UNICO_ENDERECO": "27364352",
      "addr:housenumber": "509",
      "addr:postcode": "48607-240",
      "addr:street": "Rua da Concórdia",
      "addr:suburb": "General Dutra",
      "addr:unit": "Fundos B",
      "building": "yes",
      "fixme": "Verificar coordenadas",
      "note": "Fora da área de projeção da face 0500-0068P-7-3"
      },
      "geometry": {
         "type": "Point",
         "coordinates": [-38.214409,-9.394986]
      }
    },
    {
      "type": "Feature",
      "properties": { 
      "IBGE:COD_UNICO_ENDERECO": "223974376",
      "addr:housenumber": "553",
      "addr:postcode": "48602-700",
      "addr:street": "Avenida da Amizade",
      "addr:suburb": "General Dutra",
      "addr:unit": "Casa",
      "building": "yes"
      },
      "geometry": {
         "type": "Point",
         "coordinates": [-38.2206807,-9.390502]
      }
    },
    {
      "type": "Feature",
      "properties": { 
      "IBGE:COD_UNICO_ENDERECO": "216994384",
      "addr:housenumber": "17",
      "addr:postcode": "48608-005",
      "addr:street": "Rua da Aurora",
      "addr:suburb": "General Dutra",
      "building": "yes",
      "fixme": "Verificar coordenadas",
      "name": "Lago Aurora",
      "note": "Fora da área de projeção da face 0500-0068P-7-2"
      },
      "geometry": {
         "type": "Point",
         "coordinates": [-38.213683,-9.395415]
      }
    },
    {
      "type": "Feature",
      "properties": { 
      "IBGE:COD_UNICO_ENDERECO": "216993983",
      "addr:housenumber": "453",
      "addr:postcode": "48602-700",
      "addr:street": "Avenida da Amizade",
      "addr:suburb": "General Dutra",
      "building": "yes"
      },
      "geometry": {
         "type": "Point",
         "coordinates": [-38.2204355,-9.3914613]
      }
    },
    {
      "type": "Feature",
      "properties": { 
      "IBGE:COD_UNICO_ENDERECO": "27364335",
      "addr:housenumber": "49",
      "addr:postcode": "48607-060",
      "addr:street": "Rua da Alvorada",
      "addr:suburb": "General Dutra",
      "building": "yes"
      },
      "geometry": {
         "type": "Point",
         "coordinates": [-38.2177693,-9.3914884]
      }
    },
    {
      "type": "Feature",
      "properties": { 
      "IBGE:COD_UNICO_ENDERECO": "27364346",
      "addr:housenumber": "270",
      "addr:postcode": "48607-060",
      "addr:street": "Rua da Alvorada",
      "addr:suburb": "General Dutra",
      "building": "yes"
      },
      "geometry": {
         "type": "Point",
         "coordinates": [-38.2157906,-9.3915644]
      }
    },
    {
      "type": "Feature",
      "properties": { 
      "IBGE:COD_UNICO_ENDERECO": "27364338",
      "addr:housenumber": "120",
      "addr:postcode": "48607-060",
      "addr:street": "Rua da Alvorada",
      "addr:suburb": "General Dutra",
      "building": "yes",
      "fixme": "Verificar coordenadas",
      "note": "Fora da área de projeção da face 0500-0068P-6-1"
      },
      "geometry": {
         "type": "Point",
         "coordinates": [-38.214465,-9.394903]
      }
    },
    {
      "type": "Feature",
      "properties": { 
      "IBGE:COD_UNICO_ENDERECO": "216994062",
      "addr:housenumber": "102",
      "addr:postcode": "48607-180",
      "addr:street": "Rua Alberto Rocha",
      "addr:suburb": "General Dutra",
      "building": "yes"
      },
      "geometry": {
         "type": "Point",
         "coordinates": [-38.2198176,-9.3914742]
      }
    },
    {
      "type": "Feature",
      "properties": { 
      "IBGE:COD_UNICO_ENDERECO": "27421220",
      "addr:housenumber": "473",
      "addr:postcode": "48602-700",
      "addr:street": "Avenida da Amizade",
      "addr:suburb": "General Dutra",
      "building": "yes"
      },
      "geometry": {
         "type": "Point",
         "coordinates": [-38.2206289,-9.3912963]
      }
    },
    {
      "type": "Feature",
      "properties": { 
      "IBGE:COD_UNICO_ENDERECO": "27364336",
      "addr:housenumber": "15",
      "addr:postcode": "48607-060",
      "addr:street": "Rua da Alvorada",
      "addr:suburb": "General Dutra",
      "building": "yes",
      "fixme": "Verificar coordenadas",
      "note": "Fora da área de projeção da face 0500-0068P-5-3"
      },
      "geometry": {
         "type": "Point",
         "coordinates": [-38.214438,-9.394901]
      }
    },
    {
      "type": "Feature",
      "properties": { 
      "IBGE:COD_UNICO_ENDERECO": "216994213",
      "addr:housenumber": "75",
      "addr:postcode": "48607-000",
      "addr:street": "Avenida Marcondes Ferraz",
      "addr:suburb": "General Dutra",
      "building": "yes"
      },
      "geometry": {
         "type": "Point",
         "coordinates": [-38.2181876,-9.3899575]
      }
    },
    {
      "type": "Feature",
      "properties": { 
      "IBGE:COD_UNICO_ENDERECO": "27364359",
      "addr:housenumber": "110",
      "addr:postcode": "48608-005",
      "addr:street": "Rua da Aurora",
      "addr:suburb": "General Dutra",
      "building": "yes"
      },
      "geometry": {
         "type": "Point",
         "coordinates": [-38.2151869,-9.390808]
      }
    },
    {
      "type": "Feature",
      "properties": { 
      "IBGE:COD_UNICO_ENDERECO": "27364333",
      "addr:housenumber": "117",
      "addr:postcode": "48607-060",
      "addr:street": "Rua da Alvorada",
      "addr:suburb": "General Dutra",
      "building": "yes",
      "fixme": "Verificar coordenadas",
      "note": "Fora da área de projeção da face 0500-0068P-5-3"
      },
      "geometry": {
         "type": "Point",
         "coordinates": [-38.21447,-9.394901]
      }
    },
    {
      "type": "Feature",
      "properties": { 
      "IBGE:COD_UNICO_ENDERECO": "27364280",
      "addr:housenumber": "44",
      "addr:postcode": "48607-180",
      "addr:suburb": "General Dutra",
      "building": "yes"
      },
      "geometry": {
         "type": "Point",
         "coordinates": [-38.2195759,-9.3906154]
      }
    },
    {
      "type": "Feature",
      "properties": { 
      "IBGE:COD_UNICO_ENDERECO": "223974322",
      "addr:housenumber": "284",
      "addr:postcode": "48607-325",
      "addr:street": "Travessa Ceará",
      "addr:suburb": "General Dutra",
      "addr:unit": "Casa A",
      "building": "yes"
      },
      "geometry": {
         "type": "Point",
         "coordinates": [-38.2211558,-9.3910138]
      }
    },
    {
      "type": "Feature",
      "properties": { 
      "IBGE:COD_UNICO_ENDERECO": "223974408",
      "addr:housenumber": "92",
      "addr:postcode": "48607-310",
      "addr:street": "Rua Ceará",
      "addr:suburb": "General Dutra",
      "addr:unit": "Casa A",
      "building": "yes"
      },
      "geometry": {
         "type": "Point",
         "coordinates": [-38.2216572,-9.3890726]
      }
    },
    {
      "type": "Feature",
      "properties": { 
      "IBGE:COD_UNICO_ENDERECO": "27364324",
      "addr:housenumber": "115",
      "addr:postcode": "48605-768",
      "addr:street": "Rua do Sossego",
      "addr:suburb": "General Dutra",
      "building": "yes"
      },
      "geometry": {
         "type": "Point",
         "coordinates": [-38.2171064,-9.3907189]
      }
    },
    {
      "type": "Feature",
      "properties": { 
      "IBGE:COD_UNICO_ENDERECO": "27364315",
      "addr:housenumber": "137",
      "addr:postcode": "48607-210",
      "addr:street": "Rua Engenheiro Marchetti",
      "addr:suburb": "General Dutra",
      "building": "yes",
      "fixme": "Verificar coordenadas",
      "note": "Fora da área de projeção da face 0500-0068P-3-4"
      },
      "geometry": {
         "type": "Point",
         "coordinates": [-38.214411,-9.394913]
      }
    },
    {
      "type": "Feature",
      "properties": { 
      "IBGE:COD_UNICO_ENDERECO": "223974287",
      "addr:housenumber": "16",
      "addr:postcode": "48607-510",
      "addr:street": "Rua P",
      "addr:suburb": "General Dutra",
      "building": "yes"
      },
      "geometry": {
         "type": "Point",
         "coordinates": [-38.2239911,-9.387118]
      }
    },
    {
      "type": "Feature",
      "properties": { 
      "IBGE:COD_UNICO_ENDERECO": "27421239",
      "addr:housenumber": "169",
      "addr:postcode": "48607-335",
      "addr:street": "Rua Rio Grande do Norte",
      "addr:suburb": "General Dutra",
      "building": "yes"
      },
      "geometry": {
         "type": "Point",
         "coordinates": [-38.2226772,-9.3889214]
      }
    },
    {
      "type": "Feature",
      "properties": { 
      "IBGE:COD_UNICO_ENDERECO": "27421180;223974291",
      "addr:housenumber": "145",
      "addr:postcode": "48607-510",
      "addr:street": "Rua P",
      "addr:suburb": "General Dutra",
      "building": "yes"
      },
      "geometry": {
         "type": "Point",
         "coordinates": [-38.224881,-9.3876848]
      }
    },
    {
      "type": "Feature",
      "properties": { 
      "IBGE:COD_UNICO_ENDERECO": "216994421",
      "addr:housenumber": "103 A",
      "addr:postcode": "48607-240",
      "addr:street": "Rua da Concórdia",
      "addr:suburb": "General Dutra",
      "building": "yes"
      },
      "geometry": {
         "type": "Point",
         "coordinates": [-38.2163936,-9.3922422]
      }
    },
    {
      "type": "Feature",
      "properties": { 
      "IBGE:COD_UNICO_ENDERECO": "27421209",
      "addr:housenumber": "137",
      "addr:postcode": "48607-310",
      "addr:street": "Rua Ceará",
      "addr:suburb": "General Dutra",
      "building": "yes"
      },
      "geometry": {
         "type": "Point",
         "coordinates": [-38.2221346,-9.3895546]
      }
    },
    {
      "type": "Feature",
      "properties": { 
      "IBGE:COD_UNICO_ENDERECO": "216994334",
      "addr:housenumber": "243",
      "addr:postcode": "48607-060",
      "addr:street": "Rua da Alvorada",
      "addr:suburb": "General Dutra",
      "building": "yes"
      },
      "geometry": {
         "type": "Point",
         "coordinates": [-38.2162211,-9.3915961]
      }
    },
    {
      "type": "Feature",
      "properties": { 
      "IBGE:COD_UNICO_ENDERECO": "27364307",
      "addr:housenumber": "209",
      "addr:postcode": "48607-240",
      "addr:street": "Rua da Concórdia",
      "addr:suburb": "General Dutra",
      "building": "yes"
      },
      "geometry": {
         "type": "Point",
         "coordinates": [-38.218482,-9.3923717]
      }
    },
    {
      "type": "Feature",
      "properties": { 
      "IBGE:COD_UNICO_ENDERECO": "27421245",
      "addr:housenumber": "18",
      "addr:postcode": "48607-310",
      "addr:street": "Rua Ceará",
      "addr:suburb": "General Dutra",
      "building": "yes"
      },
      "geometry": {
         "type": "Point",
         "coordinates": [-38.2210734,-9.3887156]
      }
    },
    {
      "type": "Feature",
      "properties": { 
      "IBGE:COD_UNICO_ENDERECO": "27364289-27364290",
      "addr:housenumber": "163",
      "addr:postcode": "48607-180",
      "addr:street": "Rua Alberto Rocha",
      "addr:suburb": "General Dutra",
      "building": "yes"
      },
      "geometry": {
         "type": "Point",
         "coordinates": [-38.2197841,-9.392147]
      }
    },
    {
      "type": "Feature",
      "properties": { 
      "IBGE:COD_UNICO_ENDERECO": "27364306",
      "addr:housenumber": "212 A",
      "addr:postcode": "48607-170",
      "addr:street": "Rua da Bondade",
      "addr:suburb": "General Dutra",
      "building": "yes"
      },
      "geometry": {
         "type": "Point",
         "coordinates": [-38.2184056,-9.3920562]
      }
    },
    {
      "type": "Feature",
      "properties": { 
      "IBGE:COD_UNICO_ENDERECO": "27364288",
      "addr:housenumber": "83",
      "addr:postcode": "48607-240",
      "addr:street": "Rua da Concórdia",
      "addr:suburb": "General Dutra",
      "building": "yes",
      "fixme": "Verificar coordenadas",
      "note": "Fora da área de projeção da face 0500-0068P-2-3"
      },
      "geometry": {
         "type": "Point",
         "coordinates": [-38.214235,-9.396315]
      }
    },
    {
      "type": "Feature",
      "properties": { 
      "IBGE:COD_UNICO_ENDERECO": "27364354",
      "addr:housenumber": "449",
      "addr:postcode": "48607-240",
      "addr:street": "Rua da Concórdia",
      "addr:suburb": "General Dutra",
      "association": "lawyer",
      "building": "yes",
      "fixme": "Verificar coordenadas",
      "name": "Ordem dos Advogados do Brasil Subseção D",
      "note": "Fora da área de projeção da face 0500-0068P-7-3",
      "office": "association"
      },
      "geometry": {
         "type": "Point",
         "coordinates": [-38.214443,-9.395308]
      }
    },
    {
      "type": "Feature",
      "properties": { 
      "IBGE:COD_UNICO_ENDERECO": "27421274",
      "addr:housenumber": "117",
      "addr:postcode": "48607-330",
      "addr:street": "Rua Alagoas",
      "addr:suburb": "General Dutra",
      "building": "yes"
      },
      "geometry": {
         "type": "Point",
         "coordinates": [-38.2233234,-9.3867355]
      }
    },
    {
      "type": "Feature",
      "properties": { 
      "IBGE:COD_UNICO_ENDERECO": "27421267",
      "addr:housenumber": "34",
      "addr:postcode": "48607-360",
      "addr:street": "Rua Paraíba",
      "addr:suburb": "General Dutra",
      "building": "yes"
      },
      "geometry": {
         "type": "Point",
         "coordinates": [-38.2221555,-9.3874881]
      }
    },
    {
      "type": "Feature",
      "properties": { 
      "IBGE:COD_UNICO_ENDERECO": "216994168",
      "addr:housenumber": "255",
      "addr:postcode": "48607-000",
      "addr:street": "Avenida Marcondes Ferraz",
      "addr:suburb": "General Dutra",
      "building": "yes",
      "fixme": "Verificar coordenadas",
      "note": "Fora da área de projeção da face 0500-0068P-4-1"
      },
      "geometry": {
         "type": "Point",
         "coordinates": [-38.21681,-9.389801]
      }
    },
    {
      "type": "Feature",
      "properties": { 
      "IBGE:COD_UNICO_ENDERECO": "27421199",
      "addr:housenumber": "142",
      "addr:postcode": "48607-510",
      "addr:street": "Rua P",
      "addr:suburb": "General Dutra",
      "building": "yes"
      },
      "geometry": {
         "type": "Point",
         "coordinates": [-38.2247854,-9.3876428]
      }
    },
    {
      "type": "Feature",
      "properties": { 
      "IBGE:COD_UNICO_ENDERECO": "27364328",
      "addr:housenumber": "14",
      "addr:postcode": "48605-768",
      "addr:street": "Rua do Sossego",
      "addr:suburb": "General Dutra",
      "building": "yes",
      "fixme": "Verificar coordenadas",
      "note": "Fora da área de projeção da face 0500-0068P-5-1"
      },
      "geometry": {
         "type": "Point",
         "coordinates": [-38.214478,-9.395316]
      }
    },
    {
      "type": "Feature",
      "properties": { 
      "IBGE:COD_UNICO_ENDERECO": "27364357",
      "addr:housenumber": "6",
      "addr:postcode": "48607-010",
      "addr:street": "Rua das Caraibeiras",
      "addr:suburb": "General Dutra",
      "amenity": "school",
      "building": "yes",
      "name": "Karatê Shotokan"
      },
      "geometry": {
         "type": "Point",
         "coordinates": [-38.216732,-9.3917979]
      }
    },
    {
      "type": "Feature",
      "properties": { 
      "IBGE:COD_UNICO_ENDERECO": "27421243",
      "addr:housenumber": "57",
      "addr:postcode": "48607-335",
      "addr:street": "Rua Rio Grande do Norte",
      "addr:suburb": "General Dutra",
      "building": "yes"
      },
      "geometry": {
         "type": "Point",
         "coordinates": [-38.2217721,-9.3883877]
      }
    },
    {
      "type": "Feature",
      "properties": { 
      "IBGE:COD_UNICO_ENDERECO": "27421228",
      "addr:housenumber": "649",
      "addr:postcode": "48602-700",
      "addr:street": "Avenida da Amizade",
      "addr:suburb": "General Dutra",
      "building": "yes"
      },
      "geometry": {
         "type": "Point",
         "coordinates": [-38.2207357,-9.3897166]
      }
    },
    {
      "type": "Feature",
      "properties": { 
      "IBGE:COD_UNICO_ENDERECO": "27364314",
      "addr:housenumber": "167",
      "addr:postcode": "48607-210",
      "addr:street": "Rua Engenheiro Marchetti",
      "addr:suburb": "General Dutra",
      "building": "house",
      "description": "CNEFE 2022 Casa"
      },
      "geometry": {
         "type": "Point",
         "coordinates": [-38.2191208,-9.3908694]
      }
    },
    {
      "type": "Feature",
      "properties": { 
      "IBGE:COD_UNICO_ENDERECO": "27364343",
      "addr:housenumber": "182",
      "addr:postcode": "48607-060",
      "addr:street": "Rua da Alvorada",
      "addr:suburb": "General Dutra",
      "building": "yes"
      },
      "geometry": {
         "type": "Point",
         "coordinates": [-38.2165287,-9.3916187]
      }
    },
    {
      "type": "Feature",
      "properties": { 
      "IBGE:COD_UNICO_ENDERECO": "27364303",
      "addr:housenumber": "148",
      "addr:postcode": "48607-170",
      "addr:street": "Rua da Bondade",
      "addr:suburb": "General Dutra",
      "building": "yes"
      },
      "geometry": {
         "type": "Point",
         "coordinates": [-38.2184375,-9.3914119]
      }
    },
    {
      "type": "Feature",
      "properties": { 
      "IBGE:COD_UNICO_ENDERECO": "27421253",
      "addr:housenumber": "139 A",
      "addr:postcode": "48607-360",
      "addr:street": "Rua Paraíba",
      "addr:suburb": "General Dutra",
      "addr:unit": "Casa",
      "building": "yes"
      },
      "geometry": {
         "type": "Point",
         "coordinates": [-38.222936,-9.3881315]
      }
    },
    {
      "type": "Feature",
      "properties": { 
      "IBGE:COD_UNICO_ENDERECO": "216994520",
      "addr:housenumber": "13",
      "addr:postcode": "48608-015",
      "addr:street": "Rua Eunápio Peltier de Queirós",
      "addr:suburb": "General Dutra",
      "building": "yes"
      },
      "geometry": {
         "type": "Point",
         "coordinates": [-38.2146228,-9.3947063]
      }
    },
    {
      "type": "Feature",
      "properties": { 
      "IBGE:COD_UNICO_ENDERECO": "216993846",
      "addr:housenumber": "293",
      "addr:postcode": "48607-240",
      "addr:street": "Rua da Concórdia",
      "addr:suburb": "General Dutra",
      "building": "yes",
      "fixme": "Verificar coordenadas",
      "note": "Fora da área de projeção da face 0500-0068P-1-3"
      },
      "geometry": {
         "type": "Point",
         "coordinates": [-38.217575,-9.392406]
      }
    },
    {
      "type": "Feature",
      "properties": { 
      "IBGE:COD_UNICO_ENDERECO": "216994202",
      "addr:housenumber": "145",
      "addr:postcode": "48607-000",
      "addr:street": "Avenida Marcondes Ferraz",
      "addr:suburb": "General Dutra",
      "building": "yes"
      },
      "geometry": {
         "type": "Point",
         "coordinates": [-38.2178203,-9.3899427]
      }
    },
    {
      "type": "Feature",
      "properties": { 
      "IBGE:COD_UNICO_ENDERECO": "27421213",
      "addr:housenumber": "53",
      "addr:postcode": "48607-310",
      "addr:street": "Rua Ceará",
      "addr:suburb": "General Dutra",
      "building": "yes"
      },
      "geometry": {
         "type": "Point",
         "coordinates": [-38.2215131,-9.3891269]
      }
    },
    {
      "type": "Feature",
      "properties": { 
      "IBGE:COD_UNICO_ENDERECO": "27421188",
      "addr:housenumber": "91",
      "addr:postcode": "48607-510",
      "addr:street": "Rua P",
      "addr:suburb": "General Dutra",
      "building": "yes"
      },
      "geometry": {
         "type": "Point",
         "coordinates": [-38.2244591,-9.3874272]
      }
    },
    {
      "type": "Feature",
      "properties": { 
      "IBGE:COD_UNICO_ENDERECO": "27364339",
      "addr:housenumber": "359",
      "addr:postcode": "48607-240",
      "addr:street": "Rua da Concórdia",
      "addr:suburb": "General Dutra",
      "building": "yes",
      "fixme": "Verificar coordenadas",
      "note": "Fora da área de projeção da face 0500-0068P-6-3"
      },
      "geometry": {
         "type": "Point",
         "coordinates": [-38.214424,-9.394938]
      }
    },
    {
      "type": "Feature",
      "properties": { 
      "IBGE:COD_UNICO_ENDERECO": "216993973",
      "addr:housenumber": "407",
      "addr:postcode": "48602-700",
      "addr:street": "Avenida da Amizade",
      "addr:suburb": "General Dutra",
      "building": "yes"
      },
      "geometry": {
         "type": "Point",
         "coordinates": [-38.2204187,-9.3917524]
      }
    },
    {
      "type": "Feature",
      "properties": { 
      "IBGE:COD_UNICO_ENDERECO": "27421191",
      "addr:housenumber": "25",
      "addr:postcode": "48607-510",
      "addr:street": "Rua P",
      "addr:suburb": "General Dutra",
      "building": "yes"
      },
      "geometry": {
         "type": "Point",
         "coordinates": [-38.2243843,-9.3873778]
      }
    },
    {
      "type": "Feature",
      "properties": { 
      "IBGE:COD_UNICO_ENDERECO": "216994259",
      "addr:housenumber": "45",
      "addr:postcode": "48607-000",
      "addr:street": "Avenida Marcondes Ferraz",
      "addr:suburb": "General Dutra",
      "building": "yes",
      "fixme": "Verificar coordenadas",
      "note": "Fora da área de projeção da face 0500-0068P-4-1"
      },
      "geometry": {
         "type": "Point",
         "coordinates": [-38.218738,-9.389833]
      }
    },
    {
      "type": "Feature",
      "properties": { 
      "IBGE:COD_UNICO_ENDERECO": "27364285",
      "addr:housenumber": "258",
      "addr:postcode": "48607-210",
      "addr:street": "Rua Engenheiro Marchetti",
      "addr:suburb": "General Dutra",
      "building": "yes"
      },
      "geometry": {
         "type": "Point",
         "coordinates": [-38.2192661,-9.3917815]
      }
    },
    {
      "type": "Feature",
      "properties": { 
      "IBGE:COD_UNICO_ENDERECO": "27421260",
      "addr:housenumber": "176",
      "addr:postcode": "48607-335",
      "addr:street": "Rua Rio Grande do Norte",
      "addr:suburb": "General Dutra",
      "building": "yes"
      },
      "geometry": {
         "type": "Point",
         "coordinates": [-38.2226996,-9.3887547]
      }
    },
    {
      "type": "Feature",
      "properties": { 
      "IBGE:COD_UNICO_ENDERECO": "27364287",
      "addr:housenumber": "111",
      "addr:postcode": "48607-240",
      "addr:street": "Rua da Concórdia",
      "addr:suburb": "General Dutra",
      "building": "yes",
      "fixme": "Verificar coordenadas",
      "note": "Fora da área de projeção da face 0500-0068P-2-3"
      },
      "geometry": {
         "type": "Point",
         "coordinates": [-38.214447,-9.395576]
      }
    },
    {
      "type": "Feature",
      "properties": { 
      "IBGE:COD_UNICO_ENDERECO": "216994001",
      "addr:housenumber": "237",
      "addr:postcode": "48607-210",
      "addr:street": "Rua Engenheiro Marchetti",
      "addr:suburb": "General Dutra",
      "building": "yes"
      },
      "geometry": {
         "type": "Point",
         "coordinates": [-38.2192695,-9.3917351]
      }
    },
    {
      "type": "Feature",
      "properties": { 
      "IBGE:COD_UNICO_ENDERECO": "27364351",
      "addr:housenumber": "509",
      "addr:postcode": "48607-240",
      "addr:street": "Rua da Concórdia",
      "addr:suburb": "General Dutra",
      "building": "yes",
      "fixme": "Verificar coordenadas",
      "note": "Fora da área de projeção da face 0500-0068P-7-3"
      },
      "geometry": {
         "type": "Point",
         "coordinates": [-38.214431,-9.394929]
      }
    },
    {
      "type": "Feature",
      "properties": { 
      "IBGE:COD_UNICO_ENDERECO": "27364284",
      "addr:housenumber": "232",
      "addr:postcode": "48607-210",
      "addr:street": "Rua Engenheiro Marchetti",
      "addr:suburb": "General Dutra",
      "building": "yes"
      },
      "geometry": {
         "type": "Point",
         "coordinates": [-38.2192711,-9.3917129]
      }
    },
    {
      "type": "Feature",
      "properties": { 
      "IBGE:COD_UNICO_ENDERECO": "216994408",
      "addr:housenumber": "102 B",
      "addr:postcode": "48607-240",
      "addr:street": "Rua da Concórdia",
      "addr:suburb": "General Dutra",
      "building": "yes"
      },
      "geometry": {
         "type": "Point",
         "coordinates": [-38.2163749,-9.3922413]
      }
    },
    {
      "type": "Feature",
      "properties": { 
      "IBGE:COD_UNICO_ENDERECO": "216994216",
      "addr:housenumber": "170",
      "addr:postcode": "48607-000",
      "addr:street": "Avenida Marcondes Ferraz",
      "addr:suburb": "General Dutra",
      "building": "yes"
      },
      "geometry": {
         "type": "Point",
         "coordinates": [-38.2177112,-9.3899383]
      }
    },
    {
      "type": "Feature",
      "properties": { 
      "IBGE:COD_UNICO_ENDERECO": "216994087",
      "addr:housenumber": "120",
      "addr:postcode": "48607-180",
      "addr:street": "Rua Alberto Rocha",
      "addr:suburb": "General Dutra",
      "building": "construction"
      },
      "geometry": {
         "type": "Point",
         "coordinates": [-38.2198012,-9.3917531]
      }
    },
    {
      "type": "Feature",
      "properties": { 
      "IBGE:COD_UNICO_ENDERECO": "27364283;216994025",
      "addr:housenumber": "212",
      "addr:postcode": "48607-210",
      "addr:street": "Rua Engenheiro Marchetti",
      "addr:suburb": "General Dutra",
      "building": "yes"
      },
      "geometry": {
         "type": "Point",
         "coordinates": [-38.2192899,-9.3913127]
      }
    },
    {
      "type": "Feature",
      "properties": { 
      "IBGE:COD_UNICO_ENDERECO": "223974289",
      "addr:housenumber": "40",
      "addr:postcode": "48607-510",
      "addr:street": "Rua P",
      "addr:suburb": "General Dutra",
      "building": "yes"
      },
      "geometry": {
         "type": "Point",
         "coordinates": [-38.2239383,-9.3870831]
      }
    },
    {
      "type": "Feature",
      "properties": { 
      "IBGE:COD_UNICO_ENDERECO": "223974296",
      "addr:housenumber": "142",
      "addr:postcode": "48605-530",
      "addr:street": "Rua Bahia",
      "addr:suburb": "General Dutra",
      "building": "yes"
      },
      "geometry": {
         "type": "Point",
         "coordinates": [-38.2238062,-9.387069]
      }
    },
    {
      "type": "Feature",
      "properties": { 
      "IBGE:COD_UNICO_ENDERECO": "27421232",
      "addr:housenumber": "649 A",
      "addr:postcode": "48602-700",
      "addr:street": "Avenida da Amizade",
      "addr:suburb": "General Dutra",
      "building": "yes"
      },
      "geometry": {
         "type": "Point",
         "coordinates": [-38.2207286,-9.3898183]
      }
    },
    {
      "type": "Feature",
      "properties": { 
      "IBGE:COD_UNICO_ENDERECO": "216994135",
      "addr:housenumber": "190 A",
      "addr:postcode": "48607-210",
      "addr:street": "Rua Engenheiro Marchetti",
      "addr:suburb": "General Dutra",
      "building": "yes",
      "fixme": "Verificar coordenadas",
      "note": "Fora da área de projeção da face 0500-0068P-3-4"
      },
      "geometry": {
         "type": "Point",
         "coordinates": [-38.214429507567,-9.3949037951224]
      }
    },
    {
      "type": "Feature",
      "properties": { 
      "IBGE:COD_UNICO_ENDERECO": "27364281",
      "addr:housenumber": "190 A",
      "addr:postcode": "48607-210",
      "addr:street": "Rua Engenheiro Marchetti",
      "addr:suburb": "General Dutra",
      "building": "yes"
      },
      "geometry": {
         "type": "Point",
         "coordinates": [-38.219291,-9.3911587]
      }
    },
    {
      "type": "Feature",
      "properties": { 
      "IBGE:COD_UNICO_ENDERECO": "216994009",
      "addr:housenumber": "289",
      "addr:postcode": "48607-210",
      "addr:street": "Rua Engenheiro Marchetti",
      "addr:suburb": "General Dutra",
      "building": "yes"
      },
      "geometry": {
         "type": "Point",
         "coordinates": [-38.2192425,-9.3920849]
      }
    }
  ]
}
