{
  "type": "FeatureCollection",
  "source": "IBGE CNEFE + Faces de Logradouros - 2022",
  "generator": "CSV-CNEFE2GeoJSON.lua 1.5.7 - fidelis.assis@gmail.com",
  "date": "2025-02-02T09:05:31-0300",
  "features": [
    {
      "type": "Feature",
      "properties": { 
      "IBGE:COD_UNICO_ENDERECO": "192032111",
      "addr:housenumber": "5",
      "addr:postcode": "48610-488",
      "addr:street": "Estrada do Pinheiro para O Rio",
      "addr:suburb": "Picos",
      "building": "yes",
      "fixme": "Verificar coordenadas",
      "name": "Pscultura",
      "note": "Sem setor ou quadra no bayface do IBGE 0500-0212P-0-108"
      },
      "geometry": {
         "type": "Point",
         "coordinates": [-38.051478,-9.49538]
      }
    },
    {
      "type": "Feature",
      "properties": { 
      "IBGE:COD_UNICO_ENDERECO": "27411257",
      "addr:housenumber": "138",
      "addr:postcode": "48601-018",
      "addr:street": "Povoado Picos",
      "addr:suburb": "Picos",
      "building": "yes",
      "fixme": "Verificar coordenadas",
      "note": "Sem setor ou quadra no bayface do IBGE 0500-0212P-0-83"
      },
      "geometry": {
         "type": "Point",
         "coordinates": [-38.051619,-9.496434]
      }
    },
    {
      "type": "Feature",
      "properties": { 
      "IBGE:COD_UNICO_ENDERECO": "112584116",
      "addr:housenumber": "3",
      "addr:postcode": "48601-018",
      "addr:street": "Estrada do Pinheiro para O Rio",
      "addr:suburb": "Picos",
      "building": "yes",
      "fixme": "Verificar coordenadas",
      "note": "Sem setor ou quadra no bayface do IBGE 0500-0212P-0-84"
      },
      "geometry": {
         "type": "Point",
         "coordinates": [-38.068686,-9.511905]
      }
    },
    {
      "type": "Feature",
      "properties": { 
      "IBGE:COD_UNICO_ENDERECO": "112584036",
      "addr:housenumber": "52",
      "addr:postcode": "48601-018",
      "addr:street": "Estrada BA-210",
      "addr:suburb": "Picos",
      "building": "yes",
      "fixme": "Verificar coordenadas",
      "note": "Sem setor ou quadra no bayface do IBGE 0500-0212P-0-85"
      },
      "geometry": {
         "type": "Point",
         "coordinates": [-38.063122,-9.515718]
      }
    },
    {
      "type": "Feature",
      "properties": { 
      "IBGE:COD_UNICO_ENDERECO": "27411259",
      "addr:housenumber": "100",
      "addr:postcode": "48601-018",
      "addr:street": "Povoado Picos",
      "addr:suburb": "Picos",
      "building": "yes",
      "fixme": "Verificar coordenadas",
      "note": "Sem setor ou quadra no bayface do IBGE 0500-0212P-0-83"
      },
      "geometry": {
         "type": "Point",
         "coordinates": [-38.055266,-9.495359]
      }
    },
    {
      "type": "Feature",
      "properties": { 
      "IBGE:COD_UNICO_ENDERECO": "27411261",
      "addr:housenumber": "110",
      "addr:postcode": "48601-018",
      "addr:street": "Povoado Picos",
      "addr:suburb": "Picos",
      "building": "yes",
      "fixme": "Verificar coordenadas",
      "note": "Sem setor ou quadra no bayface do IBGE 0500-0212P-0-83"
      },
      "geometry": {
         "type": "Point",
         "coordinates": [-38.05559,-9.496036]
      }
    },
    {
      "type": "Feature",
      "properties": { 
      "IBGE:COD_UNICO_ENDERECO": "112584164",
      "addr:housenumber": "12",
      "addr:postcode": "48601-018",
      "addr:street": "Povoado Picos",
      "addr:suburb": "Picos",
      "building": "yes",
      "fixme": "Verificar coordenadas",
      "note": "Sem setor ou quadra no bayface do IBGE 0500-0212P-0-83"
      },
      "geometry": {
         "type": "Point",
         "coordinates": [-38.052925,-9.495211]
      }
    },
    {
      "type": "Feature",
      "properties": { 
      "IBGE:COD_UNICO_ENDERECO": "27411265",
      "addr:housenumber": "1",
      "addr:postcode": "48601-018",
      "addr:street": "Povoado Picos",
      "addr:suburb": "Picos",
      "building": "yes",
      "fixme": "Verificar coordenadas",
      "note": "Sem setor ou quadra no bayface do IBGE 0500-0212P-0-83"
      },
      "geometry": {
         "type": "Point",
         "coordinates": [-38.062027,-9.501415]
      }
    },
    {
      "type": "Feature",
      "properties": { 
      "IBGE:COD_UNICO_ENDERECO": "27411258",
      "addr:housenumber": "120",
      "addr:postcode": "48601-018",
      "addr:street": "Povoado Picos",
      "addr:suburb": "Picos",
      "building": "yes",
      "fixme": "Verificar coordenadas",
      "note": "Sem setor ou quadra no bayface do IBGE 0500-0212P-0-83"
      },
      "geometry": {
         "type": "Point",
         "coordinates": [-38.05511,-9.495254]
      }
    },
    {
      "type": "Feature",
      "properties": { 
      "IBGE:COD_UNICO_ENDERECO": "27411260",
      "addr:housenumber": "60",
      "addr:postcode": "48601-018",
      "addr:street": "Povoado Picos",
      "addr:suburb": "Picos",
      "building": "yes",
      "fixme": "Verificar coordenadas",
      "note": "Sem setor ou quadra no bayface do IBGE 0500-0212P-0-83"
      },
      "geometry": {
         "type": "Point",
         "coordinates": [-38.055506,-9.495995]
      }
    },
    {
      "type": "Feature",
      "properties": { 
      "IBGE:COD_UNICO_ENDERECO": "27411262",
      "addr:housenumber": "10",
      "addr:postcode": "48601-018",
      "addr:street": "Povoado Picos",
      "addr:suburb": "Picos",
      "building": "yes",
      "fixme": "Verificar coordenadas",
      "note": "Sem setor ou quadra no bayface do IBGE 0500-0212P-0-83"
      },
      "geometry": {
         "type": "Point",
         "coordinates": [-38.06038,-9.500166]
      }
    },
    {
      "type": "Feature",
      "properties": { 
      "IBGE:COD_UNICO_ENDERECO": "112584125",
      "addr:housenumber": "8",
      "addr:postcode": "48601-018",
      "addr:street": "Estrada do Pinheiro para O Rio",
      "addr:suburb": "Picos",
      "building": "yes",
      "fixme": "Verificar coordenadas",
      "note": "Sem setor ou quadra no bayface do IBGE 0500-0212P-0-84"
      },
      "geometry": {
         "type": "Point",
         "coordinates": [-38.055461,-9.496]
      }
    },
    {
      "type": "Feature",
      "properties": { 
      "IBGE:COD_UNICO_ENDERECO": "27411267",
      "addr:housenumber": "15",
      "addr:postcode": "48601-018",
      "addr:street": "Povoado Picos",
      "addr:suburb": "Picos",
      "building": "yes",
      "fixme": "Verificar coordenadas",
      "note": "Sem setor ou quadra no bayface do IBGE 0500-0212P-0-83"
      },
      "geometry": {
         "type": "Point",
         "coordinates": [-38.068656,-9.511867]
      }
    }
  ]
}
