{
  "type": "FeatureCollection",
  "source": "IBGE CNEFE + Faces de Logradouros - 2022",
  "generator": "CSV-CNEFE2GeoJSON.lua 1.5.7 - fidelis.assis@gmail.com",
  "date": "2025-02-02T09:05:26-0300",
  "features": [
    {
      "type": "Feature",
      "properties": { 
      "IBGE:COD_UNICO_ENDERECO": "192023252",
      "addr:housenumber": "60",
      "addr:postcode": "48604-514",
      "addr:street": "Outros Divisa com Santa Brígida",
      "addr:suburb": "Lagoa Seca",
      "building": "yes",
      "fixme": "Verificar coordenadas",
      "note": "Sem setor ou quadra no bayface do IBGE 0500-0106P-0-120"
      },
      "geometry": {
         "type": "Point",
         "coordinates": [-38.128157,-9.639992]
      }
    },
    {
      "type": "Feature",
      "properties": { 
      "IBGE:COD_UNICO_ENDERECO": "112582963",
      "addr:housenumber": "50",
      "addr:postcode": "48601-018",
      "addr:street": "Estrada Baixa da Areia",
      "addr:suburb": "Lagoa Seca",
      "building": "yes",
      "fixme": "Verificar coordenadas",
      "note": "Sem setor ou quadra no bayface do IBGE 0500-0106P-0-121"
      },
      "geometry": {
         "type": "Point",
         "coordinates": [-38.129137,-9.640277]
      }
    },
    {
      "type": "Feature",
      "properties": { 
      "IBGE:COD_UNICO_ENDERECO": "27411731",
      "addr:housenumber": "17",
      "addr:postcode": "48601-016",
      "addr:street": "Divisa com Santa Brígida",
      "addr:suburb": "Lagoa Seca",
      "building": "yes",
      "fixme": "Verificar coordenadas",
      "note": "Sem setor ou quadra no bayface do IBGE 0500-0106P-0-115"
      },
      "geometry": {
         "type": "Point",
         "coordinates": [-38.125987,-9.63507]
      }
    },
    {
      "type": "Feature",
      "properties": { 
      "IBGE:COD_UNICO_ENDERECO": "27411729",
      "addr:housenumber": "21",
      "addr:postcode": "48601-018",
      "addr:street": "Divisa com Santa Brígida",
      "addr:suburb": "Lagoa Seca",
      "building": "yes",
      "fixme": "Verificar coordenadas",
      "note": "Sem setor ou quadra no bayface do IBGE 0500-0106P-0-114"
      },
      "geometry": {
         "type": "Point",
         "coordinates": [-38.124869,-9.634621]
      }
    },
    {
      "type": "Feature",
      "properties": { 
      "IBGE:COD_UNICO_ENDERECO": "27411726",
      "addr:housenumber": "39",
      "addr:postcode": "48601-018",
      "addr:street": "Divisa com Santa Brígida",
      "addr:suburb": "Lagoa Seca",
      "building": "yes",
      "fixme": "Verificar coordenadas",
      "note": "Sem setor ou quadra no bayface do IBGE 0500-0106P-0-114"
      },
      "geometry": {
         "type": "Point",
         "coordinates": [-38.127205,-9.633259]
      }
    },
    {
      "type": "Feature",
      "properties": { 
      "IBGE:COD_UNICO_ENDERECO": "192023225",
      "addr:housenumber": "84",
      "addr:postcode": "48610-488",
      "addr:street": "Divisa com Santa Brígida",
      "addr:suburb": "Lagoa Seca",
      "building": "yes",
      "fixme": "Verificar coordenadas",
      "note": "Sem setor ou quadra no bayface do IBGE 0500-0106P-0-116"
      },
      "geometry": {
         "type": "Point",
         "coordinates": [-38.129693,-9.64124]
      }
    },
    {
      "type": "Feature",
      "properties": { 
      "IBGE:COD_UNICO_ENDERECO": "27411723",
      "addr:housenumber": "6",
      "addr:postcode": "48601-018",
      "addr:street": "Divisa com Santa Brígida",
      "addr:suburb": "Lagoa Seca",
      "building": "yes",
      "fixme": "Verificar coordenadas",
      "note": "Sem setor ou quadra no bayface do IBGE 0500-0106P-0-114"
      },
      "geometry": {
         "type": "Point",
         "coordinates": [-38.125762,-9.633189]
      }
    },
    {
      "type": "Feature",
      "properties": { 
      "IBGE:COD_UNICO_ENDERECO": "27411721",
      "addr:housenumber": "50",
      "addr:postcode": "48601-018",
      "addr:street": "Divisa com Santa Brígida",
      "addr:suburb": "Lagoa Seca",
      "building": "yes",
      "fixme": "Verificar coordenadas",
      "name": "Depisoto de Gad",
      "note": "Sem setor ou quadra no bayface do IBGE 0500-0106P-0-114"
      },
      "geometry": {
         "type": "Point",
         "coordinates": [-38.125688,-9.633431]
      }
    },
    {
      "type": "Feature",
      "properties": { 
      "IBGE:COD_UNICO_ENDERECO": "192023259",
      "addr:housenumber": "40",
      "addr:postcode": "48610-488",
      "addr:street": "Estrada Para Barriga 2",
      "addr:suburb": "Lagoa Seca",
      "building": "yes",
      "fixme": "Verificar coordenadas",
      "note": "Sem setor ou quadra no bayface do IBGE 0500-0106P-0-122"
      },
      "geometry": {
         "type": "Point",
         "coordinates": [-38.129063,-9.640273]
      }
    },
    {
      "type": "Feature",
      "properties": { 
      "IBGE:COD_UNICO_ENDERECO": "192023242",
      "addr:housenumber": "18",
      "addr:postcode": "48610-488",
      "addr:street": "Cruzamento Malhada da Caiçara",
      "addr:suburb": "Lagoa Seca",
      "building": "yes",
      "fixme": "Verificar coordenadas",
      "note": "Sem setor ou quadra no bayface do IBGE 0500-0106P-0-118"
      },
      "geometry": {
         "type": "Point",
         "coordinates": [-38.125631,-9.635395]
      }
    },
    {
      "type": "Feature",
      "properties": { 
      "IBGE:COD_UNICO_ENDERECO": "27411722",
      "addr:housenumber": "2",
      "addr:postcode": "48601-018",
      "addr:street": "Divisa com Santa Brígida",
      "addr:suburb": "Lagoa Seca",
      "building": "yes",
      "fixme": "Verificar coordenadas",
      "note": "Sem setor ou quadra no bayface do IBGE 0500-0106P-0-114"
      },
      "geometry": {
         "type": "Point",
         "coordinates": [-38.125532,-9.633099]
      }
    },
    {
      "type": "Feature",
      "properties": { 
      "IBGE:COD_UNICO_ENDERECO": "192023263",
      "addr:housenumber": "307",
      "addr:postcode": "48610-488",
      "addr:street": "Estrada Santa Brígida",
      "addr:suburb": "Lagoa Seca",
      "building": "yes",
      "fixme": "Verificar coordenadas",
      "note": "Sem setor ou quadra no bayface do IBGE 0500-0106P-0-123"
      },
      "geometry": {
         "type": "Point",
         "coordinates": [-38.12908,-9.640271]
      }
    },
    {
      "type": "Feature",
      "properties": { 
      "IBGE:COD_UNICO_ENDERECO": "27411727",
      "addr:housenumber": "9",
      "addr:postcode": "48601-016",
      "addr:street": "Divisa com Santa Brígida",
      "addr:suburb": "Lagoa Seca",
      "building": "yes",
      "fixme": "Verificar coordenadas",
      "name": "Associação de Moradores",
      "note": "Sem setor ou quadra no bayface do IBGE 0500-0106P-0-115",
      "office": "association"
      },
      "geometry": {
         "type": "Point",
         "coordinates": [-38.125703,-9.633675]
      }
    },
    {
      "type": "Feature",
      "properties": { 
      "IBGE:COD_UNICO_ENDERECO": "192023221",
      "addr:housenumber": "10",
      "addr:postcode": "48610-488",
      "addr:street": "Divisa com Santa Brígida",
      "addr:suburb": "Lagoa Seca",
      "building": "yes",
      "fixme": "Verificar coordenadas",
      "note": "Sem setor ou quadra no bayface do IBGE 0500-0106P-0-116"
      },
      "geometry": {
         "type": "Point",
         "coordinates": [-38.125727,-9.633773]
      }
    },
    {
      "type": "Feature",
      "properties": { 
      "IBGE:COD_UNICO_ENDERECO": "192024556",
      "addr:housenumber": "24",
      "addr:postcode": "48610-488",
      "addr:street": "Outros Divisa com Santa Brígida",
      "addr:suburb": "Lagoa Seca",
      "building": "yes",
      "fixme": "Verificar coordenadas",
      "note": "Sem setor ou quadra no bayface do IBGE 0500-0106P-0-211"
      },
      "geometry": {
         "type": "Point",
         "coordinates": [-38.123676,-9.634201]
      }
    },
    {
      "type": "Feature",
      "properties": { 
      "IBGE:COD_UNICO_ENDERECO": "27411728",
      "addr:housenumber": "23",
      "addr:postcode": "48601-018",
      "addr:street": "Divisa com Santa Brígida",
      "addr:suburb": "Lagoa Seca",
      "building": "yes",
      "fixme": "Verificar coordenadas",
      "note": "Sem setor ou quadra no bayface do IBGE 0500-0106P-0-114"
      },
      "geometry": {
         "type": "Point",
         "coordinates": [-38.124661,-9.63421]
      }
    }
  ]
}
