{
  "type": "FeatureCollection",
  "generator": "CSV-CNEFE2GeoJSON.lua 1.5.7 - fidelis.assis@gmail.com",
  "source": "IBGE CNEFE + Faces de Logradouros - 2022",
  "date": "2025-02-02T09:05:32-0300",
  "features": [
    {
      "type": "Feature",
      "properties": { 
      "IBGE:COD_UNICO_ENDERECO": "191542305",
      "addr:housenumber": "6",
      "addr:postcode": "48619-899",
      "addr:suburb": "Rio do Sal",
      "addr:unit": "Casa Sms 12",
      "building": "yes"
      },
      "geometry": {
         "type": "Point",
         "coordinates": [-38.1695674,-9.4574102]
      }
    },
    {
      "type": "Feature",
      "properties": { 
      "IBGE:COD_UNICO_ENDERECO": "191542706",
      "addr:housenumber": "34",
      "addr:postcode": "48619-899",
      "addr:suburb": "Rio do Sal",
      "addr:unit": "Casa 59 Sms",
      "building": "yes",
      "fixme": "Verificar coordenadas",
      "note": "Sem dados para mover para dentro da quadra 0500-0099P-4-1"
      },
      "geometry": {
         "type": "Point",
         "coordinates": [-38.1676206,-9.4582315]
      }
    },
    {
      "type": "Feature",
      "properties": { 
      "IBGE:COD_UNICO_ENDERECO": "191542638",
      "addr:housenumber": "111",
      "addr:postcode": "48619-899",
      "addr:suburb": "Rio do Sal",
      "addr:unit": "Casa 66 Sms",
      "building": "yes"
      },
      "geometry": {
         "type": "Point",
         "coordinates": [-38.1676256,-9.456578]
      }
    },
    {
      "type": "Feature",
      "properties": { 
      "IBGE:COD_UNICO_ENDERECO": "191542427",
      "addr:housenumber": "31",
      "addr:postcode": "48619-899",
      "addr:suburb": "Rio do Sal",
      "building": "yes"
      },
      "geometry": {
         "type": "Point",
         "coordinates": [-38.1676863,-9.4582992]
      }
    }
  ]
}
