{
  "type": "FeatureCollection",
  "source": "IBGE CNEFE + Faces de Logradouros - 2022",
  "generator": "CSV-CNEFE2GeoJSON.lua 1.5.7 - fidelis.assis@gmail.com",
  "date": "2025-02-02T09:05:27-0300",
  "features": [
    {
      "type": "Feature",
      "properties": { 
      "IBGE:COD_UNICO_ENDERECO": "191742729",
      "addr:housenumber": "19",
      "addr:postcode": "48604-710",
      "addr:street": "Estrada do Matadouro",
      "addr:suburb": "Matadouro",
      "fixme": "Verificar coordenadas",
      "landuse": "farmyard;orchard",
      "name": "Ch√°cara O Pantanal",
      "note": "Sem face no bayface do IBGE 0500-0192P-13-1"
      },
      "geometry": {
         "type": "Point",
         "coordinates": [-38.250602,-9.37043]
      }
    },
    {
      "type": "Feature",
      "properties": { 
      "IBGE:COD_UNICO_ENDERECO": "27422129",
      "addr:housenumber": "16",
      "addr:postcode": "48604-710",
      "addr:street": "Estrada do Matadouro",
      "addr:suburb": "Matadouro",
      "building": "yes",
      "fixme": "Verificar coordenadas",
      "note": "Sem face no bayface do IBGE 0500-0192P-13-1"
      },
      "geometry": {
         "type": "Point",
         "coordinates": [-38.250675,-9.370869]
      }
    }
  ]
}
