{
  "type": "FeatureCollection",
  "generator": "CSV-CNEFE2GeoJSON.lua 1.5.7 - fidelis.assis@gmail.com",
  "source": "IBGE CNEFE + Faces de Logradouros - 2022",
  "date": "2025-02-02T09:05:29-0300",
  "features": [
    {
      "type": "Feature",
      "properties": { 
      "IBGE:COD_UNICO_ENDERECO": "27412957",
      "addr:housenumber": "2",
      "addr:postcode": "48619-899",
      "addr:street": "Povoado Alagadiço",
      "addr:suburb": "Paulo Afonso Alagadiço",
      "addr:unit": "Fundos",
      "building": "yes",
      "fixme": "Verificar coordenadas",
      "name": "Criação de Enfordas",
      "note": "Sem setor ou quadra no bayface do IBGE 0500-0111P-0-95"
      },
      "geometry": {
         "type": "Point",
         "coordinates": [-38.378486,-9.529746]
      }
    },
    {
      "type": "Feature",
      "properties": { 
      "IBGE:COD_UNICO_ENDERECO": "27412944",
      "addr:housenumber": "12",
      "addr:postcode": "48619-899",
      "addr:street": "Povoado Alagadiço",
      "addr:suburb": "Paulo Afonso Alagadiço",
      "addr:unit": "Casa",
      "building": "yes",
      "fixme": "Verificar coordenadas",
      "note": "Sem setor ou quadra no bayface do IBGE 0500-0111P-0-95"
      },
      "geometry": {
         "type": "Point",
         "coordinates": [-38.382744,-9.531133]
      }
    },
    {
      "type": "Feature",
      "properties": { 
      "IBGE:COD_UNICO_ENDERECO": "27412935",
      "addr:housenumber": "400 A",
      "addr:postcode": "48619-899",
      "addr:street": "Povoado Alagadiço",
      "addr:suburb": "Paulo Afonso Alagadiço",
      "building": "yes",
      "fixme": "Verificar coordenadas",
      "name": "Plantação Alface",
      "note": "Sem setor ou quadra no bayface do IBGE 0500-0111P-0-95"
      },
      "geometry": {
         "type": "Point",
         "coordinates": [-38.37964,-9.530318]
      }
    },
    {
      "type": "Feature",
      "properties": { 
      "IBGE:COD_UNICO_ENDERECO": "27412960",
      "addr:housenumber": "11",
      "addr:postcode": "48619-899",
      "addr:street": "Povoado Alagadiço",
      "addr:suburb": "Paulo Afonso Alagadiço",
      "addr:unit": "Fundos",
      "building": "yes",
      "fixme": "Verificar coordenadas",
      "note": "Sem setor ou quadra no bayface do IBGE 0500-0111P-0-95"
      },
      "geometry": {
         "type": "Point",
         "coordinates": [-38.379147,-9.527788]
      }
    },
    {
      "type": "Feature",
      "properties": { 
      "IBGE:COD_UNICO_ENDERECO": "27412959",
      "addr:housenumber": "33",
      "addr:postcode": "48619-899",
      "addr:street": "Povoado Alagadiço",
      "addr:suburb": "Paulo Afonso Alagadiço",
      "building": "yes",
      "fixme": "Verificar coordenadas",
      "note": "Sem setor ou quadra no bayface do IBGE 0500-0111P-0-95"
      },
      "geometry": {
         "type": "Point",
         "coordinates": [-38.378341,-9.528493]
      }
    },
    {
      "type": "Feature",
      "properties": { 
      "IBGE:COD_UNICO_ENDERECO": "27412961",
      "addr:housenumber": "12",
      "addr:postcode": "48619-899",
      "addr:street": "Povoado Alagadiço",
      "addr:suburb": "Paulo Afonso Alagadiço",
      "description": "CNEFE 2022 Plantação",
      "fixme": "Verificar coordenadas",
      "landuse": "farmland",
      "note": "Sem setor ou quadra no bayface do IBGE 0500-0111P-0-95"
      },
      "geometry": {
         "type": "Point",
         "coordinates": [-38.378389,-9.528556]
      }
    },
    {
      "type": "Feature",
      "properties": { 
      "IBGE:COD_UNICO_ENDERECO": "27412953",
      "addr:housenumber": "2",
      "addr:postcode": "48619-899",
      "addr:street": "Fazenda Poço da Aroeira",
      "addr:suburb": "Paulo Afonso Alagadiço",
      "addr:unit": "Fazenda Dantas",
      "building": "yes",
      "fixme": "Verificar coordenadas",
      "name": "Abrigo para Animais",
      "note": "Sem setor ou quadra no bayface do IBGE 0500-0111P-0-119"
      },
      "geometry": {
         "type": "Point",
         "coordinates": [-38.438492,-9.54389]
      }
    },
    {
      "type": "Feature",
      "properties": { 
      "IBGE:COD_UNICO_ENDERECO": "27412977",
      "addr:housenumber": "9",
      "addr:postcode": "48619-899",
      "addr:street": "Povoado Alagadiço",
      "addr:suburb": "Paulo Afonso Alagadiço",
      "building": "yes",
      "fixme": "Verificar coordenadas",
      "note": "Sem setor ou quadra no bayface do IBGE 0500-0111P-0-95"
      },
      "geometry": {
         "type": "Point",
         "coordinates": [-38.374646,-9.521191]
      }
    },
    {
      "type": "Feature",
      "properties": { 
      "IBGE:COD_UNICO_ENDERECO": "27412956",
      "addr:housenumber": "16",
      "addr:postcode": "48619-899",
      "addr:street": "Povoado Alagadiço",
      "addr:suburb": "Paulo Afonso Alagadiço",
      "building": "yes",
      "fixme": "Verificar coordenadas",
      "note": "Sem setor ou quadra no bayface do IBGE 0500-0111P-0-95"
      },
      "geometry": {
         "type": "Point",
         "coordinates": [-38.378691,-9.529806]
      }
    },
    {
      "type": "Feature",
      "properties": { 
      "IBGE:COD_UNICO_ENDERECO": "27412938",
      "addr:housenumber": "6",
      "addr:postcode": "48619-899",
      "addr:street": "Povoado Alagadiço",
      "addr:suburb": "Paulo Afonso Alagadiço",
      "building": "yes",
      "fixme": "Verificar coordenadas",
      "note": "Sem setor ou quadra no bayface do IBGE 0500-0111P-0-95"
      },
      "geometry": {
         "type": "Point",
         "coordinates": [-38.380379,-9.53123]
      }
    },
    {
      "type": "Feature",
      "properties": { 
      "IBGE:COD_UNICO_ENDERECO": "27412936",
      "addr:housenumber": "306",
      "addr:postcode": "48619-899",
      "addr:street": "Povoado Alagadiço",
      "addr:suburb": "Paulo Afonso Alagadiço",
      "addr:unit": "Casa",
      "building": "yes",
      "fixme": "Verificar coordenadas",
      "note": "Sem setor ou quadra no bayface do IBGE 0500-0111P-0-95"
      },
      "geometry": {
         "type": "Point",
         "coordinates": [-38.379962,-9.530345]
      }
    },
    {
      "type": "Feature",
      "properties": { 
      "IBGE:COD_UNICO_ENDERECO": "27412940",
      "addr:housenumber": "4",
      "addr:postcode": "48619-899",
      "addr:street": "Povoado Alagadiço",
      "addr:suburb": "Paulo Afonso Alagadiço",
      "addr:unit": "Fundos",
      "building": "yes",
      "fixme": "Verificar coordenadas",
      "note": "Sem setor ou quadra no bayface do IBGE 0500-0111P-0-95"
      },
      "geometry": {
         "type": "Point",
         "coordinates": [-38.381007,-9.531119]
      }
    },
    {
      "type": "Feature",
      "properties": { 
      "IBGE:COD_UNICO_ENDERECO": "112587178",
      "addr:housenumber": "101",
      "addr:postcode": "48619-899",
      "addr:street": "Estrada Estrada Serrote Paulo Afonso",
      "addr:suburb": "Paulo Afonso Alagadiço",
      "building": "yes",
      "fixme": "Verificar coordenadas",
      "note": "Sem setor ou quadra no bayface do IBGE 0500-0111P-0-98"
      },
      "geometry": {
         "type": "Point",
         "coordinates": [-38.378665,-9.527761]
      }
    },
    {
      "type": "Feature",
      "properties": { 
      "IBGE:COD_UNICO_ENDERECO": "27412948",
      "addr:housenumber": "48",
      "addr:postcode": "48619-899",
      "addr:street": "Povoado Alagadiço",
      "addr:suburb": "Paulo Afonso Alagadiço",
      "addr:unit": "Fundos",
      "building": "yes",
      "fixme": "Verificar coordenadas",
      "note": "Sem setor ou quadra no bayface do IBGE 0500-0111P-0-95"
      },
      "geometry": {
         "type": "Point",
         "coordinates": [-38.382435,-9.528894]
      }
    },
    {
      "type": "Feature",
      "properties": { 
      "IBGE:COD_UNICO_ENDERECO": "27412949",
      "addr:housenumber": "49",
      "addr:postcode": "48619-899",
      "addr:street": "Povoado Alagadiço",
      "addr:suburb": "Paulo Afonso Alagadiço",
      "addr:unit": "Fundos",
      "building": "yes",
      "fixme": "Verificar coordenadas",
      "note": "Sem setor ou quadra no bayface do IBGE 0500-0111P-0-95"
      },
      "geometry": {
         "type": "Point",
         "coordinates": [-38.382431,-9.528961]
      }
    },
    {
      "type": "Feature",
      "properties": { 
      "IBGE:COD_UNICO_ENDERECO": "27412946",
      "addr:housenumber": "46",
      "addr:postcode": "48619-899",
      "addr:street": "Povoado Alagadiço",
      "addr:suburb": "Paulo Afonso Alagadiço",
      "addr:unit": "Fundos",
      "building": "yes",
      "fixme": "Verificar coordenadas",
      "note": "Sem setor ou quadra no bayface do IBGE 0500-0111P-0-95"
      },
      "geometry": {
         "type": "Point",
         "coordinates": [-38.380584,-9.530091]
      }
    },
    {
      "type": "Feature",
      "properties": { 
      "IBGE:COD_UNICO_ENDERECO": "27412943",
      "addr:housenumber": "43",
      "addr:postcode": "48619-899",
      "addr:street": "Povoado Alagadiço",
      "addr:suburb": "Paulo Afonso Alagadiço",
      "building": "yes",
      "fixme": "Verificar coordenadas",
      "note": "Sem setor ou quadra no bayface do IBGE 0500-0111P-0-95"
      },
      "geometry": {
         "type": "Point",
         "coordinates": [-38.382666,-9.531322]
      }
    },
    {
      "type": "Feature",
      "properties": { 
      "IBGE:COD_UNICO_ENDERECO": "27412958",
      "addr:housenumber": "32",
      "addr:postcode": "48619-899",
      "addr:street": "Povoado Alagadiço",
      "addr:suburb": "Paulo Afonso Alagadiço",
      "addr:unit": "Fundos",
      "building": "yes",
      "fixme": "Verificar coordenadas",
      "note": "Sem setor ou quadra no bayface do IBGE 0500-0111P-0-95"
      },
      "geometry": {
         "type": "Point",
         "coordinates": [-38.378621,-9.529225]
      }
    },
    {
      "type": "Feature",
      "properties": { 
      "IBGE:COD_UNICO_ENDERECO": "27412941",
      "addr:housenumber": "24 A",
      "addr:postcode": "48619-899",
      "addr:street": "Povoado Alagadiço",
      "addr:suburb": "Paulo Afonso Alagadiço",
      "building": "yes",
      "fixme": "Verificar coordenadas",
      "note": "Sem setor ou quadra no bayface do IBGE 0500-0111P-0-95"
      },
      "geometry": {
         "type": "Point",
         "coordinates": [-38.381547,-9.531101]
      }
    },
    {
      "type": "Feature",
      "properties": { 
      "IBGE:COD_UNICO_ENDERECO": "27412947",
      "addr:housenumber": "3",
      "addr:postcode": "48619-899",
      "addr:street": "Povoado Alagadiço",
      "addr:suburb": "Paulo Afonso Alagadiço",
      "addr:unit": "Fundos",
      "building": "yes",
      "fixme": "Verificar coordenadas",
      "name": "Crianção de Porco",
      "note": "Sem setor ou quadra no bayface do IBGE 0500-0111P-0-95"
      },
      "geometry": {
         "type": "Point",
         "coordinates": [-38.381092,-9.529696]
      }
    }
  ]
}
