{
  "type": "FeatureCollection",
  "generator": "CSV-CNEFE2GeoJSON.lua 1.5.7 - fidelis.assis@gmail.com",
  "source": "IBGE CNEFE + Faces de Logradouros - 2022",
  "date": "2025-02-02T09:05:28-0300",
  "features": [
    {
      "type": "Feature",
      "properties": { 
      "IBGE:COD_UNICO_ENDERECO": "27467735",
      "addr:housenumber": "9",
      "addr:postcode": "48603-465",
      "addr:street": "Avenida Deputado Ulísses Guimarães",
      "addr:suburb": "Parque de Exposições",
      "building": "yes",
      "fixme": "Verificar coordenadas",
      "note": "Sem face no bayface do IBGE 0500-0158P-6-7"
      },
      "geometry": {
         "type": "Point",
         "coordinates": [-38.235665,-9.411618]
      }
    },
    {
      "type": "Feature",
      "properties": { 
      "IBGE:COD_UNICO_ENDERECO": "27467840",
      "addr:housenumber": "102",
      "addr:postcode": "48603-465",
      "addr:street": "Avenida Deputado Ulísses Guimarães",
      "addr:suburb": "Parque de Exposições",
      "building": "yes",
      "fixme": "Verificar coordenadas",
      "note": "Sem face no bayface do IBGE 0500-0158P-6-7"
      },
      "geometry": {
         "type": "Point",
         "coordinates": [-38.235682,-9.41153]
      }
    },
    {
      "type": "Feature",
      "properties": { 
      "IBGE:COD_UNICO_ENDERECO": "27468073",
      "addr:housenumber": "70",
      "addr:postcode": "48603-465",
      "addr:street": "Avenida Deputado Ulísses Guimarães",
      "addr:suburb": "Parque de Exposições",
      "building": "yes",
      "fixme": "Verificar coordenadas",
      "note": "Sem face no bayface do IBGE 0500-0158P-6-7"
      },
      "geometry": {
         "type": "Point",
         "coordinates": [-38.237053,-9.410505]
      }
    },
    {
      "type": "Feature",
      "properties": { 
      "IBGE:COD_UNICO_ENDERECO": "27467861",
      "addr:housenumber": "2",
      "addr:postcode": "48603-465",
      "addr:street": "Avenida Deputado Ulísses Guimarães",
      "addr:suburb": "Parque de Exposições",
      "addr:unit": "Casa 1",
      "building": "yes",
      "fixme": "Verificar coordenadas",
      "note": "Sem face no bayface do IBGE 0500-0158P-6-7"
      },
      "geometry": {
         "type": "Point",
         "coordinates": [-38.235774,-9.411266]
      }
    },
    {
      "type": "Feature",
      "properties": { 
      "IBGE:COD_UNICO_ENDERECO": "27467736",
      "addr:housenumber": "8",
      "addr:postcode": "48603-465",
      "addr:street": "Avenida Deputado Ulísses Guimarães",
      "addr:suburb": "Parque de Exposições",
      "building": "yes",
      "fixme": "Verificar coordenadas",
      "note": "Sem face no bayface do IBGE 0500-0158P-6-7"
      },
      "geometry": {
         "type": "Point",
         "coordinates": [-38.235699,-9.411627]
      }
    },
    {
      "type": "Feature",
      "properties": { 
      "IBGE:COD_UNICO_ENDERECO": "27467851",
      "addr:housenumber": "14",
      "addr:postcode": "48603-465",
      "addr:street": "Avenida Deputado Ulísses Guimarães",
      "addr:suburb": "Parque de Exposições",
      "building": "yes",
      "fixme": "Verificar coordenadas",
      "note": "Sem face no bayface do IBGE 0500-0158P-6-7"
      },
      "geometry": {
         "type": "Point",
         "coordinates": [-38.235951,-9.411633]
      }
    },
    {
      "type": "Feature",
      "properties": { 
      "IBGE:COD_UNICO_ENDERECO": "27467867",
      "addr:housenumber": "88",
      "addr:postcode": "48603-465",
      "addr:street": "Avenida Deputado Ulísses Guimarães",
      "addr:suburb": "Parque de Exposições",
      "addr:unit": "Casa 7",
      "building": "yes",
      "fixme": "Verificar coordenadas",
      "note": "Sem face no bayface do IBGE 0500-0158P-6-7"
      },
      "geometry": {
         "type": "Point",
         "coordinates": [-38.235868,-9.411708]
      }
    },
    {
      "type": "Feature",
      "properties": { 
      "IBGE:COD_UNICO_ENDERECO": "27467843",
      "addr:housenumber": "69",
      "addr:postcode": "48603-465",
      "addr:street": "Avenida Deputado Ulísses Guimarães",
      "addr:suburb": "Parque de Exposições",
      "building": "yes",
      "fixme": "Verificar coordenadas",
      "note": "Sem face no bayface do IBGE 0500-0158P-6-7"
      },
      "geometry": {
         "type": "Point",
         "coordinates": [-38.236723,-9.41014]
      }
    },
    {
      "type": "Feature",
      "properties": { 
      "IBGE:COD_UNICO_ENDERECO": "27467859",
      "addr:housenumber": "83",
      "addr:postcode": "48603-465",
      "addr:street": "Avenida Deputado Ulísses Guimarães",
      "addr:suburb": "Parque de Exposições",
      "building": "yes",
      "fixme": "Verificar coordenadas",
      "note": "Sem face no bayface do IBGE 0500-0158P-6-7"
      },
      "geometry": {
         "type": "Point",
         "coordinates": [-38.235951,-9.411796]
      }
    },
    {
      "type": "Feature",
      "properties": { 
      "IBGE:COD_UNICO_ENDERECO": "27468074",
      "addr:housenumber": "94",
      "addr:postcode": "48603-465",
      "addr:street": "Avenida Deputado Ulísses Guimarães",
      "addr:suburb": "Parque de Exposições",
      "building": "yes",
      "fixme": "Verificar coordenadas",
      "note": "Sem face no bayface do IBGE 0500-0158P-6-7"
      },
      "geometry": {
         "type": "Point",
         "coordinates": [-38.235734,-9.411409]
      }
    },
    {
      "type": "Feature",
      "properties": { 
      "IBGE:COD_UNICO_ENDERECO": "27467857",
      "addr:housenumber": "78",
      "addr:postcode": "48603-465",
      "addr:street": "Avenida Deputado Ulísses Guimarães",
      "addr:suburb": "Parque de Exposições",
      "building": "yes",
      "fixme": "Verificar coordenadas",
      "note": "Sem face no bayface do IBGE 0500-0158P-6-7"
      },
      "geometry": {
         "type": "Point",
         "coordinates": [-38.236013,-9.411346]
      }
    },
    {
      "type": "Feature",
      "properties": { 
      "IBGE:COD_UNICO_ENDERECO": "27467831",
      "addr:housenumber": "100",
      "addr:postcode": "48603-465",
      "addr:street": "Avenida Deputado Ulísses Guimarães",
      "addr:suburb": "Parque de Exposições",
      "addr:unit": "Chalé",
      "building": "yes",
      "fixme": "Verificar coordenadas",
      "note": "Sem face no bayface do IBGE 0500-0158P-6-7"
      },
      "geometry": {
         "type": "Point",
         "coordinates": [-38.235487,-9.411583]
      }
    },
    {
      "type": "Feature",
      "properties": { 
      "IBGE:COD_UNICO_ENDERECO": "27467848",
      "addr:housenumber": "71",
      "addr:postcode": "48603-465",
      "addr:street": "Avenida Deputado Ulísses Guimarães",
      "addr:suburb": "Parque de Exposições",
      "addr:unit": "Casa",
      "building": "yes",
      "fixme": "Verificar coordenadas",
      "note": "Sem face no bayface do IBGE 0500-0158P-6-7"
      },
      "geometry": {
         "type": "Point",
         "coordinates": [-38.237052,-9.410484]
      }
    },
    {
      "type": "Feature",
      "properties": { 
      "IBGE:COD_UNICO_ENDERECO": "27467832",
      "addr:housenumber": "97",
      "addr:postcode": "48603-465",
      "addr:street": "Avenida Deputado Ulísses Guimarães",
      "addr:suburb": "Parque de Exposições",
      "addr:unit": "Chalé",
      "building": "yes",
      "fixme": "Verificar coordenadas",
      "note": "Sem face no bayface do IBGE 0500-0158P-6-7"
      },
      "geometry": {
         "type": "Point",
         "coordinates": [-38.235665,-9.411731]
      }
    },
    {
      "type": "Feature",
      "properties": { 
      "IBGE:COD_UNICO_ENDERECO": "27468063",
      "addr:housenumber": "93",
      "addr:postcode": "48603-465",
      "addr:street": "Avenida Deputado Ulísses Guimarães",
      "addr:suburb": "Parque de Exposições",
      "addr:unit": "Casa 2",
      "building": "yes",
      "fixme": "Verificar coordenadas",
      "note": "Sem face no bayface do IBGE 0500-0158P-6-7"
      },
      "geometry": {
         "type": "Point",
         "coordinates": [-38.235741,-9.411361]
      }
    },
    {
      "type": "Feature",
      "properties": { 
      "IBGE:COD_UNICO_ENDERECO": "27467734",
      "addr:housenumber": "5",
      "addr:postcode": "48603-465",
      "addr:street": "Avenida Deputado Ulísses Guimarães",
      "addr:suburb": "Parque de Exposições",
      "building": "yes",
      "fixme": "Verificar coordenadas",
      "note": "Sem face no bayface do IBGE 0500-0158P-6-7"
      },
      "geometry": {
         "type": "Point",
         "coordinates": [-38.235712,-9.411417]
      }
    },
    {
      "type": "Feature",
      "properties": { 
      "IBGE:COD_UNICO_ENDERECO": "27467833",
      "addr:housenumber": "91",
      "addr:postcode": "48603-465",
      "addr:street": "Avenida Deputado Ulísses Guimarães",
      "addr:suburb": "Parque de Exposições",
      "addr:unit": "Chalé",
      "building": "yes",
      "fixme": "Verificar coordenadas",
      "note": "Sem face no bayface do IBGE 0500-0158P-6-7"
      },
      "geometry": {
         "type": "Point",
         "coordinates": [-38.235821,-9.411805]
      }
    },
    {
      "type": "Feature",
      "properties": { 
      "IBGE:COD_UNICO_ENDERECO": "27467856",
      "addr:housenumber": "90",
      "addr:postcode": "48603-465",
      "addr:street": "Avenida Deputado Ulísses Guimarães",
      "addr:suburb": "Parque de Exposições",
      "addr:unit": "Casa 5",
      "building": "warehouse",
      "description": "CNEFE 2022 Depósito",
      "fixme": "Verificar coordenadas",
      "note": "Sem face no bayface do IBGE 0500-0158P-6-7"
      },
      "geometry": {
         "type": "Point",
         "coordinates": [-38.235867,-9.411753]
      }
    },
    {
      "type": "Feature",
      "properties": { 
      "IBGE:COD_UNICO_ENDERECO": "27468066",
      "addr:housenumber": "68",
      "addr:postcode": "48603-465",
      "addr:street": "Avenida Deputado Ulísses Guimarães",
      "addr:suburb": "Parque de Exposições",
      "addr:unit": "Casa 2",
      "building": "yes",
      "fixme": "Verificar coordenadas",
      "note": "Sem face no bayface do IBGE 0500-0158P-6-7"
      },
      "geometry": {
         "type": "Point",
         "coordinates": [-38.236785,-9.410146]
      }
    },
    {
      "type": "Feature",
      "properties": { 
      "IBGE:COD_UNICO_ENDERECO": "27468056",
      "addr:housenumber": "65",
      "addr:postcode": "48603-465",
      "addr:street": "Avenida Deputado Ulísses Guimarães",
      "addr:suburb": "Parque de Exposições",
      "building": "yes",
      "fixme": "Verificar coordenadas",
      "name": "Loja de Veículos",
      "note": "Sem face no bayface do IBGE 0500-0158P-6-7",
      "shop": "car"
      },
      "geometry": {
         "type": "Point",
         "coordinates": [-38.23617,-9.409922]
      }
    }
  ]
}
