{
  "type": "FeatureCollection",
  "source": "IBGE CNEFE + Faces de Logradouros - 2022",
  "generator": "CSV-CNEFE2GeoJSON.lua 1.5.7 - fidelis.assis@gmail.com",
  "date": "2025-02-02T09:05:06-0300",
  "features": [
    {
      "type": "Feature",
      "properties": { 
      "IBGE:COD_UNICO_ENDERECO": "215075735",
      "addr:housenumber": "156",
      "addr:postcode": "48605-280",
      "addr:street": "Rua Canadá",
      "addr:suburb": "Abel Barbosa",
      "building": "yes"
      },
      "geometry": {
         "type": "Point",
         "coordinates": [-38.2277855,-9.3926791]
      }
    },
    {
      "type": "Feature",
      "properties": { 
      "IBGE:COD_UNICO_ENDERECO": "223783480",
      "addr:housenumber": "3",
      "addr:postcode": "48605-245",
      "addr:street": "Rua Itália",
      "addr:suburb": "Abel Barbosa",
      "addr:unit": "Fundos Casa 1",
      "building": "yes"
      },
      "geometry": {
         "type": "Point",
         "coordinates": [-38.2293068,-9.3912577]
      }
    },
    {
      "type": "Feature",
      "properties": { 
      "IBGE:COD_UNICO_ENDERECO": "215075759",
      "addr:housenumber": "2",
      "addr:postcode": "48605-280",
      "addr:street": "Rua Canadá",
      "addr:suburb": "Abel Barbosa",
      "addr:unit": "Garagem",
      "building": "yes"
      },
      "geometry": {
         "type": "Point",
         "coordinates": [-38.227648,-9.3933799]
      }
    },
    {
      "type": "Feature",
      "properties": { 
      "IBGE:COD_UNICO_ENDERECO": "27304582",
      "addr:housenumber": "117",
      "addr:postcode": "48605-230",
      "addr:street": "Rua Paraguai",
      "addr:suburb": "Abel Barbosa",
      "building": "yes"
      },
      "geometry": {
         "type": "Point",
         "coordinates": [-38.2293929,-9.3936569]
      }
    },
    {
      "type": "Feature",
      "properties": { 
      "IBGE:COD_UNICO_ENDERECO": "215075635",
      "addr:housenumber": "77",
      "addr:postcode": "48605-290",
      "addr:street": "Rua Argentina",
      "addr:suburb": "Abel Barbosa",
      "addr:unit": "Casa C",
      "building": "yes"
      },
      "geometry": {
         "type": "Point",
         "coordinates": [-38.2280998,-9.3922193]
      }
    },
    {
      "type": "Feature",
      "properties": { 
      "IBGE:COD_UNICO_ENDERECO": "223783470",
      "addr:housenumber": "11",
      "addr:postcode": "48605-245",
      "addr:street": "Rua Itália",
      "addr:suburb": "Abel Barbosa",
      "building": "yes"
      },
      "geometry": {
         "type": "Point",
         "coordinates": [-38.2293163,-9.3915681]
      }
    },
    {
      "type": "Feature",
      "properties": { 
      "IBGE:COD_UNICO_ENDERECO": "27364120",
      "addr:housenumber": "11",
      "addr:postcode": "48605-355",
      "addr:street": "Rua Chile",
      "addr:suburb": "Abel Barbosa",
      "building": "yes"
      },
      "geometry": {
         "type": "Point",
         "coordinates": [-38.2276455,-9.3934607]
      }
    },
    {
      "type": "Feature",
      "properties": { 
      "IBGE:COD_UNICO_ENDERECO": "27364079",
      "addr:housenumber": "77",
      "addr:postcode": "48605-290",
      "addr:street": "Rua Argentina",
      "addr:suburb": "Abel Barbosa",
      "building": "yes"
      },
      "geometry": {
         "type": "Point",
         "coordinates": [-38.2283014,-9.3917707]
      }
    },
    {
      "type": "Feature",
      "properties": { 
      "IBGE:COD_UNICO_ENDERECO": "223783517",
      "addr:housenumber": "92",
      "addr:postcode": "48605-400",
      "addr:street": "Rua Lago Azul",
      "addr:suburb": "Abel Barbosa",
      "building": "yes"
      },
      "geometry": {
         "type": "Point",
         "coordinates": [-38.2291807,-9.3895724]
      }
    },
    {
      "type": "Feature",
      "properties": { 
      "IBGE:COD_UNICO_ENDERECO": "215075660",
      "addr:housenumber": "20",
      "addr:postcode": "48605-290",
      "addr:street": "Rua Argentina",
      "addr:suburb": "Abel Barbosa",
      "building": "yes"
      },
      "geometry": {
         "type": "Point",
         "coordinates": [-38.2281305,-9.3917646]
      }
    },
    {
      "type": "Feature",
      "properties": { 
      "IBGE:COD_UNICO_ENDERECO": "27304598-27304599",
      "addr:housenumber": "37",
      "addr:postcode": "48605-245",
      "addr:street": "Rua Itália",
      "addr:suburb": "Abel Barbosa",
      "building": "yes"
      },
      "geometry": {
         "type": "Point",
         "coordinates": [-38.2292683,-9.3919183]
      }
    },
    {
      "type": "Feature",
      "properties": { 
      "IBGE:COD_UNICO_ENDERECO": "27304561",
      "addr:housenumber": "28",
      "addr:postcode": "48605-230",
      "addr:street": "Rua Paraguai",
      "addr:suburb": "Abel Barbosa",
      "building": "yes"
      },
      "geometry": {
         "type": "Point",
         "coordinates": [-38.2294224,-9.3931704]
      }
    },
    {
      "type": "Feature",
      "properties": { 
      "IBGE:COD_UNICO_ENDERECO": "27304666",
      "addr:housenumber": "115",
      "addr:postcode": "48605-225",
      "addr:street": "Rua dos Expedicionários",
      "addr:suburb": "Abel Barbosa",
      "building": "yes"
      },
      "geometry": {
         "type": "Point",
         "coordinates": [-38.2305665,-9.3921272]
      }
    },
    {
      "type": "Feature",
      "properties": { 
      "IBGE:COD_UNICO_ENDERECO": "223783458",
      "addr:housenumber": "14 A",
      "addr:postcode": "48605-235",
      "addr:street": "Rua Argélia",
      "addr:suburb": "Abel Barbosa",
      "building": "yes"
      },
      "geometry": {
         "type": "Point",
         "coordinates": [-38.2296404,-9.3924547]
      }
    },
    {
      "type": "Feature",
      "properties": { 
      "IBGE:COD_UNICO_ENDERECO": "27364076",
      "addr:housenumber": "139",
      "addr:postcode": "48605-290",
      "addr:street": "Rua Argentina",
      "addr:suburb": "Abel Barbosa",
      "building": "yes"
      },
      "geometry": {
         "type": "Point",
         "coordinates": [-38.228368,-9.3911681]
      }
    },
    {
      "type": "Feature",
      "properties": { 
      "IBGE:COD_UNICO_ENDERECO": "217976870",
      "addr:housenumber": "49",
      "addr:postcode": "48605-360",
      "addr:street": "Rua Lago Ipanema",
      "addr:suburb": "Abel Barbosa",
      "building": "yes",
      "fixme": "Verificar coordenadas",
      "note": "Sem face no bayface do IBGE 0500-0060P-25-11"
      },
      "geometry": {
         "type": "Point",
         "coordinates": [-38.222393,-9.391812]
      }
    },
    {
      "type": "Feature",
      "properties": { 
      "IBGE:COD_UNICO_ENDERECO": "27364123",
      "addr:housenumber": "396",
      "addr:postcode": "48605-280",
      "addr:street": "Rua Canadá",
      "addr:suburb": "Abel Barbosa",
      "building": "yes"
      },
      "geometry": {
         "type": "Point",
         "coordinates": [-38.227544,-9.3930163]
      }
    },
    {
      "type": "Feature",
      "properties": { 
      "IBGE:COD_UNICO_ENDERECO": "27364059",
      "addr:housenumber": "28 Térreo",
      "addr:postcode": "48605-240",
      "addr:street": "Rua Portugal",
      "addr:suburb": "Abel Barbosa",
      "building": "yes"
      },
      "geometry": {
         "type": "Point",
         "coordinates": [-38.2286953,-9.3922005]
      }
    },
    {
      "type": "Feature",
      "properties": { 
      "IBGE:COD_UNICO_ENDERECO": "27304574",
      "addr:housenumber": "76",
      "addr:postcode": "48605-220",
      "addr:street": "Rua Holanda",
      "addr:suburb": "Abel Barbosa",
      "building": "yes"
      },
      "geometry": {
         "type": "Point",
         "coordinates": [-38.2290058,-9.393172]
      }
    },
    {
      "type": "Feature",
      "properties": { 
      "IBGE:COD_UNICO_ENDERECO": "27364046",
      "addr:housenumber": "177",
      "addr:postcode": "48605-240",
      "addr:street": "Rua Portugal",
      "addr:suburb": "Abel Barbosa",
      "building": "yes"
      },
      "geometry": {
         "type": "Point",
         "coordinates": [-38.2286439,-9.3926925]
      }
    },
    {
      "type": "Feature",
      "properties": { 
      "IBGE:COD_UNICO_ENDERECO": "27364107",
      "addr:housenumber": "91",
      "addr:postcode": "48605-290",
      "addr:street": "Rua Argentina",
      "addr:suburb": "Abel Barbosa",
      "building": "yes"
      },
      "geometry": {
         "type": "Point",
         "coordinates": [-38.2280889,-9.3923806]
      }
    },
    {
      "type": "Feature",
      "properties": { 
      "IBGE:COD_UNICO_ENDERECO": "215075841",
      "addr:housenumber": "340",
      "addr:postcode": "48605-280",
      "addr:street": "Rua Canadá",
      "addr:suburb": "Abel Barbosa",
      "building": "yes"
      },
      "geometry": {
         "type": "Point",
         "coordinates": [-38.227649,-9.3924932]
      }
    },
    {
      "type": "Feature",
      "properties": { 
      "IBGE:COD_UNICO_ENDERECO": "27304560",
      "addr:housenumber": "13",
      "addr:postcode": "48605-235",
      "addr:street": "Rua Argélia",
      "addr:suburb": "Abel Barbosa",
      "building": "yes"
      },
      "geometry": {
         "type": "Point",
         "coordinates": [-38.2297708,-9.3924638]
      }
    },
    {
      "type": "Feature",
      "properties": { 
      "IBGE:COD_UNICO_ENDERECO": "215075859",
      "addr:housenumber": "300",
      "addr:postcode": "48605-280",
      "addr:street": "Rua Canadá",
      "addr:suburb": "Abel Barbosa",
      "building": "yes"
      },
      "geometry": {
         "type": "Point",
         "coordinates": [-38.2277195,-9.3921345]
      }
    },
    {
      "type": "Feature",
      "properties": { 
      "IBGE:COD_UNICO_ENDERECO": "27304672",
      "addr:housenumber": "4",
      "addr:postcode": "48605-225",
      "addr:street": "Rua dos Expedicionários",
      "addr:suburb": "Abel Barbosa",
      "building": "yes"
      },
      "geometry": {
         "type": "Point",
         "coordinates": [-38.2314338,-9.3921708]
      }
    },
    {
      "type": "Feature",
      "properties": { 
      "IBGE:COD_UNICO_ENDERECO": "27304628",
      "addr:housenumber": "15",
      "addr:postcode": "48605-235",
      "addr:street": "Rua Argélia",
      "addr:suburb": "Abel Barbosa",
      "building": "yes"
      },
      "geometry": {
         "type": "Point",
         "coordinates": [-38.2290485,-9.3924241]
      }
    },
    {
      "type": "Feature",
      "properties": { 
      "IBGE:COD_UNICO_ENDERECO": "27304589",
      "addr:housenumber": "166 A",
      "addr:postcode": "48605-355",
      "addr:street": "Rua Chile",
      "addr:suburb": "Abel Barbosa",
      "building": "yes"
      },
      "geometry": {
         "type": "Point",
         "coordinates": [-38.2289621,-9.3941811]
      }
    },
    {
      "type": "Feature",
      "properties": { 
      "IBGE:COD_UNICO_ENDERECO": "215075823",
      "addr:housenumber": "350",
      "addr:postcode": "48605-280",
      "addr:street": "Rua Canadá",
      "addr:suburb": "Abel Barbosa",
      "building": "yes"
      },
      "geometry": {
         "type": "Point",
         "coordinates": [-38.2276265,-9.3926077]
      }
    },
    {
      "type": "Feature",
      "properties": { 
      "IBGE:COD_UNICO_ENDERECO": "215075509",
      "addr:housenumber": "191",
      "addr:postcode": "48605-290",
      "addr:street": "Rua Argentina",
      "addr:suburb": "Abel Barbosa",
      "building": "yes"
      },
      "geometry": {
         "type": "Point",
         "coordinates": [-38.2284157,-9.3907377]
      }
    },
    {
      "type": "Feature",
      "properties": { 
      "IBGE:COD_UNICO_ENDERECO": "27304553",
      "addr:housenumber": "8",
      "addr:postcode": "48605-310",
      "addr:street": "Rua França",
      "addr:suburb": "Abel Barbosa",
      "building": "yes"
      },
      "geometry": {
         "type": "Point",
         "coordinates": [-38.2298067,-9.3922818]
      }
    },
    {
      "type": "Feature",
      "properties": { 
      "IBGE:COD_UNICO_ENDERECO": "27364039",
      "addr:housenumber": "74",
      "addr:postcode": "48605-355",
      "addr:street": "Rua Chile",
      "addr:suburb": "Abel Barbosa",
      "building": "yes"
      },
      "geometry": {
         "type": "Point",
         "coordinates": [-38.2283104,-9.3938114]
      }
    },
    {
      "type": "Feature",
      "properties": { 
      "IBGE:COD_UNICO_ENDERECO": "223783521",
      "addr:housenumber": "190",
      "addr:postcode": "48605-400",
      "addr:street": "Rua Lago Azul",
      "addr:suburb": "Abel Barbosa",
      "building": "yes"
      },
      "geometry": {
         "type": "Point",
         "coordinates": [-38.2290795,-9.3903233]
      }
    },
    {
      "type": "Feature",
      "properties": { 
      "IBGE:COD_UNICO_ENDERECO": "27364085",
      "addr:housenumber": "27",
      "addr:postcode": "48605-290",
      "addr:street": "Rua Argentina",
      "addr:suburb": "Abel Barbosa",
      "building": "yes"
      },
      "geometry": {
         "type": "Point",
         "coordinates": [-38.2282561,-9.3921796]
      }
    },
    {
      "type": "Feature",
      "properties": { 
      "IBGE:COD_UNICO_ENDERECO": "27304565",
      "addr:housenumber": "27",
      "addr:postcode": "48605-230",
      "addr:street": "Rua Paraguai",
      "addr:suburb": "Abel Barbosa",
      "building": "yes"
      },
      "geometry": {
         "type": "Point",
         "coordinates": [-38.2294469,-9.3927652]
      }
    },
    {
      "type": "Feature",
      "properties": { 
      "IBGE:COD_UNICO_ENDERECO": "27364106",
      "addr:housenumber": "105",
      "addr:postcode": "48605-290",
      "addr:street": "Rua Argentina",
      "addr:suburb": "Abel Barbosa",
      "building": "yes"
      },
      "geometry": {
         "type": "Point",
         "coordinates": [-38.2280826,-9.3924736]
      }
    },
    {
      "type": "Feature",
      "properties": { 
      "IBGE:COD_UNICO_ENDERECO": "215075529",
      "addr:housenumber": "51 Térreo Casa no Fund",
      "addr:postcode": "48605-290",
      "addr:street": "Rua Argentina",
      "addr:suburb": "Abel Barbosa",
      "building": "yes"
      },
      "geometry": {
         "type": "Point",
         "coordinates": [-38.2282827,-9.3919398]
      }
    },
    {
      "type": "Feature",
      "properties": { 
      "IBGE:COD_UNICO_ENDERECO": "27304548",
      "addr:housenumber": "111",
      "addr:postcode": "48605-235",
      "addr:street": "Rua Argélia",
      "addr:suburb": "Abel Barbosa",
      "building": "yes"
      },
      "geometry": {
         "type": "Point",
         "coordinates": [-38.2302348,-9.3925407]
      }
    },
    {
      "type": "Feature",
      "properties": { 
      "IBGE:COD_UNICO_ENDERECO": "27304567",
      "addr:housenumber": "14",
      "addr:postcode": "48605-220",
      "addr:street": "Rua Holanda",
      "addr:suburb": "Abel Barbosa",
      "building": "yes"
      },
      "geometry": {
         "type": "Point",
         "coordinates": [-38.2290028,-9.392558]
      }
    },
    {
      "type": "Feature",
      "properties": { 
      "IBGE:COD_UNICO_ENDERECO": "223783483",
      "addr:housenumber": "200",
      "addr:postcode": "48605-240",
      "addr:street": "Rua Portugal",
      "addr:suburb": "Abel Barbosa",
      "building": "yes"
      },
      "geometry": {
         "type": "Point",
         "coordinates": [-38.2289905,-9.3908871]
      }
    },
    {
      "type": "Feature",
      "properties": { 
      "IBGE:COD_UNICO_ENDERECO": "27304647",
      "addr:housenumber": "66",
      "addr:postcode": "48605-400",
      "addr:street": "Rua Lago Azul",
      "addr:suburb": "Abel Barbosa",
      "addr:unit": "Fundos",
      "building": "yes"
      },
      "geometry": {
         "type": "Point",
         "coordinates": [-38.2293098,-9.3891409]
      }
    },
    {
      "type": "Feature",
      "properties": { 
      "IBGE:COD_UNICO_ENDERECO": "27364084",
      "addr:housenumber": "39",
      "addr:postcode": "48605-290",
      "addr:street": "Rua Argentina",
      "addr:suburb": "Abel Barbosa",
      "building": "yes"
      },
      "geometry": {
         "type": "Point",
         "coordinates": [-38.228268,-9.3920718]
      }
    },
    {
      "type": "Feature",
      "properties": { 
      "IBGE:COD_UNICO_ENDERECO": "217976859",
      "addr:housenumber": "54",
      "addr:postcode": "48605-360",
      "addr:street": "Rua Lago Ipanema",
      "addr:suburb": "Abel Barbosa",
      "addr:unit": "Casa 54",
      "building": "yes",
      "fixme": "Verificar coordenadas",
      "note": "Sem face no bayface do IBGE 0500-0060P-25-11"
      },
      "geometry": {
         "type": "Point",
         "coordinates": [-38.222112,-9.391927]
      }
    },
    {
      "type": "Feature",
      "properties": { 
      "IBGE:COD_UNICO_ENDERECO": "27364048",
      "addr:housenumber": "178",
      "addr:postcode": "48605-235",
      "addr:street": "Rua Argélia",
      "addr:suburb": "Abel Barbosa",
      "building": "yes"
      },
      "geometry": {
         "type": "Point",
         "coordinates": [-38.2282065,-9.3924553]
      }
    },
    {
      "type": "Feature",
      "properties": { 
      "IBGE:COD_UNICO_ENDERECO": "27304659",
      "addr:housenumber": "158",
      "addr:postcode": "48605-400",
      "addr:street": "Rua Lago Azul",
      "addr:suburb": "Abel Barbosa",
      "building": "yes"
      },
      "geometry": {
         "type": "Point",
         "coordinates": [-38.2291184,-9.3900135]
      }
    },
    {
      "type": "Feature",
      "properties": { 
      "IBGE:COD_UNICO_ENDERECO": "27304596",
      "addr:housenumber": "75",
      "addr:postcode": "48605-245",
      "addr:street": "Rua Itália",
      "addr:suburb": "Abel Barbosa",
      "building": "yes"
      },
      "geometry": {
         "type": "Point",
         "coordinates": [-38.2292583,-9.3920704]
      }
    },
    {
      "type": "Feature",
      "properties": { 
      "IBGE:COD_UNICO_ENDERECO": "27304619",
      "addr:housenumber": "36",
      "addr:postcode": "48605-240",
      "addr:street": "Rua Portugal",
      "addr:suburb": "Abel Barbosa",
      "building": "yes"
      },
      "geometry": {
         "type": "Point",
         "coordinates": [-38.2289299,-9.3914757]
      }
    },
    {
      "type": "Feature",
      "properties": { 
      "IBGE:COD_UNICO_ENDERECO": "223783481",
      "addr:housenumber": "3",
      "addr:postcode": "48605-245",
      "addr:street": "Rua Itália",
      "addr:suburb": "Abel Barbosa",
      "addr:unit": "Fundos Casa 4",
      "building": "yes"
      },
      "geometry": {
         "type": "Point",
         "coordinates": [-38.229306755834,-9.3912578616562]
      }
    },
    {
      "type": "Feature",
      "properties": { 
      "IBGE:COD_UNICO_ENDERECO": "217976700",
      "addr:housenumber": "90",
      "addr:postcode": "48605-215",
      "addr:street": "Rua Chile",
      "addr:suburb": "Abel Barbosa",
      "building": "yes",
      "fixme": "Verificar coordenadas",
      "note": "Sem dados para mover para dentro da quadra 0500-0060P-25-2"
      },
      "geometry": {
         "type": "Point",
         "coordinates": [-38.2309097,-9.3946849]
      }
    },
    {
      "type": "Feature",
      "properties": { 
      "IBGE:COD_UNICO_ENDERECO": "27304661",
      "addr:housenumber": "15",
      "addr:postcode": "48605-225",
      "addr:street": "Rua dos Expedicionários",
      "addr:suburb": "Abel Barbosa",
      "building": "yes"
      },
      "geometry": {
         "type": "Point",
         "coordinates": [-38.2301004,-9.3921038]
      }
    },
    {
      "type": "Feature",
      "properties": { 
      "IBGE:COD_UNICO_ENDERECO": "215075720",
      "addr:housenumber": "105 B",
      "addr:postcode": "48605-280",
      "addr:street": "Rua Canadá",
      "addr:suburb": "Abel Barbosa",
      "building": "construction"
      },
      "geometry": {
         "type": "Point",
         "coordinates": [-38.2278251,-9.3924728]
      }
    },
    {
      "type": "Feature",
      "properties": { 
      "IBGE:COD_UNICO_ENDERECO": "27304662",
      "addr:housenumber": "14",
      "addr:postcode": "48605-225",
      "addr:street": "Rua dos Expedicionários",
      "addr:suburb": "Abel Barbosa",
      "building": "yes"
      },
      "geometry": {
         "type": "Point",
         "coordinates": [-38.2301367,-9.3921056]
      }
    },
    {
      "type": "Feature",
      "properties": { 
      "IBGE:COD_UNICO_ENDERECO": "215075675",
      "addr:housenumber": "15",
      "addr:postcode": "48605-280",
      "addr:street": "Rua Canadá",
      "addr:suburb": "Abel Barbosa",
      "building": "yes"
      },
      "geometry": {
         "type": "Point",
         "coordinates": [-38.2279923,-9.3916022]
      }
    },
    {
      "type": "Feature",
      "properties": { 
      "IBGE:COD_UNICO_ENDERECO": "27304586",
      "addr:housenumber": "142",
      "addr:postcode": "48605-220",
      "addr:street": "Rua Holanda",
      "addr:suburb": "Abel Barbosa",
      "building": "yes"
      },
      "geometry": {
         "type": "Point",
         "coordinates": [-38.2289619,-9.393894]
      }
    },
    {
      "type": "Feature",
      "properties": { 
      "IBGE:COD_UNICO_ENDERECO": "27364060",
      "addr:housenumber": "28",
      "addr:postcode": "48605-240",
      "addr:street": "Rua Portugal",
      "addr:suburb": "Abel Barbosa",
      "building": "yes"
      },
      "geometry": {
         "type": "Point",
         "coordinates": [-38.2286974,-9.3921779]
      }
    },
    {
      "type": "Feature",
      "properties": { 
      "IBGE:COD_UNICO_ENDERECO": "217976714",
      "addr:housenumber": "48 A",
      "addr:postcode": "48605-270",
      "addr:street": "Rua Equador",
      "addr:suburb": "Abel Barbosa",
      "building": "yes",
      "fixme": "Verificar coordenadas",
      "note": "Sem face no bayface do IBGE 0500-0060P-25-3"
      },
      "geometry": {
         "type": "Point",
         "coordinates": [-38.230613,-9.395031]
      }
    },
    {
      "type": "Feature",
      "properties": { 
      "IBGE:COD_UNICO_ENDERECO": "27304557",
      "addr:housenumber": "51 A",
      "addr:postcode": "48605-245",
      "addr:street": "Rua Itália",
      "addr:suburb": "Abel Barbosa",
      "building": "yes"
      },
      "geometry": {
         "type": "Point",
         "coordinates": [-38.2294213,-9.3919688]
      }
    },
    {
      "type": "Feature",
      "properties": { 
      "IBGE:COD_UNICO_ENDERECO": "27304545",
      "addr:housenumber": "149",
      "addr:postcode": "48605-225",
      "addr:street": "Rua dos Expedicionários",
      "addr:suburb": "Abel Barbosa",
      "building": "yes"
      },
      "geometry": {
         "type": "Point",
         "coordinates": [-38.2300132,-9.3922525]
      }
    },
    {
      "type": "Feature",
      "properties": { 
      "IBGE:COD_UNICO_ENDERECO": "27364113",
      "addr:housenumber": "5 A",
      "addr:postcode": "48605-290",
      "addr:street": "Rua Argentina",
      "addr:suburb": "Abel Barbosa",
      "building": "yes"
      },
      "geometry": {
         "type": "Point",
         "coordinates": [-38.2280049,-9.3936318]
      }
    },
    {
      "type": "Feature",
      "properties": { 
      "IBGE:COD_UNICO_ENDERECO": "27304584",
      "addr:housenumber": "106",
      "addr:postcode": "48605-220",
      "addr:street": "Rua Holanda",
      "addr:suburb": "Abel Barbosa",
      "building": "yes"
      },
      "geometry": {
         "type": "Point",
         "coordinates": [-38.2289617,-9.3938968]
      }
    },
    {
      "type": "Feature",
      "properties": { 
      "IBGE:COD_UNICO_ENDERECO": "27304593",
      "addr:housenumber": "97",
      "addr:postcode": "48605-245",
      "addr:street": "Rua Itália",
      "addr:suburb": "Abel Barbosa",
      "building": "yes"
      },
      "geometry": {
         "type": "Point",
         "coordinates": [-38.2292421,-9.392315]
      }
    },
    {
      "type": "Feature",
      "properties": { 
      "IBGE:COD_UNICO_ENDERECO": "223783475",
      "addr:housenumber": "3",
      "addr:postcode": "48605-245",
      "addr:street": "Rua Itália",
      "addr:suburb": "Abel Barbosa",
      "addr:unit": "Fundos Casa 2",
      "building": "yes"
      },
      "geometry": {
         "type": "Point",
         "coordinates": [-38.229299099788,-9.3912592613881]
      }
    },
    {
      "type": "Feature",
      "properties": { 
      "IBGE:COD_UNICO_ENDERECO": "27304542",
      "addr:housenumber": "25",
      "addr:postcode": "48605-225",
      "addr:street": "Rua dos Expedicionários",
      "addr:suburb": "Abel Barbosa",
      "building": "yes"
      },
      "geometry": {
         "type": "Point",
         "coordinates": [-38.2303974,-9.3922734]
      }
    },
    {
      "type": "Feature",
      "properties": { 
      "IBGE:COD_UNICO_ENDERECO": "27364078",
      "addr:housenumber": "91",
      "addr:postcode": "48605-290",
      "addr:street": "Rua Argentina",
      "addr:suburb": "Abel Barbosa",
      "building": "yes"
      },
      "geometry": {
         "type": "Point",
         "coordinates": [-38.2283103,-9.39169]
      }
    },
    {
      "type": "Feature",
      "properties": { 
      "IBGE:COD_UNICO_ENDERECO": "215075880",
      "addr:housenumber": "284",
      "addr:postcode": "48605-280",
      "addr:street": "Rua Canadá",
      "addr:suburb": "Abel Barbosa",
      "building": "yes"
      },
      "geometry": {
         "type": "Point",
         "coordinates": [-38.227751,-9.3919742]
      }
    },
    {
      "type": "Feature",
      "properties": { 
      "IBGE:COD_UNICO_ENDERECO": "27304543",
      "addr:housenumber": "6",
      "addr:postcode": "48605-225",
      "addr:street": "Rua dos Expedicionários",
      "addr:suburb": "Abel Barbosa",
      "building": "yes"
      },
      "geometry": {
         "type": "Point",
         "coordinates": [-38.2301726,-9.3922619]
      }
    },
    {
      "type": "Feature",
      "properties": { 
      "IBGE:COD_UNICO_ENDERECO": "215075971",
      "addr:housenumber": "442",
      "addr:postcode": "48605-355",
      "addr:street": "Rua Chile",
      "addr:suburb": "Abel Barbosa",
      "building": "yes"
      },
      "geometry": {
         "type": "Point",
         "coordinates": [-38.2274566,-9.3933727]
      }
    },
    {
      "type": "Feature",
      "properties": { 
      "IBGE:COD_UNICO_ENDERECO": "27304664",
      "addr:housenumber": "32 A",
      "addr:postcode": "48605-225",
      "addr:street": "Rua dos Expedicionários",
      "addr:suburb": "Abel Barbosa",
      "building": "yes"
      },
      "geometry": {
         "type": "Point",
         "coordinates": [-38.2312954,-9.3921638]
      }
    },
    {
      "type": "Feature",
      "properties": { 
      "IBGE:COD_UNICO_ENDERECO": "27304594",
      "addr:housenumber": "97 Térreo",
      "addr:postcode": "48605-245",
      "addr:street": "Rua Itália",
      "addr:suburb": "Abel Barbosa",
      "building": "yes"
      },
      "geometry": {
         "type": "Point",
         "coordinates": [-38.2292421,-9.3923139]
      }
    },
    {
      "type": "Feature",
      "properties": { 
      "IBGE:COD_UNICO_ENDERECO": "27364041;27364047",
      "addr:housenumber": "239",
      "addr:postcode": "48605-240",
      "addr:street": "Rua Portugal",
      "addr:suburb": "Abel Barbosa",
      "building": "yes"
      },
      "geometry": {
         "type": "Point",
         "coordinates": [-38.2286156,-9.3931473]
      }
    },
    {
      "type": "Feature",
      "properties": { 
      "IBGE:COD_UNICO_ENDERECO": "27304648",
      "addr:housenumber": "66",
      "addr:postcode": "48605-400",
      "addr:street": "Rua Lago Azul",
      "addr:suburb": "Abel Barbosa",
      "addr:unit": "Fundos 2",
      "building": "yes"
      },
      "geometry": {
         "type": "Point",
         "coordinates": [-38.2293099,-9.3891406]
      }
    },
    {
      "type": "Feature",
      "properties": { 
      "IBGE:COD_UNICO_ENDERECO": "223783455",
      "addr:housenumber": "63",
      "addr:postcode": "48605-245",
      "addr:street": "Rua Itália",
      "addr:suburb": "Abel Barbosa",
      "building": "yes"
      },
      "geometry": {
         "type": "Point",
         "coordinates": [-38.2294259,-9.3919039]
      }
    },
    {
      "type": "Feature",
      "properties": { 
      "IBGE:COD_UNICO_ENDERECO": "27304621",
      "addr:housenumber": "76",
      "addr:postcode": "48605-240",
      "addr:street": "Rua Portugal",
      "addr:suburb": "Abel Barbosa",
      "building": "yes"
      },
      "geometry": {
         "type": "Point",
         "coordinates": [-38.2288889,-9.391874]
      }
    },
    {
      "type": "Feature",
      "properties": { 
      "IBGE:COD_UNICO_ENDERECO": "217976854",
      "addr:housenumber": "552",
      "addr:postcode": "48605-360",
      "addr:street": "Rua Lago Ipanema",
      "addr:suburb": "Abel Barbosa",
      "addr:unit": "Casa 52",
      "building": "yes",
      "fixme": "Verificar coordenadas",
      "note": "Sem face no bayface do IBGE 0500-0060P-25-11"
      },
      "geometry": {
         "type": "Point",
         "coordinates": [-38.222155,-9.391906]
      }
    },
    {
      "type": "Feature",
      "properties": { 
      "IBGE:COD_UNICO_ENDERECO": "27304669",
      "addr:housenumber": "48",
      "addr:postcode": "48605-225",
      "addr:street": "Rua dos Expedicionários",
      "addr:suburb": "Abel Barbosa",
      "building": "yes"
      },
      "geometry": {
         "type": "Point",
         "coordinates": [-38.2312004,-9.392159]
      }
    },
    {
      "type": "Feature",
      "properties": { 
      "IBGE:COD_UNICO_ENDERECO": "27364125",
      "addr:housenumber": "378",
      "addr:postcode": "48605-280",
      "addr:street": "Rua Canadá",
      "addr:suburb": "Abel Barbosa",
      "building": "yes"
      },
      "geometry": {
         "type": "Point",
         "coordinates": [-38.2275977,-9.3927542]
      }
    },
    {
      "type": "Feature",
      "properties": { 
      "IBGE:COD_UNICO_ENDERECO": "217976862",
      "addr:housenumber": "55",
      "addr:postcode": "48605-360",
      "addr:street": "Rua Lago Ipanema",
      "addr:suburb": "Abel Barbosa",
      "addr:unit": "Casa 55",
      "building": "yes",
      "fixme": "Verificar coordenadas",
      "note": "Sem face no bayface do IBGE 0500-0060P-25-11"
      },
      "geometry": {
         "type": "Point",
         "coordinates": [-38.222195,-9.392095]
      }
    },
    {
      "type": "Feature",
      "properties": { 
      "IBGE:COD_UNICO_ENDERECO": "27304625",
      "addr:housenumber": "112",
      "addr:postcode": "48605-240",
      "addr:street": "Rua Portugal",
      "addr:suburb": "Abel Barbosa",
      "addr:unit": "Fundos",
      "building": "yes"
      },
      "geometry": {
         "type": "Point",
         "coordinates": [-38.2289072,-9.3922301]
      }
    },
    {
      "type": "Feature",
      "properties": { 
      "IBGE:COD_UNICO_ENDERECO": "27304663;27304673",
      "addr:housenumber": "2",
      "addr:postcode": "48605-225",
      "addr:street": "Rua dos Expedicionários",
      "addr:suburb": "Abel Barbosa",
      "building": "yes"
      },
      "geometry": {
         "type": "Point",
         "coordinates": [-38.2312181,-9.3921599]
      }
    },
    {
      "type": "Feature",
      "properties": { 
      "IBGE:COD_UNICO_ENDERECO": "215075427",
      "addr:housenumber": "205",
      "addr:postcode": "48605-290",
      "addr:street": "Rua Argentina",
      "addr:suburb": "Abel Barbosa",
      "building": "yes"
      },
      "geometry": {
         "type": "Point",
         "coordinates": [-38.2284289,-9.3906182]
      }
    },
    {
      "type": "Feature",
      "properties": { 
      "IBGE:COD_UNICO_ENDERECO": "215075704",
      "addr:housenumber": "77",
      "addr:postcode": "48605-280",
      "addr:street": "Rua Canadá",
      "addr:suburb": "Abel Barbosa",
      "addr:unit": "Casa A",
      "building": "yes"
      },
      "geometry": {
         "type": "Point",
         "coordinates": [-38.2278761,-9.392207]
      }
    },
    {
      "type": "Feature",
      "properties": { 
      "IBGE:COD_UNICO_ENDERECO": "27304591",
      "addr:housenumber": "211",
      "addr:postcode": "48605-355",
      "addr:street": "Rua Chile",
      "addr:suburb": "Abel Barbosa",
      "building": "yes"
      },
      "geometry": {
         "type": "Point",
         "coordinates": [-38.2291163,-9.3942577]
      }
    },
    {
      "type": "Feature",
      "properties": { 
      "IBGE:COD_UNICO_ENDERECO": "27364062",
      "addr:housenumber": "54",
      "addr:postcode": "48605-240",
      "addr:street": "Rua Portugal",
      "addr:suburb": "Abel Barbosa",
      "building": "yes"
      },
      "geometry": {
         "type": "Point",
         "coordinates": [-38.2287181,-9.3919484]
      }
    },
    {
      "type": "Feature",
      "properties": { 
      "IBGE:COD_UNICO_ENDERECO": "27364124",
      "addr:housenumber": "386",
      "addr:postcode": "48605-280",
      "addr:street": "Rua Canadá",
      "addr:suburb": "Abel Barbosa",
      "building": "yes"
      },
      "geometry": {
         "type": "Point",
         "coordinates": [-38.227561,-9.3929182]
      }
    },
    {
      "type": "Feature",
      "properties": { 
      "IBGE:COD_UNICO_ENDERECO": "27364065",
      "addr:housenumber": "104",
      "addr:postcode": "48605-240",
      "addr:street": "Rua Portugal",
      "addr:suburb": "Abel Barbosa",
      "building": "yes"
      },
      "geometry": {
         "type": "Point",
         "coordinates": [-38.228751,-9.3915848]
      }
    },
    {
      "type": "Feature",
      "properties": { 
      "IBGE:COD_UNICO_ENDERECO": "27364105",
      "addr:housenumber": "129",
      "addr:postcode": "48605-290",
      "addr:street": "Rua Argentina",
      "addr:suburb": "Abel Barbosa",
      "building": "yes"
      },
      "geometry": {
         "type": "Point",
         "coordinates": [-38.2280738,-9.3926043]
      }
    },
    {
      "type": "Feature",
      "properties": { 
      "IBGE:COD_UNICO_ENDERECO": "27364067",
      "addr:housenumber": "128",
      "addr:postcode": "48605-240",
      "addr:street": "Rua Portugal",
      "addr:suburb": "Abel Barbosa",
      "building": "yes"
      },
      "geometry": {
         "type": "Point",
         "coordinates": [-38.2287735,-9.3913355]
      }
    },
    {
      "type": "Feature",
      "properties": { 
      "IBGE:COD_UNICO_ENDERECO": "27304581",
      "addr:housenumber": "129",
      "addr:postcode": "48605-230",
      "addr:street": "Rua Paraguai",
      "addr:suburb": "Abel Barbosa",
      "building": "yes"
      },
      "geometry": {
         "type": "Point",
         "coordinates": [-38.2293871,-9.3937542]
      }
    },
    {
      "type": "Feature",
      "properties": { 
      "IBGE:COD_UNICO_ENDERECO": "27364038",
      "addr:housenumber": "282",
      "addr:postcode": "48605-290",
      "addr:street": "Rua Argentina",
      "addr:suburb": "Abel Barbosa",
      "building": "yes"
      },
      "geometry": {
         "type": "Point",
         "coordinates": [-38.2281542,-9.393708]
      }
    },
    {
      "type": "Feature",
      "properties": { 
      "IBGE:COD_UNICO_ENDERECO": "27304587",
      "addr:housenumber": "154",
      "addr:postcode": "48605-220",
      "addr:street": "Rua Holanda",
      "addr:suburb": "Abel Barbosa",
      "building": "yes"
      },
      "geometry": {
         "type": "Point",
         "coordinates": [-38.2289521,-9.3940456]
      }
    },
    {
      "type": "Feature",
      "properties": { 
      "IBGE:COD_UNICO_ENDERECO": "215075296",
      "addr:housenumber": "191 C",
      "addr:postcode": "48605-240",
      "addr:street": "Rua Portugal",
      "addr:suburb": "Abel Barbosa",
      "building": "yes"
      },
      "geometry": {
         "type": "Point",
         "coordinates": [-38.228635,-9.3928361]
      }
    },
    {
      "type": "Feature",
      "properties": { 
      "IBGE:COD_UNICO_ENDERECO": "215075304",
      "addr:housenumber": "191 D",
      "addr:postcode": "48605-240",
      "addr:street": "Rua Portugal",
      "addr:suburb": "Abel Barbosa",
      "building": "yes"
      },
      "geometry": {
         "type": "Point",
         "coordinates": [-38.2286416,-9.3927315]
      }
    },
    {
      "type": "Feature",
      "properties": { 
      "IBGE:COD_UNICO_ENDERECO": "27304670",
      "addr:housenumber": "32",
      "addr:postcode": "48605-225",
      "addr:street": "Rua dos Expedicionários",
      "addr:suburb": "Abel Barbosa",
      "building": "yes",
      "description": "CNEFE 2022 Escritório",
      "office": "yes"
      },
      "geometry": {
         "type": "Point",
         "coordinates": [-38.23135,-9.3921666]
      }
    },
    {
      "type": "Feature",
      "properties": { 
      "IBGE:COD_UNICO_ENDERECO": "215075319",
      "addr:housenumber": "190",
      "addr:postcode": "48605-290",
      "addr:street": "Rua Argentina",
      "addr:suburb": "Abel Barbosa",
      "building": "yes"
      },
      "geometry": {
         "type": "Point",
         "coordinates": [-38.2282141,-9.3927758]
      }
    },
    {
      "type": "Feature",
      "properties": { 
      "IBGE:COD_UNICO_ENDERECO": "223783468",
      "addr:housenumber": "111",
      "addr:postcode": "48605-245",
      "addr:street": "Rua Itália",
      "addr:suburb": "Abel Barbosa",
      "building": "garage",
      "description": "CNEFE 2022 Garagem"
      },
      "geometry": {
         "type": "Point",
         "coordinates": [-38.2292384,-9.3923703]
      }
    },
    {
      "type": "Feature",
      "properties": { 
      "IBGE:COD_UNICO_ENDERECO": "27304549",
      "addr:housenumber": "100",
      "addr:postcode": "48605-235",
      "addr:street": "Rua Argélia",
      "addr:suburb": "Abel Barbosa",
      "building": "yes"
      },
      "geometry": {
         "type": "Point",
         "coordinates": [-38.230362,-9.3925468]
      }
    },
    {
      "type": "Feature",
      "properties": { 
      "IBGE:COD_UNICO_ENDERECO": "217976711",
      "addr:housenumber": "38",
      "addr:postcode": "48605-270",
      "addr:street": "Rua Equador",
      "addr:suburb": "Abel Barbosa",
      "building": "yes",
      "fixme": "Verificar coordenadas",
      "note": "Sem face no bayface do IBGE 0500-0060P-25-3"
      },
      "geometry": {
         "type": "Point",
         "coordinates": [-38.230617,-9.394883]
      }
    },
    {
      "type": "Feature",
      "properties": { 
      "IBGE:COD_UNICO_ENDERECO": "27364114",
      "addr:housenumber": "5",
      "addr:postcode": "48605-290",
      "addr:street": "Rua Argentina",
      "addr:suburb": "Abel Barbosa",
      "building": "yes"
      },
      "geometry": {
         "type": "Point",
         "coordinates": [-38.2280076,-9.3935919]
      }
    },
    {
      "type": "Feature",
      "properties": { 
      "IBGE:COD_UNICO_ENDERECO": "27304568-27304570",
      "addr:housenumber": "28",
      "addr:postcode": "48605-220",
      "addr:street": "Rua Holanda",
      "addr:suburb": "Abel Barbosa",
      "building": "yes"
      },
      "geometry": {
         "type": "Point",
         "coordinates": [-38.2290313,-9.3927014]
      }
    },
    {
      "type": "Feature",
      "properties": { 
      "IBGE:COD_UNICO_ENDERECO": "215075413",
      "addr:housenumber": "210",
      "addr:postcode": "48605-290",
      "addr:street": "Rua Argentina",
      "addr:suburb": "Abel Barbosa",
      "building": "yes",
      "name": "Giselle Aquino Estética Integrada"
      },
      "geometry": {
         "type": "Point",
         "coordinates": [-38.2284391,-9.3905261]
      }
    },
    {
      "type": "Feature",
      "properties": { 
      "IBGE:COD_UNICO_ENDERECO": "27304563",
      "addr:housenumber": "8",
      "addr:postcode": "48605-230",
      "addr:street": "Rua Paraguai",
      "addr:suburb": "Abel Barbosa",
      "building": "yes"
      },
      "geometry": {
         "type": "Point",
         "coordinates": [-38.2294327,-9.3930001]
      }
    },
    {
      "type": "Feature",
      "properties": { 
      "IBGE:COD_UNICO_ENDERECO": "27304585",
      "addr:housenumber": "126",
      "addr:postcode": "48605-220",
      "addr:street": "Rua Holanda",
      "addr:suburb": "Abel Barbosa",
      "building": "yes"
      },
      "geometry": {
         "type": "Point",
         "coordinates": [-38.2289671,-9.3938132]
      }
    },
    {
      "type": "Feature",
      "properties": { 
      "IBGE:COD_UNICO_ENDERECO": "27304603",
      "addr:housenumber": "23 A",
      "addr:postcode": "48605-245",
      "addr:street": "Rua Itália",
      "addr:suburb": "Abel Barbosa",
      "building": "yes"
      },
      "geometry": {
         "type": "Point",
         "coordinates": [-38.229306,-9.3916402]
      }
    },
    {
      "type": "Feature",
      "properties": { 
      "IBGE:COD_UNICO_ENDERECO": "27364040",
      "addr:housenumber": "253",
      "addr:postcode": "48605-240",
      "addr:street": "Rua Portugal",
      "addr:suburb": "Abel Barbosa",
      "building": "yes"
      },
      "geometry": {
         "type": "Point",
         "coordinates": [-38.2286066,-9.3932928]
      }
    },
    {
      "type": "Feature",
      "properties": { 
      "IBGE:COD_UNICO_ENDERECO": "27304575",
      "addr:housenumber": "90",
      "addr:postcode": "48605-220",
      "addr:street": "Rua Holanda",
      "addr:suburb": "Abel Barbosa",
      "building": "yes"
      },
      "geometry": {
         "type": "Point",
         "coordinates": [-38.2289991,-9.3932941]
      }
    },
    {
      "type": "Feature",
      "properties": { 
      "IBGE:COD_UNICO_ENDERECO": "215075897",
      "addr:housenumber": "268",
      "addr:postcode": "48605-280",
      "addr:street": "Rua Canadá",
      "addr:suburb": "Abel Barbosa",
      "building": "construction"
      },
      "geometry": {
         "type": "Point",
         "coordinates": [-38.2277785,-9.3918342]
      }
    },
    {
      "type": "Feature",
      "properties": { 
      "IBGE:COD_UNICO_ENDERECO": "215075262",
      "addr:housenumber": "191 Térreo",
      "addr:postcode": "48605-240",
      "addr:street": "Rua Portugal",
      "addr:suburb": "Abel Barbosa",
      "building": "garage",
      "description": "CNEFE 2022 Garagem"
      },
      "geometry": {
         "type": "Point",
         "coordinates": [-38.2286201,-9.3930754]
      }
    },
    {
      "type": "Feature",
      "properties": { 
      "IBGE:COD_UNICO_ENDERECO": "215075623",
      "addr:housenumber": "77",
      "addr:postcode": "48605-290",
      "addr:street": "Rua Argentina",
      "addr:suburb": "Abel Barbosa",
      "addr:unit": "Casa B",
      "building": "yes"
      },
      "geometry": {
         "type": "Point",
         "coordinates": [-38.2280986,-9.3922369]
      }
    },
    {
      "type": "Feature",
      "properties": { 
      "IBGE:COD_UNICO_ENDERECO": "27364056",
      "addr:housenumber": "11",
      "addr:postcode": "48605-290",
      "addr:street": "Rua Argentina",
      "addr:suburb": "Abel Barbosa",
      "building": "yes"
      },
      "geometry": {
         "type": "Point",
         "coordinates": [-38.2281946,-9.3931337]
      }
    },
    {
      "type": "Feature",
      "properties": { 
      "IBGE:COD_UNICO_ENDERECO": "27364086",
      "addr:housenumber": "14",
      "addr:postcode": "48605-235",
      "addr:street": "Rua Argélia",
      "addr:suburb": "Abel Barbosa",
      "building": "yes"
      },
      "geometry": {
         "type": "Point",
         "coordinates": [-38.2284891,-9.3923752]
      }
    },
    {
      "type": "Feature",
      "properties": { 
      "IBGE:COD_UNICO_ENDERECO": "27304626",
      "addr:housenumber": "112 Frente",
      "addr:postcode": "48605-240",
      "addr:street": "Rua Portugal",
      "addr:suburb": "Abel Barbosa",
      "building": "yes"
      },
      "geometry": {
         "type": "Point",
         "coordinates": [-38.2288528,-9.3922245]
      }
    },
    {
      "type": "Feature",
      "properties": { 
      "IBGE:COD_UNICO_ENDERECO": "27304650",
      "addr:housenumber": "66 Frente",
      "addr:postcode": "48605-400",
      "addr:street": "Rua Lago Azul",
      "addr:suburb": "Abel Barbosa",
      "building": "yes"
      },
      "geometry": {
         "type": "Point",
         "coordinates": [-38.2292422,-9.3892173]
      }
    },
    {
      "type": "Feature",
      "properties": { 
      "IBGE:COD_UNICO_ENDERECO": "27304588",
      "addr:housenumber": "166 Térreo",
      "addr:postcode": "48605-220",
      "addr:street": "Rua Holanda",
      "addr:suburb": "Abel Barbosa",
      "building": "yes"
      },
      "geometry": {
         "type": "Point",
         "coordinates": [-38.2289463,-9.394137]
      }
    },
    {
      "type": "Feature",
      "properties": { 
      "IBGE:COD_UNICO_ENDERECO": "27364063",
      "addr:housenumber": "78",
      "addr:postcode": "48605-240",
      "addr:street": "Rua Portugal",
      "addr:suburb": "Abel Barbosa",
      "building": "yes"
      },
      "geometry": {
         "type": "Point",
         "coordinates": [-38.2287371,-9.3917377]
      }
    },
    {
      "type": "Feature",
      "properties": { 
      "IBGE:COD_UNICO_ENDERECO": "27304649",
      "addr:housenumber": "66",
      "addr:postcode": "48605-400",
      "addr:street": "Rua Lago Azul",
      "addr:suburb": "Abel Barbosa",
      "addr:unit": "Fundos 3",
      "building": "yes"
      },
      "geometry": {
         "type": "Point",
         "coordinates": [-38.2293079,-9.3891552]
      }
    },
    {
      "type": "Feature",
      "properties": { 
      "IBGE:COD_UNICO_ENDERECO": "27364045",
      "addr:housenumber": "191 A",
      "addr:postcode": "48605-240",
      "addr:street": "Rua Portugal",
      "addr:suburb": "Abel Barbosa",
      "building": "yes"
      },
      "geometry": {
         "type": "Point",
         "coordinates": [-38.228621845984,-9.3930803000032]
      }
    },
    {
      "type": "Feature",
      "properties": { 
      "IBGE:COD_UNICO_ENDERECO": "27364035",
      "addr:housenumber": "301",
      "addr:postcode": "48605-240",
      "addr:street": "Rua Portugal",
      "addr:suburb": "Abel Barbosa",
      "building": "yes"
      },
      "geometry": {
         "type": "Point",
         "coordinates": [-38.2285681,-9.3938227]
      }
    },
    {
      "type": "Feature",
      "properties": { 
      "IBGE:COD_UNICO_ENDERECO": "27364115-27364116",
      "addr:housenumber": "181",
      "addr:postcode": "48605-290",
      "addr:street": "Rua Argentina",
      "addr:suburb": "Abel Barbosa",
      "building": "yes"
      },
      "geometry": {
         "type": "Point",
         "coordinates": [-38.2280161,-9.3934649]
      }
    },
    {
      "type": "Feature",
      "properties": { 
      "IBGE:COD_UNICO_ENDERECO": "27364064",
      "addr:housenumber": "92",
      "addr:postcode": "48605-240",
      "addr:street": "Rua Portugal",
      "addr:suburb": "Abel Barbosa",
      "building": "yes"
      },
      "geometry": {
         "type": "Point",
         "coordinates": [-38.2287422,-9.3916817]
      }
    },
    {
      "type": "Feature",
      "properties": { 
      "IBGE:COD_UNICO_ENDERECO": "27364068",
      "addr:housenumber": "140",
      "addr:postcode": "48605-240",
      "addr:street": "Rua Portugal",
      "addr:suburb": "Abel Barbosa",
      "building": "yes"
      },
      "geometry": {
         "type": "Point",
         "coordinates": [-38.2287822,-9.3912393]
      }
    },
    {
      "type": "Feature",
      "properties": { 
      "IBGE:COD_UNICO_ENDERECO": "27364082-27364083",
      "addr:housenumber": "51",
      "addr:postcode": "48605-290",
      "addr:street": "Rua Argentina",
      "addr:suburb": "Abel Barbosa",
      "building": "yes"
      },
      "geometry": {
         "type": "Point",
         "coordinates": [-38.2282752,-9.3920069]
      }
    },
    {
      "type": "Feature",
      "properties": { 
      "IBGE:COD_UNICO_ENDERECO": "27304550",
      "addr:housenumber": "116",
      "addr:postcode": "48605-235",
      "addr:street": "Rua Argélia",
      "addr:suburb": "Abel Barbosa",
      "building": "yes"
      },
      "geometry": {
         "type": "Point",
         "coordinates": [-38.2301068,-9.3925346]
      }
    },
    {
      "type": "Feature",
      "properties": { 
      "IBGE:COD_UNICO_ENDERECO": "223783472",
      "addr:housenumber": "5",
      "addr:postcode": "48605-245",
      "addr:street": "Rua Itália",
      "addr:suburb": "Abel Barbosa",
      "building": "yes"
      },
      "geometry": {
         "type": "Point",
         "coordinates": [-38.2293513,-9.3913272]
      }
    },
    {
      "type": "Feature",
      "properties": { 
      "IBGE:COD_UNICO_ENDERECO": "27364051-27364054;215075332;215075349",
      "addr:housenumber": "204",
      "addr:postcode": "48605-290",
      "addr:street": "Rua Argentina",
      "addr:suburb": "Abel Barbosa",
      "building": "yes"
      },
      "geometry": {
         "type": "Point",
         "coordinates": [-38.228212,-9.3928133]
      }
    },
    {
      "type": "Feature",
      "properties": { 
      "IBGE:COD_UNICO_ENDERECO": "27364058",
      "addr:housenumber": "2",
      "addr:postcode": "48605-250",
      "addr:street": "Rua Suíça",
      "addr:suburb": "Abel Barbosa",
      "building": "yes"
      },
      "geometry": {
         "type": "Point",
         "coordinates": [-38.2281732,-9.3933309]
      }
    },
    {
      "type": "Feature",
      "properties": { 
      "IBGE:COD_UNICO_ENDERECO": "27304620",
      "addr:housenumber": "48",
      "addr:postcode": "48605-240",
      "addr:street": "Rua Portugal",
      "addr:suburb": "Abel Barbosa",
      "building": "yes"
      },
      "geometry": {
         "type": "Point",
         "coordinates": [-38.2289119,-9.3916499]
      }
    },
    {
      "type": "Feature",
      "properties": { 
      "IBGE:COD_UNICO_ENDERECO": "27364055",
      "addr:housenumber": "228",
      "addr:postcode": "48605-290",
      "addr:street": "Rua Argentina",
      "addr:suburb": "Abel Barbosa",
      "building": "yes"
      },
      "geometry": {
         "type": "Point",
         "coordinates": [-38.2281988,-9.3930578]
      }
    },
    {
      "type": "Feature",
      "properties": { 
      "IBGE:COD_UNICO_ENDERECO": "27364070",
      "addr:housenumber": "164",
      "addr:postcode": "48605-240",
      "addr:street": "Rua Portugal",
      "addr:suburb": "Abel Barbosa",
      "building": "yes"
      },
      "geometry": {
         "type": "Point",
         "coordinates": [-38.2288088,-9.3909449]
      }
    },
    {
      "type": "Feature",
      "properties": { 
      "IBGE:COD_UNICO_ENDERECO": "27364072",
      "addr:housenumber": "147",
      "addr:postcode": "48605-240",
      "addr:street": "Rua Portugal",
      "addr:suburb": "Abel Barbosa",
      "building": "yes"
      },
      "geometry": {
         "type": "Point",
         "coordinates": [-38.2288145,-9.3908816]
      }
    },
    {
      "type": "Feature",
      "properties": { 
      "IBGE:COD_UNICO_ENDERECO": "27364112",
      "addr:housenumber": "7",
      "addr:postcode": "48605-280",
      "addr:street": "Rua Canadá",
      "addr:suburb": "Abel Barbosa",
      "building": "yes"
      },
      "geometry": {
         "type": "Point",
         "coordinates": [-38.2277224,-9.3930076]
      }
    },
    {
      "type": "Feature",
      "properties": { 
      "IBGE:COD_UNICO_ENDERECO": "27304562",
      "addr:housenumber": "100",
      "addr:postcode": "48605-230",
      "addr:street": "Rua Paraguai",
      "addr:suburb": "Abel Barbosa",
      "building": "yes",
      "name": "Loja de Materiais Elétricas",
      "shop": "yes"
      },
      "geometry": {
         "type": "Point",
         "coordinates": [-38.2294283,-9.3930719]
      }
    },
    {
      "type": "Feature",
      "properties": { 
      "IBGE:COD_UNICO_ENDERECO": "27364050",
      "addr:housenumber": "192",
      "addr:postcode": "48605-290",
      "addr:street": "Rua Argentina",
      "addr:suburb": "Abel Barbosa",
      "building": "yes"
      },
      "geometry": {
         "type": "Point",
         "coordinates": [-38.2282187,-9.3926902]
      }
    },
    {
      "type": "Feature",
      "properties": { 
      "IBGE:COD_UNICO_ENDERECO": "27364044",
      "addr:housenumber": "191",
      "addr:postcode": "48605-240",
      "addr:street": "Rua Portugal",
      "addr:suburb": "Abel Barbosa",
      "building": "garage",
      "description": "CNEFE 2022 Garagem"
      },
      "geometry": {
         "type": "Point",
         "coordinates": [-38.2286491,-9.3926224]
      }
    },
    {
      "type": "Feature",
      "properties": { 
      "IBGE:COD_UNICO_ENDERECO": "27304595",
      "addr:housenumber": "85",
      "addr:postcode": "48605-245",
      "addr:street": "Rua Itália",
      "addr:suburb": "Abel Barbosa",
      "building": "yes"
      },
      "geometry": {
         "type": "Point",
         "coordinates": [-38.2292572,-9.3920871]
      }
    },
    {
      "type": "Feature",
      "properties": { 
      "IBGE:COD_UNICO_ENDERECO": "27304614",
      "addr:housenumber": "12",
      "addr:postcode": "48605-240",
      "addr:street": "Rua Portugal",
      "addr:suburb": "Abel Barbosa",
      "building": "yes"
      },
      "geometry": {
         "type": "Point",
         "coordinates": [-38.2289625,-9.391159]
      }
    },
    {
      "type": "Feature",
      "properties": { 
      "IBGE:COD_UNICO_ENDERECO": "27364037",
      "addr:housenumber": "267",
      "addr:postcode": "48605-240",
      "addr:street": "Rua Portugal",
      "addr:suburb": "Abel Barbosa",
      "building": "yes"
      },
      "geometry": {
         "type": "Point",
         "coordinates": [-38.2285841,-9.3936088]
      }
    },
    {
      "type": "Feature",
      "properties": { 
      "IBGE:COD_UNICO_ENDERECO": "27304624",
      "addr:housenumber": "112",
      "addr:postcode": "48605-240",
      "addr:street": "Rua Portugal",
      "addr:suburb": "Abel Barbosa",
      "building": "yes"
      },
      "geometry": {
         "type": "Point",
         "coordinates": [-38.2288534,-9.3922187]
      }
    },
    {
      "type": "Feature",
      "properties": { 
      "IBGE:COD_UNICO_ENDERECO": "27364042",
      "addr:housenumber": "227",
      "addr:postcode": "48605-240",
      "addr:street": "Rua Portugal",
      "addr:suburb": "Abel Barbosa",
      "building": "yes"
      },
      "geometry": {
         "type": "Point",
         "coordinates": [-38.2286202,-9.3930737]
      }
    },
    {
      "type": "Feature",
      "properties": { 
      "IBGE:COD_UNICO_ENDERECO": "27364066",
      "addr:housenumber": "116",
      "addr:postcode": "48605-240",
      "addr:street": "Rua Portugal",
      "addr:suburb": "Abel Barbosa",
      "building": "yes"
      },
      "geometry": {
         "type": "Point",
         "coordinates": [-38.2287676,-9.3914002]
      }
    },
    {
      "type": "Feature",
      "properties": { 
      "IBGE:COD_UNICO_ENDERECO": "27364117",
      "addr:housenumber": "182",
      "addr:postcode": "48605-280",
      "addr:street": "Rua Canadá",
      "addr:suburb": "Abel Barbosa",
      "building": "yes"
      },
      "geometry": {
         "type": "Point",
         "coordinates": [-38.2276413,-9.393408]
      }
    },
    {
      "type": "Feature",
      "properties": { 
      "IBGE:COD_UNICO_ENDERECO": "27364073",
      "addr:housenumber": "190",
      "addr:postcode": "48605-240",
      "addr:street": "Rua Portugal",
      "addr:suburb": "Abel Barbosa",
      "building": "yes"
      },
      "geometry": {
         "type": "Point",
         "coordinates": [-38.2288156,-9.3908695]
      }
    },
    {
      "type": "Feature",
      "properties": { 
      "IBGE:COD_UNICO_ENDERECO": "27364061",
      "addr:housenumber": "40",
      "addr:postcode": "48605-240",
      "addr:street": "Rua Portugal",
      "addr:suburb": "Abel Barbosa",
      "building": "yes"
      },
      "geometry": {
         "type": "Point",
         "coordinates": [-38.2287057,-9.3920853]
      }
    },
    {
      "type": "Feature",
      "properties": { 
      "IBGE:COD_UNICO_ENDERECO": "27364043",
      "addr:housenumber": "215",
      "addr:postcode": "48605-240",
      "addr:street": "Rua Portugal",
      "addr:suburb": "Abel Barbosa",
      "building": "yes"
      },
      "geometry": {
         "type": "Point",
         "coordinates": [-38.2286243,-9.3930079]
      }
    },
    {
      "type": "Feature",
      "properties": { 
      "IBGE:COD_UNICO_ENDERECO": "27304572",
      "addr:housenumber": "52",
      "addr:postcode": "48605-220",
      "addr:street": "Rua Holanda",
      "addr:suburb": "Abel Barbosa",
      "building": "yes"
      },
      "geometry": {
         "type": "Point",
         "coordinates": [-38.2290177,-9.3929518]
      }
    },
    {
      "type": "Feature",
      "properties": { 
      "IBGE:COD_UNICO_ENDERECO": "27304580",
      "addr:housenumber": "141",
      "addr:postcode": "48605-230",
      "addr:street": "Rua Paraguai",
      "addr:suburb": "Abel Barbosa",
      "building": "yes"
      },
      "geometry": {
         "type": "Point",
         "coordinates": [-38.2293788,-9.3939171]
      }
    },
    {
      "type": "Feature",
      "properties": { 
      "IBGE:COD_UNICO_ENDERECO": "217976850",
      "addr:housenumber": "53",
      "addr:postcode": "48605-360",
      "addr:street": "Rua Lago Ipanema",
      "addr:suburb": "Abel Barbosa",
      "addr:unit": "Casa 53",
      "building": "yes",
      "fixme": "Verificar coordenadas",
      "note": "Sem face no bayface do IBGE 0500-0060P-25-11"
      },
      "geometry": {
         "type": "Point",
         "coordinates": [-38.22212,-9.391937]
      }
    },
    {
      "type": "Feature",
      "properties": { 
      "IBGE:COD_UNICO_ENDERECO": "27304571",
      "addr:housenumber": "40",
      "addr:postcode": "48605-220",
      "addr:street": "Rua Holanda",
      "addr:suburb": "Abel Barbosa",
      "building": "yes"
      },
      "geometry": {
         "type": "Point",
         "coordinates": [-38.229023,-9.3928546]
      }
    },
    {
      "type": "Feature",
      "properties": { 
      "IBGE:COD_UNICO_ENDERECO": "27364103",
      "addr:housenumber": "167",
      "addr:postcode": "48605-290",
      "addr:street": "Rua Argentina",
      "addr:suburb": "Abel Barbosa",
      "building": "yes"
      },
      "geometry": {
         "type": "Point",
         "coordinates": [-38.2280645,-9.3930987]
      }
    },
    {
      "type": "Feature",
      "properties": { 
      "IBGE:COD_UNICO_ENDERECO": "27304629",
      "addr:housenumber": "57",
      "addr:postcode": "48605-205",
      "addr:street": "Avenida dos Estudantes",
      "addr:suburb": "Abel Barbosa",
      "building": "yes"
      },
      "geometry": {
         "type": "Point",
         "coordinates": [-38.2318387,-9.3921284]
      }
    },
    {
      "type": "Feature",
      "properties": { 
      "IBGE:COD_UNICO_ENDERECO": "27304590",
      "addr:housenumber": "221",
      "addr:postcode": "48605-355",
      "addr:street": "Rua Chile",
      "addr:suburb": "Abel Barbosa",
      "building": "yes"
      },
      "geometry": {
         "type": "Point",
         "coordinates": [-38.2290827,-9.3942398]
      }
    },
    {
      "type": "Feature",
      "properties": { 
      "IBGE:COD_UNICO_ENDERECO": "27364069;27364071",
      "addr:housenumber": "156",
      "addr:postcode": "48605-240",
      "addr:street": "Rua Portugal",
      "addr:suburb": "Abel Barbosa",
      "building": "yes"
      },
      "geometry": {
         "type": "Point",
         "coordinates": [-38.2287993,-9.39105]
      }
    },
    {
      "type": "Feature",
      "properties": { 
      "IBGE:COD_UNICO_ENDERECO": "217976874",
      "addr:housenumber": "59",
      "addr:postcode": "48605-360",
      "addr:street": "Rua Lago Ipanema",
      "addr:suburb": "Abel Barbosa",
      "building": "yes",
      "fixme": "Verificar coordenadas",
      "note": "Sem face no bayface do IBGE 0500-0060P-25-11"
      },
      "geometry": {
         "type": "Point",
         "coordinates": [-38.221889,-9.392202]
      }
    },
    {
      "type": "Feature",
      "properties": { 
      "IBGE:COD_UNICO_ENDERECO": "27364126;215075789;215075810",
      "addr:housenumber": "370",
      "addr:postcode": "48605-280",
      "addr:street": "Rua Canadá",
      "addr:suburb": "Abel Barbosa",
      "building": "yes"
      },
      "geometry": {
         "type": "Point",
         "coordinates": [-38.2276122,-9.3926805]
      }
    },
    {
      "type": "Feature",
      "properties": { 
      "IBGE:COD_UNICO_ENDERECO": "217976865",
      "addr:housenumber": "51",
      "addr:postcode": "48605-360",
      "addr:street": "Rua Lago Ipanema",
      "addr:suburb": "Abel Barbosa",
      "addr:unit": "Casa 51",
      "building": "yes",
      "fixme": "Verificar coordenadas",
      "note": "Sem face no bayface do IBGE 0500-0060P-25-11"
      },
      "geometry": {
         "type": "Point",
         "coordinates": [-38.222297,-9.391914]
      }
    },
    {
      "type": "Feature",
      "properties": { 
      "IBGE:COD_UNICO_ENDERECO": "27304622",
      "addr:housenumber": "88",
      "addr:postcode": "48605-240",
      "addr:street": "Rua Portugal",
      "addr:suburb": "Abel Barbosa",
      "building": "yes"
      },
      "geometry": {
         "type": "Point",
         "coordinates": [-38.2288791,-9.3919689]
      }
    },
    {
      "type": "Feature",
      "properties": { 
      "IBGE:COD_UNICO_ENDERECO": "27304646",
      "addr:housenumber": "26",
      "addr:postcode": "48605-400",
      "addr:street": "Rua Lago Azul",
      "addr:suburb": "Abel Barbosa",
      "building": "yes"
      },
      "geometry": {
         "type": "Point",
         "coordinates": [-38.2293014,-9.3887971]
      }
    },
    {
      "type": "Feature",
      "properties": { 
      "IBGE:COD_UNICO_ENDERECO": "217976708",
      "addr:housenumber": "16",
      "addr:postcode": "48605-270",
      "addr:street": "Rua Equador",
      "addr:suburb": "Abel Barbosa",
      "building": "yes",
      "fixme": "Verificar coordenadas",
      "note": "Sem face no bayface do IBGE 0500-0060P-25-3"
      },
      "geometry": {
         "type": "Point",
         "coordinates": [-38.230634,-9.394725]
      }
    },
    {
      "type": "Feature",
      "properties": { 
      "IBGE:COD_UNICO_ENDERECO": "217976881",
      "addr:housenumber": "58",
      "addr:postcode": "48605-360",
      "addr:street": "Rua Lago Ipanema",
      "addr:suburb": "Abel Barbosa",
      "building": "yes",
      "fixme": "Verificar coordenadas",
      "note": "Sem face no bayface do IBGE 0500-0060P-25-11"
      },
      "geometry": {
         "type": "Point",
         "coordinates": [-38.221936,-9.392127]
      }
    },
    {
      "type": "Feature",
      "properties": { 
      "IBGE:COD_UNICO_ENDERECO": "215075229",
      "addr:housenumber": "301",
      "addr:postcode": "48605-355",
      "addr:street": "Rua Chile",
      "addr:suburb": "Abel Barbosa",
      "addr:unit": "Casa A",
      "building": "yes"
      },
      "geometry": {
         "type": "Point",
         "coordinates": [-38.2284181,-9.3938736]
      }
    },
    {
      "type": "Feature",
      "properties": { 
      "IBGE:COD_UNICO_ENDERECO": "27304554",
      "addr:housenumber": "40",
      "addr:postcode": "48605-310",
      "addr:street": "Rua França",
      "addr:suburb": "Abel Barbosa",
      "building": "yes"
      },
      "geometry": {
         "type": "Point",
         "coordinates": [-38.2298142,-9.3921318]
      }
    },
    {
      "type": "Feature",
      "properties": { 
      "IBGE:COD_UNICO_ENDERECO": "27364119",
      "addr:housenumber": "3",
      "addr:postcode": "48605-355",
      "addr:street": "Rua Chile",
      "addr:suburb": "Abel Barbosa",
      "building": "yes"
      },
      "geometry": {
         "type": "Point",
         "coordinates": [-38.2277138,-9.393484]
      }
    },
    {
      "type": "Feature",
      "properties": { 
      "IBGE:COD_UNICO_ENDERECO": "27304552",
      "addr:housenumber": "14",
      "addr:postcode": "48605-310",
      "addr:street": "Rua França",
      "addr:suburb": "Abel Barbosa",
      "building": "yes"
      },
      "geometry": {
         "type": "Point",
         "coordinates": [-38.2298202,-9.3924405]
      }
    },
    {
      "type": "Feature",
      "properties": { 
      "IBGE:COD_UNICO_ENDERECO": "215075371",
      "addr:housenumber": "192",
      "addr:postcode": "48605-240",
      "addr:street": "Rua Portugal",
      "addr:suburb": "Abel Barbosa",
      "building": "yes"
      },
      "geometry": {
         "type": "Point",
         "coordinates": [-38.2288227,-9.3907913]
      }
    },
    {
      "type": "Feature",
      "properties": { 
      "IBGE:COD_UNICO_ENDERECO": "27364127",
      "addr:housenumber": "330",
      "addr:postcode": "48605-280",
      "addr:street": "Rua Canadá",
      "addr:suburb": "Abel Barbosa",
      "building": "yes"
      },
      "geometry": {
         "type": "Point",
         "coordinates": [-38.22767,-9.3923865]
      }
    },
    {
      "type": "Feature",
      "properties": { 
      "IBGE:COD_UNICO_ENDERECO": "27364049",
      "addr:housenumber": "216",
      "addr:postcode": "48605-290",
      "addr:street": "Rua Argentina",
      "addr:suburb": "Abel Barbosa",
      "building": "yes"
      },
      "geometry": {
         "type": "Point",
         "coordinates": [-38.2282068,-9.3929092]
      }
    },
    {
      "type": "Feature",
      "properties": { 
      "IBGE:COD_UNICO_ENDERECO": "223783519",
      "addr:housenumber": "144 Térreo",
      "addr:postcode": "48605-400",
      "addr:street": "Rua Lago Azul",
      "addr:suburb": "Abel Barbosa",
      "building": "yes"
      },
      "geometry": {
         "type": "Point",
         "coordinates": [-38.2291418,-9.3898588]
      }
    },
    {
      "type": "Feature",
      "properties": { 
      "IBGE:COD_UNICO_ENDERECO": "215075605",
      "addr:housenumber": "77",
      "addr:postcode": "48605-290",
      "addr:street": "Rua Argentina",
      "addr:suburb": "Abel Barbosa",
      "addr:unit": "Casa A",
      "building": "yes"
      },
      "geometry": {
         "type": "Point",
         "coordinates": [-38.2281036,-9.3921635]
      }
    },
    {
      "type": "Feature",
      "properties": { 
      "IBGE:COD_UNICO_ENDERECO": "27421122",
      "addr:housenumber": "781",
      "addr:postcode": "48605-215",
      "addr:street": "Rua Chile",
      "addr:suburb": "Abel Barbosa",
      "building": "yes"
      },
      "geometry": {
         "type": "Point",
         "coordinates": [-38.2250402,-9.392077]
      }
    },
    {
      "type": "Feature",
      "properties": { 
      "IBGE:COD_UNICO_ENDERECO": "27304613",
      "addr:housenumber": "19",
      "addr:postcode": "48605-240",
      "addr:street": "Rua Portugal",
      "addr:suburb": "Abel Barbosa",
      "building": "yes"
      },
      "geometry": {
         "type": "Point",
         "coordinates": [-38.2289739,-9.3910483]
      }
    },
    {
      "type": "Feature",
      "properties": { 
      "IBGE:COD_UNICO_ENDERECO": "27364128",
      "addr:housenumber": "250",
      "addr:postcode": "48605-280",
      "addr:street": "Rua Canadá",
      "addr:suburb": "Abel Barbosa",
      "building": "yes"
      },
      "geometry": {
         "type": "Point",
         "coordinates": [-38.2278187,-9.3916295]
      }
    },
    {
      "type": "Feature",
      "properties": { 
      "IBGE:COD_UNICO_ENDERECO": "27304547",
      "addr:housenumber": "112",
      "addr:postcode": "48605-235",
      "addr:street": "Rua Argélia",
      "addr:suburb": "Abel Barbosa",
      "building": "yes"
      },
      "geometry": {
         "type": "Point",
         "coordinates": [-38.2302172,-9.3925399]
      }
    },
    {
      "type": "Feature",
      "properties": { 
      "IBGE:COD_UNICO_ENDERECO": "217976694",
      "addr:housenumber": "44",
      "addr:postcode": "48605-215",
      "addr:street": "Rua Chile",
      "addr:suburb": "Abel Barbosa",
      "building": "yes",
      "fixme": "Verificar coordenadas",
      "note": "Sem dados para mover para dentro da quadra 0500-0060P-25-2"
      },
      "geometry": {
         "type": "Point",
         "coordinates": [-38.2313148,-9.3947046]
      }
    },
    {
      "type": "Feature",
      "properties": { 
      "IBGE:COD_UNICO_ENDERECO": "27304555",
      "addr:housenumber": "4",
      "addr:postcode": "48605-310",
      "addr:street": "Rua França",
      "addr:suburb": "Abel Barbosa",
      "building": "yes"
      },
      "geometry": {
         "type": "Point",
         "coordinates": [-38.2298174,-9.392029]
      }
    },
    {
      "type": "Feature",
      "properties": { 
      "IBGE:COD_UNICO_ENDERECO": "27304600",
      "addr:housenumber": "37 Térreo",
      "addr:postcode": "48605-245",
      "addr:street": "Rua Itália",
      "addr:suburb": "Abel Barbosa",
      "building": "yes"
      },
      "geometry": {
         "type": "Point",
         "coordinates": [-38.2292828,-9.3918031]
      }
    },
    {
      "type": "Feature",
      "properties": { 
      "IBGE:COD_UNICO_ENDERECO": "27304604",
      "addr:housenumber": "2",
      "addr:postcode": "48605-245",
      "addr:street": "Rua Itália",
      "addr:suburb": "Abel Barbosa",
      "building": "yes"
      },
      "geometry": {
         "type": "Point",
         "coordinates": [-38.2293419,-9.391387]
      }
    },
    {
      "type": "Feature",
      "properties": { 
      "IBGE:COD_UNICO_ENDERECO": "27304612",
      "addr:housenumber": "187",
      "addr:postcode": "48605-240",
      "addr:street": "Rua Portugal",
      "addr:suburb": "Abel Barbosa",
      "building": "yes"
      },
      "geometry": {
         "type": "Point",
         "coordinates": [-38.2289945,-9.3908475]
      }
    },
    {
      "type": "Feature",
      "properties": { 
      "IBGE:COD_UNICO_ENDERECO": "27304654",
      "addr:housenumber": "118",
      "addr:postcode": "48605-400",
      "addr:street": "Rua Lago Azul",
      "addr:suburb": "Abel Barbosa",
      "building": "yes"
      },
      "geometry": {
         "type": "Point",
         "coordinates": [-38.2291618,-9.3897121]
      }
    },
    {
      "type": "Feature",
      "properties": { 
      "IBGE:COD_UNICO_ENDERECO": "223783528",
      "addr:housenumber": "117 Frente",
      "addr:postcode": "48605-225",
      "addr:street": "Rua dos Expedicionários",
      "addr:suburb": "Abel Barbosa",
      "building": "yes"
      },
      "geometry": {
         "type": "Point",
         "coordinates": [-38.2305855,-9.3921282]
      }
    },
    {
      "type": "Feature",
      "properties": { 
      "IBGE:COD_UNICO_ENDERECO": "27304605",
      "addr:housenumber": "7",
      "addr:postcode": "48605-245",
      "addr:street": "Rua Itália",
      "addr:suburb": "Abel Barbosa",
      "building": "yes"
      },
      "geometry": {
         "type": "Point",
         "coordinates": [-38.229345,-9.3913687]
      }
    },
    {
      "type": "Feature",
      "properties": { 
      "IBGE:COD_UNICO_ENDERECO": "27421123",
      "addr:housenumber": "480",
      "addr:postcode": "48605-215",
      "addr:street": "Rua Chile",
      "addr:suburb": "Abel Barbosa",
      "building": "yes"
      },
      "geometry": {
         "type": "Point",
         "coordinates": [-38.225154,-9.3921345]
      }
    },
    {
      "type": "Feature",
      "properties": { 
      "IBGE:COD_UNICO_ENDERECO": "27364075",
      "addr:housenumber": "163",
      "addr:postcode": "48605-290",
      "addr:street": "Rua Argentina",
      "addr:suburb": "Abel Barbosa",
      "building": "yes"
      },
      "geometry": {
         "type": "Point",
         "coordinates": [-38.2283861,-9.391005]
      }
    },
    {
      "type": "Feature",
      "properties": { 
      "IBGE:COD_UNICO_ENDERECO": "217976692;217976703",
      "addr:housenumber": "16",
      "addr:postcode": "48605-215",
      "addr:street": "Rua Chile",
      "addr:suburb": "Abel Barbosa",
      "building": "yes",
      "fixme": "Verificar coordenadas",
      "note": "Sem dados para mover para dentro da quadra 0500-0060P-25-2"
      },
      "geometry": {
         "type": "Point",
         "coordinates": [-38.2316377,-9.3947203]
      }
    },
    {
      "type": "Feature",
      "properties": { 
      "IBGE:COD_UNICO_ENDERECO": "215075279",
      "addr:housenumber": "191 B",
      "addr:postcode": "48605-240",
      "addr:street": "Rua Portugal",
      "addr:suburb": "Abel Barbosa",
      "building": "yes"
      },
      "geometry": {
         "type": "Point",
         "coordinates": [-38.2286408,-9.3927433]
      }
    },
    {
      "type": "Feature",
      "properties": { 
      "IBGE:COD_UNICO_ENDERECO": "215075691",
      "addr:housenumber": "20",
      "addr:postcode": "48605-280",
      "addr:street": "Rua Canadá",
      "addr:suburb": "Abel Barbosa",
      "building": "yes"
      },
      "geometry": {
         "type": "Point",
         "coordinates": [-38.2279648,-9.3917453]
      }
    },
    {
      "type": "Feature",
      "properties": { 
      "IBGE:COD_UNICO_ENDERECO": "27304645",
      "addr:housenumber": "22",
      "addr:postcode": "48605-400",
      "addr:street": "Rua Lago Azul",
      "addr:suburb": "Abel Barbosa",
      "building": "yes"
      },
      "geometry": {
         "type": "Point",
         "coordinates": [-38.2293185,-9.3885608]
      }
    },
    {
      "type": "Feature",
      "properties": { 
      "IBGE:COD_UNICO_ENDERECO": "27304559",
      "addr:housenumber": "39",
      "addr:postcode": "48605-245",
      "addr:street": "Rua Itália",
      "addr:suburb": "Abel Barbosa",
      "building": "yes"
      },
      "geometry": {
         "type": "Point",
         "coordinates": [-38.2294074,-9.3921774]
      }
    },
    {
      "type": "Feature",
      "properties": { 
      "IBGE:COD_UNICO_ENDERECO": "27304573",
      "addr:housenumber": "64",
      "addr:postcode": "48605-220",
      "addr:street": "Rua Holanda",
      "addr:suburb": "Abel Barbosa",
      "building": "yes"
      },
      "geometry": {
         "type": "Point",
         "coordinates": [-38.229011,-9.393075]
      }
    },
    {
      "type": "Feature",
      "properties": { 
      "IBGE:COD_UNICO_ENDERECO": "27304578",
      "addr:housenumber": "181",
      "addr:postcode": "48605-230",
      "addr:street": "Rua Paraguai",
      "addr:suburb": "Abel Barbosa",
      "building": "yes"
      },
      "geometry": {
         "type": "Point",
         "coordinates": [-38.2293632,-9.3942717]
      }
    },
    {
      "type": "Feature",
      "properties": { 
      "IBGE:COD_UNICO_ENDERECO": "27304658",
      "addr:housenumber": "144",
      "addr:postcode": "48605-400",
      "addr:street": "Rua Lago Azul",
      "addr:suburb": "Abel Barbosa",
      "building": "yes",
      "name": "Miguel Amorim Engenharia"
      },
      "geometry": {
         "type": "Point",
         "coordinates": [-38.2291535,-9.3897752]
      }
    },
    {
      "type": "Feature",
      "properties": { 
      "IBGE:COD_UNICO_ENDERECO": "27421130",
      "addr:housenumber": "447",
      "addr:postcode": "48605-215",
      "addr:street": "Rua Chile",
      "addr:suburb": "Abel Barbosa",
      "building": "yes",
      "fixme": "Verificar coordenadas",
      "note": "Sem face no bayface do IBGE 0500-0147P-8-4"
      },
      "geometry": {
         "type": "Point",
         "coordinates": [-38.224773,-9.392028]
      }
    },
    {
      "type": "Feature",
      "properties": { 
      "IBGE:COD_UNICO_ENDERECO": "27304615",
      "addr:housenumber": "11 A",
      "addr:postcode": "48605-240",
      "addr:street": "Rua Portugal",
      "addr:suburb": "Abel Barbosa",
      "addr:unit": "Fundos",
      "building": "yes"
      },
      "geometry": {
         "type": "Point",
         "coordinates": [-38.2289989,-9.3913385]
      }
    },
    {
      "type": "Feature",
      "properties": { 
      "IBGE:COD_UNICO_ENDERECO": "27304617",
      "addr:housenumber": "11",
      "addr:postcode": "48605-240",
      "addr:street": "Rua Portugal",
      "addr:suburb": "Abel Barbosa",
      "building": "garage",
      "description": "CNEFE 2022 Garagem"
      },
      "geometry": {
         "type": "Point",
         "coordinates": [-38.2289398,-9.3913797]
      }
    },
    {
      "type": "Feature",
      "properties": { 
      "IBGE:COD_UNICO_ENDERECO": "27364077",
      "addr:housenumber": "127",
      "addr:postcode": "48605-290",
      "addr:street": "Rua Argentina",
      "addr:suburb": "Abel Barbosa",
      "building": "yes"
      },
      "geometry": {
         "type": "Point",
         "coordinates": [-38.2283499,-9.3913322]
      }
    },
    {
      "type": "Feature",
      "properties": { 
      "IBGE:COD_UNICO_ENDERECO": "217976696",
      "addr:housenumber": "60",
      "addr:postcode": "48605-215",
      "addr:street": "Rua Chile",
      "addr:suburb": "Abel Barbosa",
      "building": "yes",
      "fixme": "Verificar coordenadas",
      "note": "Sem dados para mover para dentro da quadra 0500-0060P-25-2"
      },
      "geometry": {
         "type": "Point",
         "coordinates": [-38.2311495,-9.3946965]
      }
    },
    {
      "type": "Feature",
      "properties": { 
      "IBGE:COD_UNICO_ENDERECO": "215075869",
      "addr:housenumber": "4",
      "addr:postcode": "48605-280",
      "addr:street": "Rua Canadá",
      "addr:suburb": "Abel Barbosa",
      "addr:unit": "Lote",
      "building": "yes"
      },
      "geometry": {
         "type": "Point",
         "coordinates": [-38.22775,-9.3919792]
      }
    },
    {
      "type": "Feature",
      "properties": { 
      "IBGE:COD_UNICO_ENDERECO": "27364111",
      "addr:housenumber": "152",
      "addr:postcode": "48605-280",
      "addr:street": "Rua Canadá",
      "addr:suburb": "Abel Barbosa",
      "building": "yes"
      },
      "geometry": {
         "type": "Point",
         "coordinates": [-38.2277477,-9.3928758]
      }
    },
    {
      "type": "Feature",
      "properties": { 
      "IBGE:COD_UNICO_ENDERECO": "27364057",
      "addr:housenumber": "11 Térreo",
      "addr:postcode": "48605-290",
      "addr:street": "Rua Argentina",
      "addr:suburb": "Abel Barbosa",
      "building": "yes"
      },
      "geometry": {
         "type": "Point",
         "coordinates": [-38.2281944,-9.3931386]
      }
    },
    {
      "type": "Feature",
      "properties": { 
      "IBGE:COD_UNICO_ENDERECO": "27364145",
      "addr:housenumber": "313",
      "addr:postcode": "48605-355",
      "addr:street": "Rua Chile",
      "addr:suburb": "Abel Barbosa",
      "building": "yes"
      },
      "geometry": {
         "type": "Point",
         "coordinates": [-38.2273126,-9.3932741]
      }
    },
    {
      "type": "Feature",
      "properties": { 
      "IBGE:COD_UNICO_ENDERECO": "223783457",
      "addr:housenumber": "51",
      "addr:postcode": "48605-245",
      "addr:street": "Rua Itália",
      "addr:suburb": "Abel Barbosa",
      "addr:unit": "Fundos",
      "building": "yes"
      },
      "geometry": {
         "type": "Point",
         "coordinates": [-38.2294704,-9.3920528]
      }
    },
    {
      "type": "Feature",
      "properties": { 
      "IBGE:COD_UNICO_ENDERECO": "215075549;215075562",
      "addr:housenumber": "210",
      "addr:postcode": "48605-290",
      "addr:street": "Rua Argentina",
      "addr:suburb": "Abel Barbosa",
      "building": "yes"
      },
      "geometry": {
         "type": "Point",
         "coordinates": [-38.2284388,-9.3905284]
      }
    },
    {
      "type": "Feature",
      "properties": { 
      "IBGE:COD_UNICO_ENDERECO": "27364121-27364122",
      "addr:housenumber": "416",
      "addr:postcode": "48605-280",
      "addr:street": "Rua Canadá",
      "addr:suburb": "Abel Barbosa",
      "building": "construction"
      },
      "geometry": {
         "type": "Point",
         "coordinates": [-38.2275168,-9.3931732]
      }
    },
    {
      "type": "Feature",
      "properties": { 
      "IBGE:COD_UNICO_ENDERECO": "27364108",
      "addr:housenumber": "77",
      "addr:postcode": "48605-290",
      "addr:street": "Rua Argentina",
      "addr:suburb": "Abel Barbosa",
      "building": "yes"
      },
      "geometry": {
         "type": "Point",
         "coordinates": [-38.2280989,-9.3922327]
      }
    },
    {
      "type": "Feature",
      "properties": { 
      "IBGE:COD_UNICO_ENDERECO": "223783474",
      "addr:housenumber": "3",
      "addr:postcode": "48605-245",
      "addr:street": "Rua Itália",
      "addr:suburb": "Abel Barbosa",
      "addr:unit": "Fundos Casa 3",
      "building": "yes"
      },
      "geometry": {
         "type": "Point",
         "coordinates": [-38.22931030753,-9.3912584951224]
      }
    },
    {
      "type": "Feature",
      "properties": { 
      "IBGE:COD_UNICO_ENDERECO": "27304606-27304610",
      "addr:housenumber": "3",
      "addr:postcode": "48605-245",
      "addr:street": "Rua Itália",
      "addr:suburb": "Abel Barbosa",
      "building": "yes"
      },
      "geometry": {
         "type": "Point",
         "coordinates": [-38.2293765,-9.3910822]
      }
    },
    {
      "type": "Feature",
      "properties": { 
      "IBGE:COD_UNICO_ENDERECO": "27304558;223783456",
      "addr:housenumber": "51",
      "addr:postcode": "48605-245",
      "addr:street": "Rua Itália",
      "addr:suburb": "Abel Barbosa",
      "building": "yes"
      },
      "geometry": {
         "type": "Point",
         "coordinates": [-38.2294158,-9.3920506]
      }
    },
    {
      "type": "Feature",
      "properties": { 
      "IBGE:COD_UNICO_ENDERECO": "215075650",
      "addr:housenumber": "35",
      "addr:postcode": "48605-290",
      "addr:street": "Rua Argentina",
      "addr:suburb": "Abel Barbosa",
      "building": "yes"
      },
      "geometry": {
         "type": "Point",
         "coordinates": [-38.2281235,-9.3918685]
      }
    },
    {
      "type": "Feature",
      "properties": { 
      "IBGE:COD_UNICO_ENDERECO": "27304630",
      "addr:housenumber": "73",
      "addr:postcode": "48605-205",
      "addr:street": "Avenida dos Estudantes",
      "addr:suburb": "Abel Barbosa",
      "building": "yes"
      },
      "geometry": {
         "type": "Point",
         "coordinates": [-38.2318468,-9.3919849]
      }
    },
    {
      "type": "Feature",
      "properties": { 
      "IBGE:COD_UNICO_ENDERECO": "27304616",
      "addr:housenumber": "11 Frente",
      "addr:postcode": "48605-240",
      "addr:street": "Rua Portugal",
      "addr:suburb": "Abel Barbosa",
      "building": "yes"
      },
      "geometry": {
         "type": "Point",
         "coordinates": [-38.2289425,-9.3913531]
      }
    },
    {
      "type": "Feature",
      "properties": { 
      "IBGE:COD_UNICO_ENDERECO": "27364056",
      "addr:housenumber": "11",
      "addr:postcode": "48605-290",
      "addr:street": "Rua Argentina",
      "addr:suburb": "Abel Barbosa",
      "building": "yes",
      "description": "CNEFE 2022 Mercearia",
      "shop": "convenience"
      },
      "geometry": {
         "type": "Point",
         "coordinates": [-38.228199387121,-9.393126322981]
      }
    },
    {
      "type": "Feature",
      "properties": { 
      "IBGE:COD_UNICO_ENDERECO": "27304597",
      "addr:housenumber": "61",
      "addr:postcode": "48605-245",
      "addr:street": "Rua Itália",
      "addr:suburb": "Abel Barbosa",
      "building": "yes"
      },
      "geometry": {
         "type": "Point",
         "coordinates": [-38.2292782,-9.3918363]
      }
    },
    {
      "type": "Feature",
      "properties": { 
      "IBGE:COD_UNICO_ENDERECO": "27304655-27304657",
      "addr:housenumber": "130",
      "addr:postcode": "48605-400",
      "addr:street": "Rua Lago Azul",
      "addr:suburb": "Abel Barbosa",
      "building": "yes"
      },
      "geometry": {
         "type": "Point",
         "coordinates": [-38.2291432,-9.3898484]
      }
    },
    {
      "type": "Feature",
      "properties": { 
      "IBGE:COD_UNICO_ENDERECO": "27304579",
      "addr:housenumber": "191",
      "addr:postcode": "48605-230",
      "addr:street": "Rua Paraguai",
      "addr:suburb": "Abel Barbosa",
      "building": "yes"
      },
      "geometry": {
         "type": "Point",
         "coordinates": [-38.2293629,-9.3942776]
      }
    },
    {
      "type": "Feature",
      "properties": { 
      "IBGE:COD_UNICO_ENDERECO": "27304651",
      "addr:housenumber": "78",
      "addr:postcode": "48605-400",
      "addr:street": "Rua Lago Azul",
      "addr:suburb": "Abel Barbosa",
      "building": "yes"
      },
      "geometry": {
         "type": "Point",
         "coordinates": [-38.2292326,-9.3892703]
      }
    },
    {
      "type": "Feature",
      "properties": { 
      "IBGE:COD_UNICO_ENDERECO": "27304592",
      "addr:housenumber": "213",
      "addr:postcode": "48605-355",
      "addr:street": "Rua Chile",
      "addr:suburb": "Abel Barbosa",
      "building": "yes"
      },
      "geometry": {
         "type": "Point",
         "coordinates": [-38.2291966,-9.3943002]
      }
    },
    {
      "type": "Feature",
      "properties": { 
      "IBGE:COD_UNICO_ENDERECO": "27304665",
      "addr:housenumber": "117",
      "addr:postcode": "48605-225",
      "addr:street": "Rua dos Expedicionários",
      "addr:suburb": "Abel Barbosa",
      "addr:unit": "Fundos",
      "building": "yes"
      },
      "geometry": {
         "type": "Point",
         "coordinates": [-38.2304935,-9.3920696]
      }
    },
    {
      "type": "Feature",
      "properties": { 
      "IBGE:COD_UNICO_ENDERECO": "27304601",
      "addr:housenumber": "23",
      "addr:postcode": "48605-245",
      "addr:street": "Rua Itália",
      "addr:suburb": "Abel Barbosa",
      "building": "yes"
      },
      "geometry": {
         "type": "Point",
         "coordinates": [-38.2293015,-9.3916722]
      }
    },
    {
      "type": "Feature",
      "properties": { 
      "IBGE:COD_UNICO_ENDERECO": "27304611",
      "addr:housenumber": "1",
      "addr:postcode": "48605-245",
      "addr:street": "Rua Itália",
      "addr:suburb": "Abel Barbosa",
      "building": "yes",
      "healthcare": "yes",
      "name": "Unidade de Controle de Zoonoses"
      },
      "geometry": {
         "type": "Point",
         "coordinates": [-38.2293774,-9.391065]
      }
    },
    {
      "type": "Feature",
      "properties": { 
      "IBGE:COD_UNICO_ENDERECO": "27364104",
      "addr:housenumber": "153",
      "addr:postcode": "48605-290",
      "addr:street": "Rua Argentina",
      "addr:suburb": "Abel Barbosa",
      "building": "yes"
      },
      "geometry": {
         "type": "Point",
         "coordinates": [-38.2280506,-9.3929471]
      }
    },
    {
      "type": "Feature",
      "properties": { 
      "IBGE:COD_UNICO_ENDERECO": "27304576",
      "addr:housenumber": "89",
      "addr:postcode": "48605-250",
      "addr:street": "Rua Suíça",
      "addr:suburb": "Abel Barbosa",
      "building": "yes"
      },
      "geometry": {
         "type": "Point",
         "coordinates": [-38.2293213,-9.393388]
      }
    },
    {
      "type": "Feature",
      "properties": { 
      "IBGE:COD_UNICO_ENDERECO": "27364080",
      "addr:housenumber": "63",
      "addr:postcode": "48605-290",
      "addr:street": "Rua Argentina",
      "addr:suburb": "Abel Barbosa",
      "building": "yes"
      },
      "geometry": {
         "type": "Point",
         "coordinates": [-38.2282949,-9.391829]
      }
    },
    {
      "type": "Feature",
      "properties": { 
      "IBGE:COD_UNICO_ENDERECO": "27304577",
      "addr:housenumber": "171",
      "addr:postcode": "48605-230",
      "addr:street": "Rua Paraguai",
      "addr:suburb": "Abel Barbosa",
      "building": "yes"
      },
      "geometry": {
         "type": "Point",
         "coordinates": [-38.2293888,-9.3943892]
      }
    },
    {
      "type": "Feature",
      "properties": { 
      "IBGE:COD_UNICO_ENDERECO": "217976718",
      "addr:housenumber": "48",
      "addr:postcode": "48605-270",
      "addr:street": "Rua Equador",
      "addr:suburb": "Abel Barbosa",
      "building": "yes",
      "fixme": "Verificar coordenadas",
      "note": "Sem face no bayface do IBGE 0500-0060P-25-3"
      },
      "geometry": {
         "type": "Point",
         "coordinates": [-38.230589,-9.395073]
      }
    },
    {
      "type": "Feature",
      "properties": { 
      "IBGE:COD_UNICO_ENDERECO": "27304618",
      "addr:housenumber": "24",
      "addr:postcode": "48605-240",
      "addr:street": "Rua Portugal",
      "addr:suburb": "Abel Barbosa",
      "building": "yes"
      },
      "geometry": {
         "type": "Point",
         "coordinates": [-38.2289359,-9.3914173]
      }
    },
    {
      "type": "Feature",
      "properties": { 
      "IBGE:COD_UNICO_ENDERECO": "27364110",
      "addr:housenumber": "61",
      "addr:postcode": "48605-290",
      "addr:street": "Rua Argentina",
      "addr:suburb": "Abel Barbosa",
      "building": "yes"
      },
      "geometry": {
         "type": "Point",
         "coordinates": [-38.2281131,-9.3920218]
      }
    },
    {
      "type": "Feature",
      "properties": { 
      "IBGE:COD_UNICO_ENDERECO": "27304623",
      "addr:housenumber": "100",
      "addr:postcode": "48605-240",
      "addr:street": "Rua Portugal",
      "addr:suburb": "Abel Barbosa",
      "building": "yes"
      },
      "geometry": {
         "type": "Point",
         "coordinates": [-38.2288688,-9.3920694]
      }
    },
    {
      "type": "Feature",
      "properties": { 
      "IBGE:COD_UNICO_ENDERECO": "27304564",
      "addr:housenumber": "6",
      "addr:postcode": "48605-230",
      "addr:street": "Rua Paraguai",
      "addr:suburb": "Abel Barbosa",
      "amenity": "dormitory",
      "building": "yes",
      "name": "Alojamento"
      },
      "geometry": {
         "type": "Point",
         "coordinates": [-38.2294394,-9.3928897]
      }
    },
    {
      "type": "Feature",
      "properties": { 
      "IBGE:COD_UNICO_ENDERECO": "27364081",
      "addr:housenumber": "51 Térreo",
      "addr:postcode": "48605-290",
      "addr:street": "Rua Argentina",
      "addr:suburb": "Abel Barbosa",
      "building": "yes"
      },
      "geometry": {
         "type": "Point",
         "coordinates": [-38.2282778,-9.391984]
      }
    },
    {
      "type": "Feature",
      "properties": { 
      "IBGE:COD_UNICO_ENDERECO": "27304652",
      "addr:housenumber": "94",
      "addr:postcode": "48605-400",
      "addr:street": "Rua Lago Azul",
      "addr:suburb": "Abel Barbosa",
      "building": "yes"
      },
      "geometry": {
         "type": "Point",
         "coordinates": [-38.2292185,-9.389346]
      }
    },
    {
      "type": "Feature",
      "properties": { 
      "IBGE:COD_UNICO_ENDERECO": "27364036",
      "addr:housenumber": "281",
      "addr:postcode": "48605-240",
      "addr:street": "Rua Portugal",
      "addr:suburb": "Abel Barbosa",
      "building": "yes"
      },
      "geometry": {
         "type": "Point",
         "coordinates": [-38.2285762,-9.3937142]
      }
    },
    {
      "type": "Feature",
      "properties": { 
      "IBGE:COD_UNICO_ENDERECO": "27304546",
      "addr:housenumber": "64",
      "addr:postcode": "48605-235",
      "addr:street": "Rua Argélia",
      "addr:suburb": "Abel Barbosa",
      "building": "yes"
      },
      "geometry": {
         "type": "Point",
         "coordinates": [-38.2299697,-9.3925275]
      }
    },
    {
      "type": "Feature",
      "properties": { 
      "IBGE:COD_UNICO_ENDERECO": "27304583",
      "addr:housenumber": "103",
      "addr:postcode": "48605-230",
      "addr:street": "Rua Paraguai",
      "addr:suburb": "Abel Barbosa",
      "building": "yes"
      },
      "geometry": {
         "type": "Point",
         "coordinates": [-38.2293926,-9.3936621]
      }
    },
    {
      "type": "Feature",
      "properties": { 
      "IBGE:COD_UNICO_ENDERECO": "27364129",
      "addr:housenumber": "12",
      "addr:postcode": "48605-280",
      "addr:street": "Rua Canadá",
      "addr:suburb": "Abel Barbosa",
      "building": "yes"
      },
      "geometry": {
         "type": "Point",
         "coordinates": [-38.2278338,-9.3915527]
      }
    },
    {
      "type": "Feature",
      "properties": { 
      "IBGE:COD_UNICO_ENDERECO": "27304544",
      "addr:housenumber": "10",
      "addr:postcode": "48605-225",
      "addr:street": "Rua dos Expedicionários",
      "addr:suburb": "Abel Barbosa",
      "building": "yes"
      },
      "geometry": {
         "type": "Point",
         "coordinates": [-38.2301072,-9.3922586]
      }
    }
  ]
}
