{
  "type": "FeatureCollection",
  "generator": "CSV-CNEFE2GeoJSON.lua 1.5.7 - fidelis.assis@gmail.com",
  "source": "IBGE CNEFE + Faces de Logradouros - 2022",
  "date": "2025-02-02T09:05:08-0300",
  "features": [
    {
      "type": "Feature",
      "properties": { 
      "IBGE:COD_UNICO_ENDERECO": "29553477",
      "addr:housenumber": "5",
      "addr:postcode": "48601-248",
      "addr:street": "Estrada Santa Cruz aos Algodões",
      "addr:suburb": "Baixa Verde",
      "crop": "corn",
      "fixme": "Confirmar nome;Verificar coordenadas",
      "landuse": "farmland",
      "name": "Plantação de Milho",
      "note": "Sem setor ou quadra no bayface do IBGE 0500-0199P-0-25"
      },
      "geometry": {
         "type": "Point",
         "coordinates": [-38.279988,-9.6797]
      }
    },
    {
      "type": "Feature",
      "properties": { 
      "IBGE:COD_UNICO_ENDERECO": "112583876",
      "addr:housenumber": "370 B",
      "addr:postcode": "48601-248",
      "addr:street": "Estrada Algodões Baixa Verde",
      "addr:suburb": "Baixa Verde",
      "crop": "corn;forage_palm",
      "fixme": "Confirmar nome;Verificar coordenadas",
      "landuse": "farmland",
      "name": "Plantação de Milho e Palma",
      "note": "Sem setor ou quadra no bayface do IBGE 0500-0199P-0-24"
      },
      "geometry": {
         "type": "Point",
         "coordinates": [-38.283151,-9.681861]
      }
    },
    {
      "type": "Feature",
      "properties": { 
      "IBGE:COD_UNICO_ENDERECO": "112583459",
      "addr:housenumber": "430 A",
      "addr:postcode": "48601-248",
      "addr:street": "Estrada Algodões Baixa Verde",
      "addr:suburb": "Baixa Verde",
      "building": "yes",
      "fixme": "Verificar coordenadas",
      "note": "Sem setor ou quadra no bayface do IBGE 0500-0199P-0-24"
      },
      "geometry": {
         "type": "Point",
         "coordinates": [-38.276623,-9.686309]
      }
    },
    {
      "type": "Feature",
      "properties": { 
      "IBGE:COD_UNICO_ENDERECO": "29553267",
      "addr:housenumber": "170 B",
      "addr:postcode": "48601-248",
      "addr:street": "Estrada Baixa Verde",
      "addr:suburb": "Baixa Verde",
      "building": "yes",
      "fixme": "Verificar coordenadas",
      "note": "Sem setor ou quadra no bayface do IBGE 0500-0198P-0-67"
      },
      "geometry": {
         "type": "Point",
         "coordinates": [-38.281209,-9.668081]
      }
    },
    {
      "type": "Feature",
      "properties": { 
      "IBGE:COD_UNICO_ENDERECO": "191889317",
      "addr:housenumber": "110 A",
      "addr:postcode": "48601-248",
      "addr:street": "Estrada do Bogo",
      "addr:suburb": "Baixa Verde",
      "building": "yes",
      "fixme": "Verificar coordenadas",
      "note": "Sem setor ou quadra no bayface do IBGE 0500-0198P-0-68"
      },
      "geometry": {
         "type": "Point",
         "coordinates": [-38.280574,-9.664808]
      }
    },
    {
      "type": "Feature",
      "properties": { 
      "IBGE:COD_UNICO_ENDERECO": "29553271",
      "addr:housenumber": "26",
      "addr:postcode": "48601-248",
      "addr:street": "Estrada Baixa Verde",
      "addr:suburb": "Baixa Verde",
      "building": "yes",
      "fixme": "Verificar coordenadas",
      "note": "Sem setor ou quadra no bayface do IBGE 0500-0198P-0-67"
      },
      "geometry": {
         "type": "Point",
         "coordinates": [-38.281776,-9.670179]
      }
    },
    {
      "type": "Feature",
      "properties": { 
      "IBGE:COD_UNICO_ENDERECO": "112583834",
      "addr:housenumber": "60 Lado Direito",
      "addr:postcode": "48601-248",
      "addr:street": "Estrada Algodões Baixa Verde",
      "addr:suburb": "Baixa Verde",
      "building": "yes",
      "fixme": "Verificar coordenadas",
      "note": "Sem setor ou quadra no bayface do IBGE 0500-0199P-0-24"
      },
      "geometry": {
         "type": "Point",
         "coordinates": [-38.281739,-9.674713]
      }
    },
    {
      "type": "Feature",
      "properties": { 
      "IBGE:COD_UNICO_ENDERECO": "112586168",
      "addr:housenumber": "27600302",
      "addr:postcode": "48601-248",
      "addr:street": "Estrada Algodões Baixa Verde",
      "addr:suburb": "Baixa Verde",
      "building": "yes",
      "fixme": "Verificar coordenadas",
      "note": "Sem setor ou quadra no bayface do IBGE 0500-0199P-0-24"
      },
      "geometry": {
         "type": "Point",
         "coordinates": [-38.275743,-9.680964]
      }
    },
    {
      "type": "Feature",
      "properties": { 
      "IBGE:COD_UNICO_ENDERECO": "191889311",
      "addr:housenumber": "20 B",
      "addr:postcode": "48601-248",
      "addr:street": "Estrada do Bogo",
      "addr:suburb": "Baixa Verde",
      "building": "yes",
      "fixme": "Verificar coordenadas",
      "note": "Sem setor ou quadra no bayface do IBGE 0500-0198P-0-68"
      },
      "geometry": {
         "type": "Point",
         "coordinates": [-38.280419,-9.664131]
      }
    },
    {
      "type": "Feature",
      "properties": { 
      "IBGE:COD_UNICO_ENDERECO": "191889307",
      "addr:housenumber": "192 B",
      "addr:postcode": "48601-248",
      "addr:street": "Estrada Baixa Verde",
      "addr:suburb": "Baixa Verde",
      "amenity": "place_of_worship",
      "building": "church",
      "fixme": "Verificar coordenadas",
      "name": "Paróquia",
      "note": "Sem setor ou quadra no bayface do IBGE 0500-0198P-0-67",
      "religion": "christian"
      },
      "geometry": {
         "type": "Point",
         "coordinates": [-38.282314,-9.67414]
      }
    },
    {
      "type": "Feature",
      "properties": { 
      "IBGE:COD_UNICO_ENDERECO": "29553469",
      "addr:housenumber": "178735",
      "addr:postcode": "48601-248",
      "addr:street": "Estrada Santa Cruz aos Algodões",
      "addr:suburb": "Baixa Verde",
      "building": "yes",
      "fixme": "Verificar coordenadas",
      "note": "Sem setor ou quadra no bayface do IBGE 0500-0199P-0-25"
      },
      "geometry": {
         "type": "Point",
         "coordinates": [-38.275915,-9.682214]
      }
    },
    {
      "type": "Feature",
      "properties": { 
      "IBGE:COD_UNICO_ENDERECO": "112583471",
      "addr:housenumber": "410 B",
      "addr:postcode": "48601-248",
      "addr:street": "Estrada Algodões Baixa Verde",
      "addr:suburb": "Baixa Verde",
      "building": "yes",
      "fixme": "Verificar coordenadas",
      "note": "Sem setor ou quadra no bayface do IBGE 0500-0199P-0-24"
      },
      "geometry": {
         "type": "Point",
         "coordinates": [-38.283641,-9.68415]
      }
    },
    {
      "type": "Feature",
      "properties": { 
      "IBGE:COD_UNICO_ENDERECO": "29553468",
      "addr:housenumber": "350 A",
      "addr:postcode": "48601-248",
      "addr:street": "Estrada Santa Cruz aos Algodões",
      "addr:suburb": "Baixa Verde",
      "building": "yes",
      "fixme": "Verificar coordenadas",
      "note": "Sem setor ou quadra no bayface do IBGE 0500-0199P-0-25"
      },
      "geometry": {
         "type": "Point",
         "coordinates": [-38.275405,-9.682042]
      }
    },
    {
      "type": "Feature",
      "properties": { 
      "IBGE:COD_UNICO_ENDERECO": "29553268",
      "addr:housenumber": "23",
      "addr:postcode": "48601-248",
      "addr:street": "Estrada Baixa Verde",
      "addr:suburb": "Baixa Verde",
      "building": "yes",
      "fixme": "Verificar coordenadas",
      "note": "Sem setor ou quadra no bayface do IBGE 0500-0198P-0-67"
      },
      "geometry": {
         "type": "Point",
         "coordinates": [-38.281253,-9.668227]
      }
    },
    {
      "type": "Feature",
      "properties": { 
      "IBGE:COD_UNICO_ENDERECO": "29553463",
      "addr:housenumber": "178757",
      "addr:postcode": "48601-248",
      "addr:street": "Estrada Santa Cruz aos Algodões",
      "addr:suburb": "Baixa Verde",
      "building": "yes",
      "fixme": "Verificar coordenadas",
      "note": "Sem setor ou quadra no bayface do IBGE 0500-0199P-0-25"
      },
      "geometry": {
         "type": "Point",
         "coordinates": [-38.275291,-9.686718]
      }
    },
    {
      "type": "Feature",
      "properties": { 
      "IBGE:COD_UNICO_ENDERECO": "112583852",
      "addr:housenumber": "54",
      "addr:postcode": "48601-248",
      "addr:street": "Estrada Algodões Baixa Verde",
      "addr:suburb": "Baixa Verde",
      "building": "yes",
      "fixme": "Verificar coordenadas",
      "note": "Sem setor ou quadra no bayface do IBGE 0500-0199P-0-24"
      },
      "geometry": {
         "type": "Point",
         "coordinates": [-38.283332,-9.680001]
      }
    },
    {
      "type": "Feature",
      "properties": { 
      "IBGE:COD_UNICO_ENDERECO": "112583876",
      "addr:housenumber": "370 B",
      "addr:postcode": "48601-248",
      "addr:street": "Estrada Algodões Baixa Verde",
      "addr:suburb": "Baixa Verde",
      "building": "yes",
      "fixme": "Verificar coordenadas",
      "note": "Sem setor ou quadra no bayface do IBGE 0500-0199P-0-24"
      },
      "geometry": {
         "type": "Point",
         "coordinates": [-38.283150955796,-9.6818611616562]
      }
    },
    {
      "type": "Feature",
      "properties": { 
      "IBGE:COD_UNICO_ENDERECO": "29553281",
      "addr:housenumber": "39",
      "addr:postcode": "48601-248",
      "addr:street": "Sítio Baixa Verde",
      "addr:suburb": "Baixa Verde",
      "building": "yes",
      "fixme": "Verificar coordenadas",
      "note": "Sem setor ou quadra no bayface do IBGE 0500-0198P-0-73"
      },
      "geometry": {
         "type": "Point",
         "coordinates": [-38.287211,-9.670009]
      }
    },
    {
      "type": "Feature",
      "properties": { 
      "IBGE:COD_UNICO_ENDERECO": "29553476",
      "addr:housenumber": "55 A",
      "addr:postcode": "48601-248",
      "addr:street": "Estrada Santa Cruz aos Algodões",
      "addr:suburb": "Baixa Verde",
      "building": "yes",
      "fixme": "Verificar coordenadas",
      "note": "Sem setor ou quadra no bayface do IBGE 0500-0199P-0-25"
      },
      "geometry": {
         "type": "Point",
         "coordinates": [-38.27952,-9.676908]
      }
    },
    {
      "type": "Feature",
      "properties": { 
      "IBGE:COD_UNICO_ENDERECO": "194569641",
      "addr:housenumber": "178751",
      "addr:postcode": "48601-248",
      "addr:street": "Estrada Algodões Baixa Verde",
      "addr:suburb": "Baixa Verde",
      "building": "yes",
      "fixme": "Verificar coordenadas",
      "note": "Sem setor ou quadra no bayface do IBGE 0500-0199P-0-24"
      },
      "geometry": {
         "type": "Point",
         "coordinates": [-38.28296,-9.679201]
      }
    },
    {
      "type": "Feature",
      "properties": { 
      "IBGE:COD_UNICO_ENDERECO": "29553276",
      "addr:housenumber": "150 B",
      "addr:postcode": "48601-248",
      "addr:street": "Fazenda Boa Vista",
      "addr:suburb": "Baixa Verde",
      "building": "yes",
      "fixme": "Verificar coordenadas",
      "note": "Sem setor ou quadra no bayface do IBGE 0500-0198P-0-69"
      },
      "geometry": {
         "type": "Point",
         "coordinates": [-38.282047,-9.66191]
      }
    },
    {
      "type": "Feature",
      "properties": { 
      "IBGE:COD_UNICO_ENDERECO": "29553264",
      "addr:housenumber": "131 A",
      "addr:postcode": "48601-248",
      "addr:street": "Estrada Baixa Verde",
      "addr:suburb": "Baixa Verde",
      "building": "yes",
      "fixme": "Verificar coordenadas",
      "note": "Sem setor ou quadra no bayface do IBGE 0500-0198P-0-67"
      },
      "geometry": {
         "type": "Point",
         "coordinates": [-38.280841,-9.665952]
      }
    },
    {
      "type": "Feature",
      "properties": { 
      "IBGE:COD_UNICO_ENDERECO": "194569638",
      "addr:housenumber": "65",
      "addr:postcode": "48601-248",
      "addr:street": "Estrada Algodões Baixa Verde",
      "addr:suburb": "Baixa Verde",
      "building": "yes",
      "fixme": "Verificar coordenadas",
      "note": "Sem setor ou quadra no bayface do IBGE 0500-0199P-0-24"
      },
      "geometry": {
         "type": "Point",
         "coordinates": [-38.28092,-9.672941]
      }
    },
    {
      "type": "Feature",
      "properties": { 
      "IBGE:COD_UNICO_ENDERECO": "112583834",
      "addr:housenumber": "60 Lado Direito",
      "addr:postcode": "48601-248",
      "addr:street": "Estrada Algodões Baixa Verde",
      "addr:suburb": "Baixa Verde",
      "crop": "corn;forage_palm",
      "fixme": "Confirmar nome;Verificar coordenadas",
      "landuse": "farmland",
      "name": "Plantação de Milho e Palma",
      "note": "Sem setor ou quadra no bayface do IBGE 0500-0199P-0-24"
      },
      "geometry": {
         "type": "Point",
         "coordinates": [-38.281731293388,-9.6747145613881]
      }
    },
    {
      "type": "Feature",
      "properties": { 
      "IBGE:COD_UNICO_ENDERECO": "112583809",
      "addr:housenumber": "178736 Lado Direito",
      "addr:postcode": "48601-248",
      "addr:street": "Estrada Algodões Baixa Verde",
      "addr:suburb": "Baixa Verde",
      "building": "yes",
      "fixme": "Verificar coordenadas",
      "note": "Sem setor ou quadra no bayface do IBGE 0500-0199P-0-24"
      },
      "geometry": {
         "type": "Point",
         "coordinates": [-38.275898,-9.682126]
      }
    },
    {
      "type": "Feature",
      "properties": { 
      "IBGE:COD_UNICO_ENDERECO": "29553263",
      "addr:housenumber": "130 B",
      "addr:postcode": "48601-248",
      "addr:street": "Estrada Baixa Verde",
      "addr:suburb": "Baixa Verde",
      "building": "yes",
      "fixme": "Verificar coordenadas",
      "note": "Sem setor ou quadra no bayface do IBGE 0500-0198P-0-67"
      },
      "geometry": {
         "type": "Point",
         "coordinates": [-38.280883,-9.665694]
      }
    },
    {
      "type": "Feature",
      "properties": { 
      "IBGE:COD_UNICO_ENDERECO": "29553477",
      "addr:housenumber": "5",
      "addr:postcode": "48601-248",
      "addr:street": "Estrada Santa Cruz aos Algodões",
      "addr:suburb": "Baixa Verde",
      "building": "yes",
      "fixme": "Verificar coordenadas",
      "note": "Sem setor ou quadra no bayface do IBGE 0500-0199P-0-25"
      },
      "geometry": {
         "type": "Point",
         "coordinates": [-38.279989747452,-9.6797049000032]
      }
    },
    {
      "type": "Feature",
      "properties": { 
      "IBGE:COD_UNICO_ENDERECO": "29553282",
      "addr:housenumber": "290 D",
      "addr:postcode": "48601-248",
      "addr:street": "Sítio Baixa Verde",
      "addr:suburb": "Baixa Verde",
      "building": "yes",
      "fixme": "Verificar coordenadas",
      "note": "Sem setor ou quadra no bayface do IBGE 0500-0198P-0-73"
      },
      "geometry": {
         "type": "Point",
         "coordinates": [-38.287377,-9.669203]
      }
    },
    {
      "type": "Feature",
      "properties": { 
      "IBGE:COD_UNICO_ENDERECO": "29553463",
      "addr:housenumber": "178757",
      "addr:postcode": "48601-248",
      "addr:street": "Estrada Santa Cruz aos Algodões",
      "addr:suburb": "Baixa Verde",
      "crop": "corn",
      "fixme": "Confirmar nome;Verificar coordenadas",
      "landuse": "farmland",
      "name": "Plantação de Milho",
      "note": "Sem setor ou quadra no bayface do IBGE 0500-0199P-0-25"
      },
      "geometry": {
         "type": "Point",
         "coordinates": [-38.275294510571,-9.6867187951224]
      }
    },
    {
      "type": "Feature",
      "properties": { 
      "IBGE:COD_UNICO_ENDERECO": "29553277",
      "addr:housenumber": "140 A",
      "addr:postcode": "48601-248",
      "addr:street": "Outros Nome 1",
      "addr:suburb": "Baixa Verde",
      "crop": "corn",
      "fixme": "Verificar coordenadas",
      "landuse": "farmland",
      "name": "Plantio de Milho",
      "note": "Sem setor ou quadra no bayface do IBGE 0500-0198P-0-70"
      },
      "geometry": {
         "type": "Point",
         "coordinates": [-38.280909,-9.660574]
      }
    },
    {
      "type": "Feature",
      "properties": { 
      "IBGE:COD_UNICO_ENDERECO": "112583450",
      "addr:housenumber": "293211",
      "addr:postcode": "48601-248",
      "addr:street": "Estrada Algodões Baixa Verde",
      "addr:suburb": "Baixa Verde",
      "building": "yes",
      "fixme": "Verificar coordenadas",
      "note": "Sem setor ou quadra no bayface do IBGE 0500-0199P-0-24"
      },
      "geometry": {
         "type": "Point",
         "coordinates": [-38.279559,-9.679858]
      }
    },
    {
      "type": "Feature",
      "properties": { 
      "IBGE:COD_UNICO_ENDERECO": "29553276",
      "addr:housenumber": "150 B",
      "addr:postcode": "48601-248",
      "addr:street": "Fazenda Boa Vista",
      "addr:suburb": "Baixa Verde",
      "amenity": "animal_breeding",
      "animal_breeding": "poultry",
      "building": "yes",
      "fixme": "Verificar coordenadas",
      "name": "Criação de Galinha",
      "note": "Sem setor ou quadra no bayface do IBGE 0500-0198P-0-69"
      },
      "geometry": {
         "type": "Point",
         "coordinates": [-38.282051790892,-9.661902622981]
      }
    },
    {
      "type": "Feature",
      "properties": { 
      "IBGE:COD_UNICO_ENDERECO": "29553466",
      "addr:housenumber": "430 A",
      "addr:postcode": "48601-248",
      "addr:street": "Estrada Santa Cruz aos Algodões",
      "addr:suburb": "Baixa Verde",
      "building": "yes",
      "fixme": "Verificar coordenadas",
      "note": "Sem setor ou quadra no bayface do IBGE 0500-0199P-0-25"
      },
      "geometry": {
         "type": "Point",
         "coordinates": [-38.276641,-9.686299]
      }
    },
    {
      "type": "Feature",
      "properties": { 
      "IBGE:COD_UNICO_ENDERECO": "191889318",
      "addr:housenumber": "38",
      "addr:postcode": "48601-248",
      "addr:street": "Estrada do Bogo",
      "addr:suburb": "Baixa Verde",
      "building": "yes",
      "fixme": "Verificar coordenadas",
      "note": "Sem setor ou quadra no bayface do IBGE 0500-0198P-0-68"
      },
      "geometry": {
         "type": "Point",
         "coordinates": [-38.28736,-9.669315]
      }
    },
    {
      "type": "Feature",
      "properties": { 
      "IBGE:COD_UNICO_ENDERECO": "29553262",
      "addr:housenumber": "50 A",
      "addr:postcode": "48601-248",
      "addr:street": "Estrada Baixa Verde",
      "addr:suburb": "Baixa Verde",
      "building": "yes",
      "fixme": "Verificar coordenadas",
      "note": "Sem setor ou quadra no bayface do IBGE 0500-0198P-0-67"
      },
      "geometry": {
         "type": "Point",
         "coordinates": [-38.281142,-9.664524]
      }
    },
    {
      "type": "Feature",
      "properties": { 
      "IBGE:COD_UNICO_ENDERECO": "112583845",
      "addr:housenumber": "83",
      "addr:postcode": "48601-248",
      "addr:street": "Estrada Algodões Baixa Verde",
      "addr:suburb": "Baixa Verde",
      "building": "yes",
      "fixme": "Verificar coordenadas",
      "note": "Sem setor ou quadra no bayface do IBGE 0500-0199P-0-24"
      },
      "geometry": {
         "type": "Point",
         "coordinates": [-38.28127,-9.674836]
      }
    },
    {
      "type": "Feature",
      "properties": { 
      "IBGE:COD_UNICO_ENDERECO": "29553470",
      "addr:housenumber": "27600302",
      "addr:postcode": "48601-248",
      "addr:street": "Estrada Santa Cruz aos Algodões",
      "addr:suburb": "Baixa Verde",
      "building": "yes",
      "fixme": "Verificar coordenadas",
      "note": "Sem setor ou quadra no bayface do IBGE 0500-0199P-0-25"
      },
      "geometry": {
         "type": "Point",
         "coordinates": [-38.275724,-9.680957]
      }
    },
    {
      "type": "Feature",
      "properties": { 
      "IBGE:COD_UNICO_ENDERECO": "112583852",
      "addr:housenumber": "54",
      "addr:postcode": "48601-248",
      "addr:street": "Estrada Algodões Baixa Verde",
      "addr:suburb": "Baixa Verde",
      "crop": "forage_palm",
      "fixme": "Verificar coordenadas",
      "landuse": "farmland",
      "name": "Plantação de Palma",
      "note": "Sem setor ou quadra no bayface do IBGE 0500-0199P-0-24"
      },
      "geometry": {
         "type": "Point",
         "coordinates": [-38.283323752728,-9.6799973955181]
      }
    }
  ]
}
