{
  "type": "FeatureCollection",
  "source": "IBGE CNEFE + Faces de Logradouros - 2022",
  "generator": "CSV-CNEFE2GeoJSON.lua 1.5.7 - fidelis.assis@gmail.com",
  "date": "2025-02-02T09:05:27-0300",
  "features": [
    {
      "type": "Feature",
      "properties": { 
      "IBGE:COD_UNICO_ENDERECO": "191720816",
      "addr:housenumber": "263",
      "addr:postcode": "48619-899",
      "addr:street": "Estrada Nambebe de Baixo",
      "addr:suburb": "Nambebe",
      "addr:unit": "Cisterna",
      "building": "yes",
      "fixme": "Verificar coordenadas",
      "note": "Sem setor ou quadra no bayface do IBGE 0500-0097P-0-59"
      },
      "geometry": {
         "type": "Point",
         "coordinates": [-38.33583,-9.458742]
      }
    },
    {
      "type": "Feature",
      "properties": { 
      "IBGE:COD_UNICO_ENDERECO": "191720728",
      "addr:housenumber": "78",
      "addr:postcode": "48619-899",
      "addr:street": "Povoado Nambebe de Baixo",
      "addr:suburb": "Nambebe",
      "building": "yes",
      "fixme": "Verificar coordenadas",
      "note": "Sem setor ou quadra no bayface do IBGE 0500-0097P-0-58"
      },
      "geometry": {
         "type": "Point",
         "coordinates": [-38.35922,-9.475645]
      }
    },
    {
      "type": "Feature",
      "properties": { 
      "IBGE:COD_UNICO_ENDERECO": "27410151",
      "addr:housenumber": "6",
      "addr:postcode": "48619-899",
      "addr:street": "Estrada da Quadra",
      "addr:suburb": "Nambebe",
      "building": "yes",
      "fixme": "Verificar coordenadas",
      "note": "Sem dados para mover para dentro da quadra 0500-0178P-2-3"
      },
      "geometry": {
         "type": "Point",
         "coordinates": [-38.3648776,-9.4799576]
      }
    },
    {
      "type": "Feature",
      "properties": { 
      "IBGE:COD_UNICO_ENDERECO": "191720706",
      "addr:housenumber": "86",
      "addr:postcode": "48619-899",
      "addr:street": "Povoado Nambebe de Baixo",
      "addr:suburb": "Nambebe",
      "building": "yes",
      "fixme": "Verificar coordenadas",
      "note": "Sem setor ou quadra no bayface do IBGE 0500-0097P-0-58"
      },
      "geometry": {
         "type": "Point",
         "coordinates": [-38.359742,-9.47656]
      }
    },
    {
      "type": "Feature",
      "properties": { 
      "IBGE:COD_UNICO_ENDERECO": "27410164",
      "addr:housenumber": "6",
      "addr:postcode": "48619-899",
      "addr:street": "Estrada Para Olho d'Água de Paulo",
      "addr:suburb": "Nambebe",
      "addr:unit": "Casa 2",
      "building": "yes"
      },
      "geometry": {
         "type": "Point",
         "coordinates": [-38.364429,-9.480403]
      }
    },
    {
      "type": "Feature",
      "properties": { 
      "IBGE:COD_UNICO_ENDERECO": "27410189",
      "addr:housenumber": "33",
      "addr:postcode": "48619-899",
      "addr:street": "Povoado Nambebe de Baixo",
      "addr:suburb": "Nambebe",
      "building": "yes",
      "fixme": "Verificar coordenadas",
      "note": "Sem setor ou quadra no bayface do IBGE 0500-0097P-0-58"
      },
      "geometry": {
         "type": "Point",
         "coordinates": [-38.357393,-9.477192]
      }
    },
    {
      "type": "Feature",
      "properties": { 
      "IBGE:COD_UNICO_ENDERECO": "191720643",
      "addr:housenumber": "34",
      "addr:postcode": "48619-899",
      "addr:street": "Povoado Nambebe",
      "addr:suburb": "Nambebe",
      "building": "yes",
      "fixme": "Verificar coordenadas",
      "note": "Sem setor ou quadra no bayface do IBGE 0500-0097P-0-57"
      },
      "geometry": {
         "type": "Point",
         "coordinates": [-38.362227,-9.478878]
      }
    },
    {
      "type": "Feature",
      "properties": { 
      "IBGE:COD_UNICO_ENDERECO": "191720725",
      "addr:housenumber": "60",
      "addr:postcode": "48619-899",
      "addr:street": "Povoado Nambebe de Baixo",
      "addr:suburb": "Nambebe",
      "building": "yes",
      "fixme": "Verificar coordenadas",
      "name": "Associação União dos Moradores e Produtores Rurais do Povoado Nambebe",
      "note": "Sem setor ou quadra no bayface do IBGE 0500-0097P-0-58",
      "office": "association"
      },
      "geometry": {
         "type": "Point",
         "coordinates": [-38.359203,-9.475995]
      }
    },
    {
      "type": "Feature",
      "properties": { 
      "IBGE:COD_UNICO_ENDERECO": "27413025",
      "addr:housenumber": "27",
      "addr:postcode": "48619-899",
      "addr:street": "Estrada Para O Povoado Juá",
      "addr:suburb": "Nambebe",
      "building": "yes"
      },
      "geometry": {
         "type": "Point",
         "coordinates": [-38.369571,-9.4802121]
      }
    },
    {
      "type": "Feature",
      "properties": { 
      "IBGE:COD_UNICO_ENDERECO": "27410178",
      "addr:housenumber": "76",
      "addr:postcode": "48619-899",
      "addr:street": "Povoado Nambebe de Baixo",
      "addr:suburb": "Nambebe",
      "building": "yes",
      "fixme": "Verificar coordenadas",
      "note": "Sem setor ou quadra no bayface do IBGE 0500-0097P-0-58"
      },
      "geometry": {
         "type": "Point",
         "coordinates": [-38.359325,-9.47506]
      }
    },
    {
      "type": "Feature",
      "properties": { 
      "IBGE:COD_UNICO_ENDERECO": "27410166",
      "addr:housenumber": "3",
      "addr:postcode": "48619-899",
      "addr:street": "Estrada Para Povoado Macambira",
      "addr:suburb": "Nambebe",
      "building": "yes"
      },
      "geometry": {
         "type": "Point",
         "coordinates": [-38.365346,-9.4808301]
      }
    },
    {
      "type": "Feature",
      "properties": { 
      "IBGE:COD_UNICO_ENDERECO": "112580101",
      "addr:housenumber": "61",
      "addr:postcode": "48619-899",
      "addr:street": "Estrada Nambebe de Baixo",
      "addr:suburb": "Nambebe",
      "building": "yes",
      "fixme": "Verificar coordenadas",
      "note": "Sem setor ou quadra no bayface do IBGE 0500-0097P-0-59"
      },
      "geometry": {
         "type": "Point",
         "coordinates": [-38.35884,-9.475252]
      }
    },
    {
      "type": "Feature",
      "properties": { 
      "IBGE:COD_UNICO_ENDERECO": "27410152",
      "addr:housenumber": "9",
      "addr:postcode": "48619-899",
      "addr:street": "Estrada da Quadra",
      "addr:suburb": "Nambebe",
      "building": "yes",
      "fixme": "Verificar coordenadas",
      "note": "Sem dados para mover para dentro da quadra 0500-0178P-2-3"
      },
      "geometry": {
         "type": "Point",
         "coordinates": [-38.3648683,-9.4799524]
      }
    },
    {
      "type": "Feature",
      "properties": { 
      "IBGE:COD_UNICO_ENDERECO": "27413054",
      "addr:housenumber": "56",
      "addr:postcode": "48619-899",
      "addr:street": "Estrada da Quadra",
      "addr:suburb": "Nambebe",
      "amenity": "school",
      "building": "yes",
      "fixme": "Verificar coordenadas",
      "name": "Escola Municipal Gervásio Teixeira Lima",
      "note": "Sem dados para mover para dentro da quadra 0500-0178P-2-1"
      },
      "geometry": {
         "type": "Point",
         "coordinates": [-38.3653969,-9.4788948]
      }
    },
    {
      "type": "Feature",
      "properties": { 
      "IBGE:COD_UNICO_ENDERECO": "27413044",
      "addr:housenumber": "75",
      "addr:postcode": "48619-899",
      "addr:street": "Estrada da Quadra",
      "addr:suburb": "Nambebe",
      "addr:unit": "Fundos",
      "building": "yes"
      },
      "geometry": {
         "type": "Point",
         "coordinates": [-38.3675238,-9.4779018]
      }
    },
    {
      "type": "Feature",
      "properties": { 
      "IBGE:COD_UNICO_ENDERECO": "27410150",
      "addr:housenumber": "4",
      "addr:postcode": "48619-899",
      "addr:street": "Estrada Para Olho d'Água de Paulo",
      "addr:suburb": "Nambebe",
      "building": "yes"
      },
      "geometry": {
         "type": "Point",
         "coordinates": [-38.3646729,-9.4802015]
      }
    },
    {
      "type": "Feature",
      "properties": { 
      "IBGE:COD_UNICO_ENDERECO": "27410158",
      "addr:housenumber": "160",
      "addr:postcode": "48619-899",
      "addr:street": "Estrada Para Olho d'Água de Paulo",
      "addr:suburb": "Nambebe",
      "building": "yes",
      "fixme": "Verificar coordenadas",
      "note": "Fora da área de projeção da face 0500-0178P-4-2"
      },
      "geometry": {
         "type": "Point",
         "coordinates": [-38.363402,-9.479392]
      }
    },
    {
      "type": "Feature",
      "properties": { 
      "IBGE:COD_UNICO_ENDERECO": "191741501",
      "addr:housenumber": "9",
      "addr:postcode": "48619-899",
      "addr:street": "Estrada Para Povoado Macambira",
      "addr:suburb": "Nambebe",
      "building": "yes"
      },
      "geometry": {
         "type": "Point",
         "coordinates": [-38.3651458,-9.4803782]
      }
    },
    {
      "type": "Feature",
      "properties": { 
      "IBGE:COD_UNICO_ENDERECO": "112580045",
      "addr:housenumber": "64",
      "addr:postcode": "48619-899",
      "addr:street": "Estrada Nambebe de Baixo",
      "addr:suburb": "Nambebe",
      "building": "yes",
      "fixme": "Verificar coordenadas",
      "note": "Sem setor ou quadra no bayface do IBGE 0500-0097P-0-59"
      },
      "geometry": {
         "type": "Point",
         "coordinates": [-38.358502,-9.472027]
      }
    },
    {
      "type": "Feature",
      "properties": { 
      "IBGE:COD_UNICO_ENDERECO": "27413030",
      "addr:housenumber": "2",
      "addr:postcode": "48619-899",
      "addr:street": "Estrada Para O Povoado Juá",
      "addr:suburb": "Nambebe",
      "building": "yes"
      },
      "geometry": {
         "type": "Point",
         "coordinates": [-38.3695407,-9.4785481]
      }
    },
    {
      "type": "Feature",
      "properties": { 
      "IBGE:COD_UNICO_ENDERECO": "112581049",
      "addr:housenumber": "4",
      "addr:postcode": "48619-899",
      "addr:street": "Estrada da Macambira",
      "addr:suburb": "Nambebe",
      "addr:unit": "Fundos",
      "building": "yes",
      "fixme": "Verificar coordenadas",
      "note": "Sem setor ou quadra no bayface do IBGE 0500-0097P-0-60"
      },
      "geometry": {
         "type": "Point",
         "coordinates": [-38.36941,-9.504038]
      }
    },
    {
      "type": "Feature",
      "properties": { 
      "IBGE:COD_UNICO_ENDERECO": "112581044",
      "addr:housenumber": "2",
      "addr:postcode": "48619-899",
      "addr:street": "Estrada da Macambira",
      "addr:suburb": "Nambebe",
      "addr:unit": "Fundos",
      "building": "yes",
      "fixme": "Verificar coordenadas",
      "note": "Sem setor ou quadra no bayface do IBGE 0500-0097P-0-60"
      },
      "geometry": {
         "type": "Point",
         "coordinates": [-38.369409955819,-9.5040381616562]
      }
    },
    {
      "type": "Feature",
      "properties": { 
      "IBGE:COD_UNICO_ENDERECO": "27413023",
      "addr:housenumber": "26 Depósito Lado Esquerdo",
      "addr:postcode": "48619-899",
      "addr:street": "Estrada Para O Povoado Juá",
      "addr:suburb": "Nambebe",
      "building": "yes",
      "fixme": "Verificar coordenadas",
      "note": "Sem dados para mover para dentro da quadra 0500-0178P-7-1"
      },
      "geometry": {
         "type": "Point",
         "coordinates": [-38.3692346,-9.4801805]
      }
    },
    {
      "type": "Feature",
      "properties": { 
      "IBGE:COD_UNICO_ENDERECO": "27410186",
      "addr:housenumber": "51",
      "addr:postcode": "48619-899",
      "addr:street": "Povoado Nambebe de Baixo",
      "addr:suburb": "Nambebe",
      "building": "yes",
      "fixme": "Verificar coordenadas",
      "note": "Sem setor ou quadra no bayface do IBGE 0500-0097P-0-58"
      },
      "geometry": {
         "type": "Point",
         "coordinates": [-38.356303,-9.474573]
      }
    },
    {
      "type": "Feature",
      "properties": { 
      "IBGE:COD_UNICO_ENDERECO": "27410165",
      "addr:housenumber": "1",
      "addr:postcode": "48619-899",
      "addr:street": "Estrada Para Povoado Macambira",
      "addr:suburb": "Nambebe",
      "building": "yes"
      },
      "geometry": {
         "type": "Point",
         "coordinates": [-38.3657382,-9.4814443]
      }
    },
    {
      "type": "Feature",
      "properties": { 
      "IBGE:COD_UNICO_ENDERECO": "27410185",
      "addr:housenumber": "63",
      "addr:postcode": "48619-899",
      "addr:street": "Povoado Nambebe de Baixo",
      "addr:suburb": "Nambebe",
      "building": "yes",
      "fixme": "Verificar coordenadas",
      "note": "Sem setor ou quadra no bayface do IBGE 0500-0097P-0-58"
      },
      "geometry": {
         "type": "Point",
         "coordinates": [-38.358492,-9.473748]
      }
    },
    {
      "type": "Feature",
      "properties": { 
      "IBGE:COD_UNICO_ENDERECO": "191741503",
      "addr:housenumber": "9",
      "addr:postcode": "48619-899",
      "addr:street": "Estrada Para Povoado Macambira",
      "addr:suburb": "Nambebe",
      "amenity": "pub",
      "building": "yes",
      "name": "Drinks Bar"
      },
      "geometry": {
         "type": "Point",
         "coordinates": [-38.3653245,-9.4800088]
      }
    },
    {
      "type": "Feature",
      "properties": { 
      "IBGE:COD_UNICO_ENDERECO": "27413024",
      "addr:housenumber": "26 Garagem Lado Esquerdo",
      "addr:postcode": "48619-899",
      "addr:street": "Estrada Para O Povoado Juá",
      "addr:suburb": "Nambebe",
      "building": "yes",
      "fixme": "Verificar coordenadas",
      "note": "Sem dados para mover para dentro da quadra 0500-0178P-7-1"
      },
      "geometry": {
         "type": "Point",
         "coordinates": [-38.3692258,-9.4803658]
      }
    },
    {
      "type": "Feature",
      "properties": { 
      "IBGE:COD_UNICO_ENDERECO": "112583130",
      "addr:housenumber": "63",
      "addr:postcode": "48619-899",
      "addr:street": "Estrada Nambebe de Baixo",
      "addr:suburb": "Nambebe",
      "building": "yes",
      "fixme": "Verificar coordenadas",
      "note": "Sem setor ou quadra no bayface do IBGE 0500-0097P-0-59"
      },
      "geometry": {
         "type": "Point",
         "coordinates": [-38.358484297946,-9.4737495613881]
      }
    },
    {
      "type": "Feature",
      "properties": { 
      "IBGE:COD_UNICO_ENDERECO": "27413027",
      "addr:housenumber": "9",
      "addr:postcode": "48619-899",
      "addr:street": "Estrada Para O Povoado Juá",
      "addr:suburb": "Nambebe",
      "building": "yes"
      },
      "geometry": {
         "type": "Point",
         "coordinates": [-38.369531,-9.4801843]
      }
    },
    {
      "type": "Feature",
      "properties": { 
      "IBGE:COD_UNICO_ENDERECO": "27413033",
      "addr:housenumber": "36",
      "addr:postcode": "48619-899",
      "addr:street": "Estrada Para O Povoado Juá",
      "addr:suburb": "Nambebe",
      "building": "yes",
      "fixme": "Verificar coordenadas",
      "note": "Sem dados para mover para dentro da quadra 0500-0178P-9-2"
      },
      "geometry": {
         "type": "Point",
         "coordinates": [-38.3700762,-9.4776107]
      }
    },
    {
      "type": "Feature",
      "properties": { 
      "IBGE:COD_UNICO_ENDERECO": "27410182",
      "addr:housenumber": "70",
      "addr:postcode": "48619-899",
      "addr:street": "Povoado Nambebe de Baixo",
      "addr:suburb": "Nambebe",
      "building": "yes",
      "fixme": "Verificar coordenadas",
      "note": "Sem setor ou quadra no bayface do IBGE 0500-0097P-0-58"
      },
      "geometry": {
         "type": "Point",
         "coordinates": [-38.359273,-9.47436]
      }
    },
    {
      "type": "Feature",
      "properties": { 
      "IBGE:COD_UNICO_ENDERECO": "27413020",
      "addr:housenumber": "24",
      "addr:postcode": "48619-899",
      "addr:street": "Estrada Para O Povoado Juá",
      "addr:suburb": "Nambebe",
      "addr:unit": "Fundos",
      "building": "yes",
      "fixme": "Verificar coordenadas",
      "note": "Sem dados para mover para dentro da quadra 0500-0178P-7-1"
      },
      "geometry": {
         "type": "Point",
         "coordinates": [-38.3690928,-9.4809874]
      }
    },
    {
      "type": "Feature",
      "properties": { 
      "IBGE:COD_UNICO_ENDERECO": "27410187",
      "addr:housenumber": "46",
      "addr:postcode": "48619-899",
      "addr:street": "Povoado Nambebe de Baixo",
      "addr:suburb": "Nambebe",
      "building": "yes",
      "fixme": "Verificar coordenadas",
      "note": "Sem setor ou quadra no bayface do IBGE 0500-0097P-0-58"
      },
      "geometry": {
         "type": "Point",
         "coordinates": [-38.35719,-9.475022]
      }
    },
    {
      "type": "Feature",
      "properties": { 
      "IBGE:COD_UNICO_ENDERECO": "27410174",
      "addr:housenumber": "87",
      "addr:postcode": "48619-899",
      "addr:street": "Povoado Nambebe de Baixo",
      "addr:suburb": "Nambebe",
      "amenity": "place_of_worship",
      "building": "church",
      "denomination": "pentecostal",
      "fixme": "Verificar coordenadas",
      "name": "Assembleia de Deus",
      "note": "Sem setor ou quadra no bayface do IBGE 0500-0097P-0-58",
      "religion": "christian"
      },
      "geometry": {
         "type": "Point",
         "coordinates": [-38.359523,-9.476598]
      }
    },
    {
      "type": "Feature",
      "properties": { 
      "IBGE:COD_UNICO_ENDERECO": "27413035",
      "addr:housenumber": "38",
      "addr:postcode": "48619-899",
      "addr:street": "Estrada Para O Povoado Juá",
      "addr:suburb": "Nambebe",
      "addr:unit": "Fundos",
      "building": "yes",
      "fixme": "Verificar coordenadas",
      "note": "Muito afastado da face: 82m 0500-0178P-9-2"
      },
      "geometry": {
         "type": "Point",
         "coordinates": [-38.369795,-9.476786]
      }
    },
    {
      "type": "Feature",
      "properties": { 
      "IBGE:COD_UNICO_ENDERECO": "27413031",
      "addr:housenumber": "11 B",
      "addr:postcode": "48619-899",
      "addr:street": "Estrada Para O Povoado Juá",
      "addr:suburb": "Nambebe",
      "building": "yes"
      },
      "geometry": {
         "type": "Point",
         "coordinates": [-38.3696591,-9.4781336]
      }
    },
    {
      "type": "Feature",
      "properties": { 
      "IBGE:COD_UNICO_ENDERECO": "27410173",
      "addr:housenumber": "84",
      "addr:postcode": "48619-899",
      "addr:street": "Povoado Nambebe de Baixo",
      "addr:suburb": "Nambebe",
      "building": "yes",
      "fixme": "Verificar coordenadas",
      "note": "Sem setor ou quadra no bayface do IBGE 0500-0097P-0-58"
      },
      "geometry": {
         "type": "Point",
         "coordinates": [-38.359853,-9.476483]
      }
    },
    {
      "type": "Feature",
      "properties": { 
      "IBGE:COD_UNICO_ENDERECO": "27413012",
      "addr:housenumber": "16",
      "addr:postcode": "48619-899",
      "addr:street": "Estrada da Quadra",
      "addr:suburb": "Nambebe",
      "addr:unit": "Fundos",
      "building": "yes"
      },
      "geometry": {
         "type": "Point",
         "coordinates": [-38.3665162,-9.4799226]
      }
    },
    {
      "type": "Feature",
      "properties": { 
      "IBGE:COD_UNICO_ENDERECO": "27410156",
      "addr:housenumber": "99",
      "addr:postcode": "48619-899",
      "addr:street": "Estrada da Quadra",
      "addr:suburb": "Nambebe",
      "building": "yes",
      "fixme": "Verificar coordenadas",
      "note": "Sem dados para mover para dentro da quadra 0500-0178P-2-1"
      },
      "geometry": {
         "type": "Point",
         "coordinates": [-38.365347,-9.4792373]
      }
    },
    {
      "type": "Feature",
      "properties": { 
      "IBGE:COD_UNICO_ENDERECO": "112580075",
      "addr:housenumber": "80",
      "addr:postcode": "48619-899",
      "addr:street": "Estrada Nambebe de Baixo",
      "addr:suburb": "Nambebe",
      "building": "yes",
      "fixme": "Verificar coordenadas",
      "note": "Sem setor ou quadra no bayface do IBGE 0500-0097P-0-59"
      },
      "geometry": {
         "type": "Point",
         "coordinates": [-38.359462,-9.476112]
      }
    },
    {
      "type": "Feature",
      "properties": { 
      "IBGE:COD_UNICO_ENDERECO": "27410200",
      "addr:housenumber": "44",
      "addr:postcode": "48619-899",
      "addr:street": "Povoado Nambebe de Baixo",
      "addr:suburb": "Nambebe",
      "building": "yes",
      "fixme": "Verificar coordenadas",
      "note": "Sem setor ou quadra no bayface do IBGE 0500-0097P-0-58"
      },
      "geometry": {
         "type": "Point",
         "coordinates": [-38.357593,-9.475113]
      }
    },
    {
      "type": "Feature",
      "properties": { 
      "IBGE:COD_UNICO_ENDERECO": "27413050",
      "addr:housenumber": "52",
      "addr:postcode": "48619-899",
      "addr:street": "Estrada da Quadra",
      "addr:suburb": "Nambebe",
      "addr:unit": "Fundos",
      "building": "yes",
      "fixme": "Verificar coordenadas",
      "note": "Muito afastado da face: 172m 0500-0178P-1-2"
      },
      "geometry": {
         "type": "Point",
         "coordinates": [-38.365924,-9.479072]
      }
    },
    {
      "type": "Feature",
      "properties": { 
      "IBGE:COD_UNICO_ENDERECO": "27410195",
      "addr:housenumber": "52",
      "addr:postcode": "48619-899",
      "addr:street": "Povoado Nambebe de Baixo",
      "addr:suburb": "Nambebe",
      "building": "yes",
      "fixme": "Verificar coordenadas",
      "note": "Sem setor ou quadra no bayface do IBGE 0500-0097P-0-58"
      },
      "geometry": {
         "type": "Point",
         "coordinates": [-38.35675,-9.474397]
      }
    },
    {
      "type": "Feature",
      "properties": { 
      "IBGE:COD_UNICO_ENDERECO": "191720760",
      "addr:housenumber": "72",
      "addr:postcode": "48619-899",
      "addr:street": "Povoado Nambebe de Baixo",
      "addr:suburb": "Nambebe",
      "building": "yes",
      "fixme": "Verificar coordenadas",
      "note": "Sem setor ou quadra no bayface do IBGE 0500-0097P-0-58"
      },
      "geometry": {
         "type": "Point",
         "coordinates": [-38.359332,-9.474557]
      }
    },
    {
      "type": "Feature",
      "properties": { 
      "IBGE:COD_UNICO_ENDERECO": "112580091",
      "addr:housenumber": "82",
      "addr:postcode": "48619-899",
      "addr:street": "Estrada Nambebe de Baixo",
      "addr:suburb": "Nambebe",
      "building": "yes",
      "fixme": "Verificar coordenadas",
      "note": "Sem setor ou quadra no bayface do IBGE 0500-0097P-0-59"
      },
      "geometry": {
         "type": "Point",
         "coordinates": [-38.359708,-9.47622]
      }
    },
    {
      "type": "Feature",
      "properties": { 
      "IBGE:COD_UNICO_ENDERECO": "191720654",
      "addr:housenumber": "192",
      "addr:postcode": "48619-899",
      "addr:street": "Povoado Nambebe",
      "addr:suburb": "Nambebe",
      "building": "yes",
      "fixme": "Verificar coordenadas",
      "note": "Sem setor ou quadra no bayface do IBGE 0500-0097P-0-57"
      },
      "geometry": {
         "type": "Point",
         "coordinates": [-38.366778,-9.459307]
      }
    },
    {
      "type": "Feature",
      "properties": { 
      "IBGE:COD_UNICO_ENDERECO": "191741478",
      "addr:housenumber": "51",
      "addr:postcode": "48619-899",
      "addr:street": "Estrada da Quadra",
      "addr:suburb": "Nambebe",
      "building": "construction",
      "fixme": "Verificar coordenadas",
      "note": "Sem dados para mover para dentro da quadra 0500-0178P-2-1"
      },
      "geometry": {
         "type": "Point",
         "coordinates": [-38.3654281,-9.478659]
      }
    },
    {
      "type": "Feature",
      "properties": { 
      "IBGE:COD_UNICO_ENDERECO": "191741479",
      "addr:housenumber": "13",
      "addr:postcode": "48619-899",
      "addr:street": "Estrada da Quadra",
      "addr:suburb": "Nambebe",
      "building": "yes",
      "fixme": "Verificar coordenadas",
      "note": "Sem dados para mover para dentro da quadra 0500-0178P-2-1"
      },
      "geometry": {
         "type": "Point",
         "coordinates": [-38.3652683,-9.4797768]
      }
    },
    {
      "type": "Feature",
      "properties": { 
      "IBGE:COD_UNICO_ENDERECO": "27413011",
      "addr:housenumber": "4",
      "addr:postcode": "48619-899",
      "addr:street": "Estrada da Quadra",
      "addr:suburb": "Nambebe",
      "addr:unit": "Fundos",
      "building": "yes",
      "fixme": "Verificar coordenadas",
      "note": "Muito afastado da face: 50m 0500-0178P-3-2"
      },
      "geometry": {
         "type": "Point",
         "coordinates": [-38.366021,-9.479433]
      }
    },
    {
      "type": "Feature",
      "properties": { 
      "IBGE:COD_UNICO_ENDERECO": "27413048",
      "addr:housenumber": "51",
      "addr:postcode": "48619-899",
      "addr:street": "Estrada da Quadra",
      "addr:suburb": "Nambebe",
      "addr:unit": "Fundos",
      "building": "service",
      "fixme": "Verificar coordenadas",
      "man_made": "pumping_station",
      "name": "Casa de Controle da Bomba de Água",
      "note": "Muito afastado da face: 95m 0500-0178P-1-2"
      },
      "geometry": {
         "type": "Point",
         "coordinates": [-38.36656,-9.478657]
      }
    },
    {
      "type": "Feature",
      "properties": { 
      "IBGE:COD_UNICO_ENDERECO": "112583115",
      "addr:housenumber": "100",
      "addr:postcode": "48619-899",
      "addr:street": "Estrada Nambebe de Baixo",
      "addr:suburb": "Nambebe",
      "addr:unit": "Fundos",
      "building": "yes",
      "fixme": "Verificar coordenadas",
      "note": "Sem setor ou quadra no bayface do IBGE 0500-0097P-0-59"
      },
      "geometry": {
         "type": "Point",
         "coordinates": [-38.361777,-9.478717]
      }
    },
    {
      "type": "Feature",
      "properties": { 
      "IBGE:COD_UNICO_ENDERECO": "27413015",
      "addr:housenumber": "2",
      "addr:postcode": "48619-899",
      "addr:street": "Estrada Para Povoado Macambira",
      "addr:suburb": "Nambebe",
      "addr:unit": "Fundos",
      "building": "yes"
      },
      "geometry": {
         "type": "Point",
         "coordinates": [-38.3671126,-9.4803114]
      }
    },
    {
      "type": "Feature",
      "properties": { 
      "IBGE:COD_UNICO_ENDERECO": "27413010",
      "addr:housenumber": "75",
      "addr:postcode": "48619-899",
      "addr:street": "Estrada da Quadra",
      "addr:suburb": "Nambebe",
      "building": "yes"
      },
      "geometry": {
         "type": "Point",
         "coordinates": [-38.3662606,-9.4798962]
      }
    },
    {
      "type": "Feature",
      "properties": { 
      "IBGE:COD_UNICO_ENDERECO": "27413017",
      "addr:housenumber": "8",
      "addr:postcode": "48619-899",
      "addr:street": "Estrada Para Povoado Macambira",
      "addr:suburb": "Nambebe",
      "building": "yes"
      },
      "geometry": {
         "type": "Point",
         "coordinates": [-38.3678503,-9.4802487]
      }
    },
    {
      "type": "Feature",
      "properties": { 
      "IBGE:COD_UNICO_ENDERECO": "27413042",
      "addr:housenumber": "46",
      "addr:postcode": "48619-899",
      "addr:street": "Estrada da Quadra",
      "addr:suburb": "Nambebe",
      "building": "yes"
      },
      "geometry": {
         "type": "Point",
         "coordinates": [-38.3687985,-9.477699]
      }
    },
    {
      "type": "Feature",
      "properties": { 
      "IBGE:COD_UNICO_ENDERECO": "27413041",
      "addr:housenumber": "40",
      "addr:postcode": "48619-899",
      "addr:street": "Estrada da Quadra",
      "addr:suburb": "Nambebe",
      "addr:unit": "Fundos",
      "building": "yes",
      "fixme": "Verificar coordenadas",
      "note": "Muito afastado da face: 45m 0500-0178P-1-2"
      },
      "geometry": {
         "type": "Point",
         "coordinates": [-38.369014,-9.477289]
      }
    },
    {
      "type": "Feature",
      "properties": { 
      "IBGE:COD_UNICO_ENDERECO": "27413060",
      "addr:housenumber": "103",
      "addr:postcode": "48619-899",
      "addr:street": "Estrada da Quadra",
      "addr:suburb": "Nambebe",
      "building": "yes",
      "fixme": "Verificar coordenadas",
      "note": "Sem dados para mover para dentro da quadra 0500-0178P-2-1"
      },
      "geometry": {
         "type": "Point",
         "coordinates": [-38.3657319,-9.4766561]
      }
    },
    {
      "type": "Feature",
      "properties": { 
      "IBGE:COD_UNICO_ENDERECO": "191720780",
      "addr:housenumber": "54",
      "addr:postcode": "48619-899",
      "addr:street": "Povoado Nambebe de Baixo",
      "addr:suburb": "Nambebe",
      "building": "yes",
      "fixme": "Verificar coordenadas",
      "note": "Sem setor ou quadra no bayface do IBGE 0500-0097P-0-58"
      },
      "geometry": {
         "type": "Point",
         "coordinates": [-38.357318,-9.473582]
      }
    },
    {
      "type": "Feature",
      "properties": { 
      "IBGE:COD_UNICO_ENDERECO": "27413013",
      "addr:housenumber": "6",
      "addr:postcode": "48619-899",
      "addr:street": "Estrada da Quadra",
      "addr:suburb": "Nambebe",
      "building": "yes"
      },
      "geometry": {
         "type": "Point",
         "coordinates": [-38.366387,-9.4799373]
      }
    },
    {
      "type": "Feature",
      "properties": { 
      "IBGE:COD_UNICO_ENDERECO": "27410181",
      "addr:housenumber": "71",
      "addr:postcode": "48619-899",
      "addr:street": "Povoado Nambebe de Baixo",
      "addr:suburb": "Nambebe",
      "building": "yes",
      "fixme": "Verificar coordenadas",
      "note": "Sem setor ou quadra no bayface do IBGE 0500-0097P-0-58"
      },
      "geometry": {
         "type": "Point",
         "coordinates": [-38.359342,-9.474475]
      }
    },
    {
      "type": "Feature",
      "properties": { 
      "IBGE:COD_UNICO_ENDERECO": "27413043",
      "addr:housenumber": "48",
      "addr:postcode": "48619-899",
      "addr:street": "Estrada da Quadra",
      "addr:suburb": "Nambebe",
      "addr:unit": "Fundos",
      "building": "yes",
      "fixme": "Verificar coordenadas",
      "note": "Muito afastado da face: 46m 0500-0178P-1-2"
      },
      "geometry": {
         "type": "Point",
         "coordinates": [-38.368467,-9.477359]
      }
    },
    {
      "type": "Feature",
      "properties": { 
      "IBGE:COD_UNICO_ENDERECO": "27413056",
      "addr:housenumber": "54",
      "addr:postcode": "48619-899",
      "addr:street": "Estrada da Quadra",
      "addr:suburb": "Nambebe",
      "building": "yes",
      "fixme": "Verificar coordenadas",
      "name": "Sede da Associação dos Moradores",
      "note": "Sem dados para mover para dentro da quadra 0500-0178P-2-1",
      "office": "association"
      },
      "geometry": {
         "type": "Point",
         "coordinates": [-38.3653376,-9.4793017]
      }
    },
    {
      "type": "Feature",
      "properties": { 
      "IBGE:COD_UNICO_ENDERECO": "27413057",
      "addr:housenumber": "101",
      "addr:postcode": "48619-899",
      "addr:street": "Estrada da Quadra",
      "addr:suburb": "Nambebe",
      "building": "yes",
      "fixme": "Verificar coordenadas",
      "note": "Fora da área de projeção da face 0500-0178P-1-1"
      },
      "geometry": {
         "type": "Point",
         "coordinates": [-38.366792,-9.477219]
      }
    },
    {
      "type": "Feature",
      "properties": { 
      "IBGE:COD_UNICO_ENDERECO": "27413066",
      "addr:housenumber": "107",
      "addr:postcode": "48619-899",
      "addr:street": "Estrada da Quadra",
      "addr:suburb": "Nambebe",
      "building": "yes",
      "fixme": "Verificar coordenadas",
      "note": "Fora da área de projeção da face 0500-0178P-1-1"
      },
      "geometry": {
         "type": "Point",
         "coordinates": [-38.367719,-9.474585]
      }
    },
    {
      "type": "Feature",
      "properties": { 
      "IBGE:COD_UNICO_ENDERECO": "27413039",
      "addr:housenumber": "41",
      "addr:postcode": "48619-899",
      "addr:street": "Estrada da Quadra",
      "addr:suburb": "Nambebe",
      "building": "yes",
      "fixme": "Verificar coordenadas",
      "note": "Fora da área de projeção da face 0500-0178P-1-3"
      },
      "geometry": {
         "type": "Point",
         "coordinates": [-38.369516,-9.476357]
      }
    },
    {
      "type": "Feature",
      "properties": { 
      "IBGE:COD_UNICO_ENDERECO": "27410160",
      "addr:housenumber": "808",
      "addr:postcode": "48619-899",
      "addr:street": "Povoado Nambebe",
      "addr:suburb": "Nambebe",
      "addr:unit": "Cisterna",
      "building": "yes",
      "fixme": "Verificar coordenadas",
      "note": "Sem setor ou quadra no bayface do IBGE 0500-0097P-0-57"
      },
      "geometry": {
         "type": "Point",
         "coordinates": [-38.365913,-9.47364]
      }
    },
    {
      "type": "Feature",
      "properties": { 
      "IBGE:COD_UNICO_ENDERECO": "27413053",
      "addr:housenumber": "57",
      "addr:postcode": "48619-899",
      "addr:street": "Estrada da Quadra",
      "addr:suburb": "Nambebe",
      "amenity": "clinic",
      "building": "yes",
      "fixme": "Verificar coordenadas",
      "healthcare": "yes",
      "name": "Posto de Saúde",
      "note": "Sem dados para mover para dentro da quadra 0500-0178P-2-1"
      },
      "geometry": {
         "type": "Point",
         "coordinates": [-38.3654284,-9.478657]
      }
    },
    {
      "type": "Feature",
      "properties": { 
      "IBGE:COD_UNICO_ENDERECO": "27413059",
      "addr:housenumber": "102",
      "addr:postcode": "48619-899",
      "addr:street": "Estrada da Quadra",
      "addr:suburb": "Nambebe",
      "building": "yes"
      },
      "geometry": {
         "type": "Point",
         "coordinates": [-38.3658493,-9.4765213]
      }
    },
    {
      "type": "Feature",
      "properties": { 
      "IBGE:COD_UNICO_ENDERECO": "191720638",
      "addr:housenumber": "29",
      "addr:postcode": "48619-899",
      "addr:street": "Povoado Nambebe",
      "addr:suburb": "Nambebe",
      "building": "yes",
      "fixme": "Verificar coordenadas",
      "note": "Sem setor ou quadra no bayface do IBGE 0500-0097P-0-57"
      },
      "geometry": {
         "type": "Point",
         "coordinates": [-38.362303,-9.47909]
      }
    },
    {
      "type": "Feature",
      "properties": { 
      "IBGE:COD_UNICO_ENDERECO": "191741499",
      "addr:housenumber": "19",
      "addr:postcode": "48619-899",
      "addr:street": "Estrada Para Povoado Macambira",
      "addr:suburb": "Nambebe",
      "building": "yes"
      },
      "geometry": {
         "type": "Point",
         "coordinates": [-38.3651667,-9.4801039]
      }
    },
    {
      "type": "Feature",
      "properties": { 
      "IBGE:COD_UNICO_ENDERECO": "27413037",
      "addr:housenumber": "44",
      "addr:postcode": "48619-899",
      "addr:street": "Estrada da Quadra",
      "addr:suburb": "Nambebe",
      "building": "yes",
      "fixme": "Verificar coordenadas",
      "note": "Fora da área de projeção da face 0500-0178P-1-3"
      },
      "geometry": {
         "type": "Point",
         "coordinates": [-38.369959,-9.475822]
      }
    },
    {
      "type": "Feature",
      "properties": { 
      "IBGE:COD_UNICO_ENDERECO": "27410188",
      "addr:housenumber": "48",
      "addr:postcode": "48619-899",
      "addr:street": "Povoado Nambebe de Baixo",
      "addr:suburb": "Nambebe",
      "building": "warehouse",
      "description": "CNEFE 2022 Depósito",
      "fixme": "Verificar coordenadas",
      "note": "Sem setor ou quadra no bayface do IBGE 0500-0097P-0-58"
      },
      "geometry": {
         "type": "Point",
         "coordinates": [-38.356743,-9.474872]
      }
    },
    {
      "type": "Feature",
      "properties": { 
      "IBGE:COD_UNICO_ENDERECO": "27413018",
      "addr:housenumber": "7",
      "addr:postcode": "48619-899",
      "addr:street": "Estrada Para Povoado Macambira",
      "addr:suburb": "Nambebe",
      "building": "yes",
      "fixme": "Verificar coordenadas",
      "note": "Muito afastado da face: 40m 0500-0178P-6-2"
      },
      "geometry": {
         "type": "Point",
         "coordinates": [-38.368089,-9.480458]
      }
    },
    {
      "type": "Feature",
      "properties": { 
      "IBGE:COD_UNICO_ENDERECO": "27410184",
      "addr:housenumber": "64",
      "addr:postcode": "48619-899",
      "addr:street": "Povoado Nambebe de Baixo",
      "addr:suburb": "Nambebe",
      "building": "yes",
      "fixme": "Verificar coordenadas",
      "note": "Sem setor ou quadra no bayface do IBGE 0500-0097P-0-58"
      },
      "geometry": {
         "type": "Point",
         "coordinates": [-38.358503746384,-9.4720319000032]
      }
    },
    {
      "type": "Feature",
      "properties": { 
      "IBGE:COD_UNICO_ENDERECO": "27413045",
      "addr:housenumber": "103",
      "addr:postcode": "48619-899",
      "addr:street": "Estrada da Quadra",
      "addr:suburb": "Nambebe",
      "addr:unit": "Fundos",
      "building": "yes",
      "fixme": "Verificar coordenadas",
      "note": "Fora da área de projeção da face 0500-0178P-1-1"
      },
      "geometry": {
         "type": "Point",
         "coordinates": [-38.366477,-9.4745]
      }
    },
    {
      "type": "Feature",
      "properties": { 
      "IBGE:COD_UNICO_ENDERECO": "112580974",
      "addr:housenumber": "73",
      "addr:postcode": "48619-899",
      "addr:street": "Estrada Nambebe de Baixo",
      "addr:suburb": "Nambebe",
      "building": "yes",
      "fixme": "Verificar coordenadas",
      "note": "Sem setor ou quadra no bayface do IBGE 0500-0097P-0-59"
      },
      "geometry": {
         "type": "Point",
         "coordinates": [-38.359377,-9.474672]
      }
    },
    {
      "type": "Feature",
      "properties": { 
      "IBGE:COD_UNICO_ENDERECO": "27410176",
      "addr:housenumber": "80",
      "addr:postcode": "48619-899",
      "addr:street": "Povoado Nambebe de Baixo",
      "addr:suburb": "Nambebe",
      "building": "yes",
      "fixme": "Verificar coordenadas",
      "note": "Sem setor ou quadra no bayface do IBGE 0500-0097P-0-58"
      },
      "geometry": {
         "type": "Point",
         "coordinates": [-38.35938,-9.476183]
      }
    },
    {
      "type": "Feature",
      "properties": { 
      "IBGE:COD_UNICO_ENDERECO": "27410190",
      "addr:housenumber": "34",
      "addr:postcode": "48619-899",
      "addr:street": "Povoado Nambebe de Baixo",
      "addr:suburb": "Nambebe",
      "building": "yes",
      "fixme": "Verificar coordenadas",
      "note": "Sem setor ou quadra no bayface do IBGE 0500-0097P-0-58"
      },
      "geometry": {
         "type": "Point",
         "coordinates": [-38.357038,-9.47704]
      }
    },
    {
      "type": "Feature",
      "properties": { 
      "IBGE:COD_UNICO_ENDERECO": "27410153",
      "addr:housenumber": "11",
      "addr:postcode": "48619-899",
      "addr:street": "Estrada da Quadra",
      "addr:suburb": "Nambebe",
      "building": "yes",
      "fixme": "Verificar coordenadas",
      "note": "Sem dados para mover para dentro da quadra 0500-0178P-2-3"
      },
      "geometry": {
         "type": "Point",
         "coordinates": [-38.3646351,-9.4798358]
      }
    },
    {
      "type": "Feature",
      "properties": { 
      "IBGE:COD_UNICO_ENDERECO": "27413016",
      "addr:housenumber": "21",
      "addr:postcode": "48619-899",
      "addr:street": "Estrada Para Povoado Macambira",
      "addr:suburb": "Nambebe",
      "building": "yes",
      "fixme": "Verificar coordenadas",
      "note": "Muito afastado da face: 66m 0500-0178P-6-2"
      },
      "geometry": {
         "type": "Point",
         "coordinates": [-38.367319,-9.480952]
      }
    },
    {
      "type": "Feature",
      "properties": { 
      "IBGE:COD_UNICO_ENDERECO": "27413065",
      "addr:housenumber": "106",
      "addr:postcode": "48619-899",
      "addr:street": "Estrada da Quadra",
      "addr:suburb": "Nambebe",
      "building": "yes",
      "fixme": "Verificar coordenadas",
      "note": "Fora da área de projeção da face 0500-0178P-1-1"
      },
      "geometry": {
         "type": "Point",
         "coordinates": [-38.36769,-9.474444]
      }
    },
    {
      "type": "Feature",
      "properties": { 
      "IBGE:COD_UNICO_ENDERECO": "27413029",
      "addr:housenumber": "31",
      "addr:postcode": "48619-899",
      "addr:street": "Estrada da Quadra",
      "addr:suburb": "Nambebe",
      "addr:unit": "Fundos",
      "building": "yes",
      "fixme": "Verificar coordenadas",
      "note": "Muito afastado da face: 100m 0500-0178P-3-2"
      },
      "geometry": {
         "type": "Point",
         "coordinates": [-38.369167,-9.479163]
      }
    },
    {
      "type": "Feature",
      "properties": { 
      "IBGE:COD_UNICO_ENDERECO": "191741481",
      "addr:housenumber": "120",
      "addr:postcode": "48619-899",
      "addr:street": "Estrada da Quadra",
      "addr:suburb": "Nambebe",
      "amenity": "place_of_worship",
      "building": "church",
      "denomination": "catholic",
      "description": "CNEFE 2022 Igreja Católica",
      "fixme": "Verificar coordenadas",
      "note": "Sem dados para mover para dentro da quadra 0500-0178P-2-3",
      "religion": "christian"
      },
      "geometry": {
         "type": "Point",
         "coordinates": [-38.3639483,-9.4795333]
      }
    },
    {
      "type": "Feature",
      "properties": { 
      "IBGE:COD_UNICO_ENDERECO": "191720765",
      "addr:housenumber": "69",
      "addr:postcode": "48619-899",
      "addr:street": "Povoado Nambebe de Baixo",
      "addr:suburb": "Nambebe",
      "building": "warehouse",
      "description": "CNEFE 2022 Depósito",
      "fixme": "Verificar coordenadas",
      "note": "Sem setor ou quadra no bayface do IBGE 0500-0097P-0-58"
      },
      "geometry": {
         "type": "Point",
         "coordinates": [-38.35914,-9.474537]
      }
    },
    {
      "type": "Feature",
      "properties": { 
      "IBGE:COD_UNICO_ENDERECO": "27413021",
      "addr:housenumber": "25",
      "addr:postcode": "48619-899",
      "addr:street": "Estrada Para O Povoado Juá",
      "addr:suburb": "Nambebe",
      "addr:unit": "Fundos",
      "building": "yes",
      "fixme": "Verificar coordenadas",
      "note": "Sem dados para mover para dentro da quadra 0500-0178P-7-1"
      },
      "geometry": {
         "type": "Point",
         "coordinates": [-38.3690818,-9.4810323]
      }
    },
    {
      "type": "Feature",
      "properties": { 
      "IBGE:COD_UNICO_ENDERECO": "27410201",
      "addr:housenumber": "49",
      "addr:postcode": "48619-899",
      "addr:street": "Povoado Nambebe de Baixo",
      "addr:suburb": "Nambebe",
      "building": "yes",
      "fixme": "Verificar coordenadas",
      "note": "Sem setor ou quadra no bayface do IBGE 0500-0097P-0-58"
      },
      "geometry": {
         "type": "Point",
         "coordinates": [-38.35635,-9.474642]
      }
    },
    {
      "type": "Feature",
      "properties": { 
      "IBGE:COD_UNICO_ENDERECO": "27410196",
      "addr:housenumber": "79",
      "addr:postcode": "48619-899",
      "addr:street": "Povoado Nambebe de Baixo",
      "addr:suburb": "Nambebe",
      "building": "yes",
      "fixme": "Verificar coordenadas",
      "note": "Sem setor ou quadra no bayface do IBGE 0500-0097P-0-58"
      },
      "geometry": {
         "type": "Point",
         "coordinates": [-38.359322,-9.47595]
      }
    },
    {
      "type": "Feature",
      "properties": { 
      "IBGE:COD_UNICO_ENDERECO": "27413038",
      "addr:housenumber": "75",
      "addr:postcode": "48619-899",
      "addr:street": "Estrada da Quadra",
      "addr:suburb": "Nambebe",
      "addr:unit": "Fundos",
      "building": "yes",
      "fixme": "Verificar coordenadas",
      "note": "Fora da área de projeção da face 0500-0178P-1-3"
      },
      "geometry": {
         "type": "Point",
         "coordinates": [-38.369938,-9.475869]
      }
    },
    {
      "type": "Feature",
      "properties": { 
      "IBGE:COD_UNICO_ENDERECO": "112583121",
      "addr:housenumber": "152",
      "addr:postcode": "48619-899",
      "addr:street": "Estrada Nambebe de Baixo",
      "addr:suburb": "Nambebe",
      "addr:unit": "Fundos",
      "building": "yes",
      "fixme": "Verificar coordenadas",
      "note": "Sem setor ou quadra no bayface do IBGE 0500-0097P-0-59"
      },
      "geometry": {
         "type": "Point",
         "coordinates": [-38.36178050842,-9.4787177951224]
      }
    },
    {
      "type": "Feature",
      "properties": { 
      "IBGE:COD_UNICO_ENDERECO": "27410180",
      "addr:housenumber": "74",
      "addr:postcode": "48619-899",
      "addr:street": "Povoado Nambebe de Baixo",
      "addr:suburb": "Nambebe",
      "building": "yes",
      "fixme": "Verificar coordenadas",
      "note": "Sem setor ou quadra no bayface do IBGE 0500-0097P-0-58"
      },
      "geometry": {
         "type": "Point",
         "coordinates": [-38.359345,-9.47482]
      }
    },
    {
      "type": "Feature",
      "properties": { 
      "IBGE:COD_UNICO_ENDERECO": "27413028",
      "addr:housenumber": "371 B",
      "addr:postcode": "48619-899",
      "addr:street": "Estrada da Quadra",
      "addr:suburb": "Nambebe",
      "building": "yes"
      },
      "geometry": {
         "type": "Point",
         "coordinates": [-38.3691057,-9.4800025]
      }
    },
    {
      "type": "Feature",
      "properties": { 
      "IBGE:COD_UNICO_ENDERECO": "27413055",
      "addr:housenumber": "55",
      "addr:postcode": "48619-899",
      "addr:street": "Estrada da Quadra",
      "addr:suburb": "Nambebe",
      "building": "garage",
      "description": "CNEFE 2022 Garagem da Associação",
      "fixme": "Verificar coordenadas",
      "note": "Sem dados para mover para dentro da quadra 0500-0178P-2-1"
      },
      "geometry": {
         "type": "Point",
         "coordinates": [-38.3653435,-9.4792612]
      }
    },
    {
      "type": "Feature",
      "properties": { 
      "IBGE:COD_UNICO_ENDERECO": "27410157",
      "addr:housenumber": "37",
      "addr:postcode": "48619-899",
      "addr:street": "Estrada da Quadra",
      "addr:suburb": "Nambebe",
      "building": "yes",
      "fixme": "Verificar coordenadas",
      "note": "Sem dados para mover para dentro da quadra 0500-0178P-2-1"
      },
      "geometry": {
         "type": "Point",
         "coordinates": [-38.3656782,-9.4769723]
      }
    },
    {
      "type": "Feature",
      "properties": { 
      "IBGE:COD_UNICO_ENDERECO": "27410163",
      "addr:housenumber": "5",
      "addr:postcode": "48619-899",
      "addr:street": "Estrada Para Olho d'Água de Paulo",
      "addr:suburb": "Nambebe",
      "building": "yes"
      },
      "geometry": {
         "type": "Point",
         "coordinates": [-38.3643935,-9.4805111]
      }
    },
    {
      "type": "Feature",
      "properties": { 
      "IBGE:COD_UNICO_ENDERECO": "191741482",
      "addr:housenumber": "9",
      "addr:postcode": "48619-899",
      "addr:street": "Estrada da Quadra",
      "addr:suburb": "Nambebe",
      "building": "yes",
      "fixme": "Verificar coordenadas",
      "note": "Muito afastado da face: 62m 0500-0178P-3-1"
      },
      "geometry": {
         "type": "Point",
         "coordinates": [-38.365966,-9.479189]
      }
    },
    {
      "type": "Feature",
      "properties": { 
      "IBGE:COD_UNICO_ENDERECO": "27410159",
      "addr:housenumber": "178710",
      "addr:postcode": "48619-899",
      "addr:street": "Estrada da Quadra",
      "addr:suburb": "Nambebe",
      "building": "yes",
      "fixme": "Verificar coordenadas",
      "note": "Sem dados para mover para dentro da quadra 0500-0178P-2-1"
      },
      "geometry": {
         "type": "Point",
         "coordinates": [-38.36532,-9.4794224]
      }
    },
    {
      "type": "Feature",
      "properties": { 
      "IBGE:COD_UNICO_ENDERECO": "27410171",
      "addr:housenumber": "90",
      "addr:postcode": "48619-899",
      "addr:street": "Povoado Nambebe de Baixo",
      "addr:suburb": "Nambebe",
      "building": "yes",
      "fixme": "Verificar coordenadas",
      "note": "Sem setor ou quadra no bayface do IBGE 0500-0097P-0-58"
      },
      "geometry": {
         "type": "Point",
         "coordinates": [-38.361087,-9.478412]
      }
    },
    {
      "type": "Feature",
      "properties": { 
      "IBGE:COD_UNICO_ENDERECO": "27413022",
      "addr:housenumber": "26",
      "addr:postcode": "48619-899",
      "addr:street": "Estrada Para O Povoado Juá",
      "addr:suburb": "Nambebe",
      "building": "yes",
      "fixme": "Verificar coordenadas",
      "note": "Sem dados para mover para dentro da quadra 0500-0178P-7-1"
      },
      "geometry": {
         "type": "Point",
         "coordinates": [-38.3692439,-9.4802576]
      }
    },
    {
      "type": "Feature",
      "properties": { 
      "IBGE:COD_UNICO_ENDERECO": "27410162",
      "addr:housenumber": "7",
      "addr:postcode": "48619-899",
      "addr:street": "Estrada da Quadra",
      "addr:suburb": "Nambebe",
      "building": "yes",
      "fixme": "Verificar coordenadas",
      "note": "Sem dados para mover para dentro da quadra 0500-0178P-2-1"
      },
      "geometry": {
         "type": "Point",
         "coordinates": [-38.365722,-9.4767174]
      }
    },
    {
      "type": "Feature",
      "properties": { 
      "IBGE:COD_UNICO_ENDERECO": "112583103",
      "addr:housenumber": "38",
      "addr:postcode": "48619-899",
      "addr:street": "Povoado Nambebe",
      "addr:suburb": "Nambebe",
      "building": "yes",
      "fixme": "Verificar coordenadas",
      "note": "Sem setor ou quadra no bayface do IBGE 0500-0097P-0-57"
      },
      "geometry": {
         "type": "Point",
         "coordinates": [-38.361803,-9.47882]
      }
    },
    {
      "type": "Feature",
      "properties": { 
      "IBGE:COD_UNICO_ENDERECO": "27410192",
      "addr:housenumber": "56",
      "addr:postcode": "48619-899",
      "addr:street": "Povoado Nambebe de Baixo",
      "addr:suburb": "Nambebe",
      "building": "yes",
      "fixme": "Verificar coordenadas",
      "note": "Sem setor ou quadra no bayface do IBGE 0500-0097P-0-58"
      },
      "geometry": {
         "type": "Point",
         "coordinates": [-38.357673,-9.474837]
      }
    },
    {
      "type": "Feature",
      "properties": { 
      "IBGE:COD_UNICO_ENDERECO": "27410149",
      "addr:housenumber": "59",
      "addr:postcode": "48619-899",
      "addr:street": "Estrada da Quadra",
      "addr:suburb": "Nambebe",
      "building": "yes",
      "fixme": "Verificar coordenadas",
      "note": "Sem dados para mover para dentro da quadra 0500-0178P-2-1"
      },
      "geometry": {
         "type": "Point",
         "coordinates": [-38.365453,-9.4784463]
      }
    },
    {
      "type": "Feature",
      "properties": { 
      "IBGE:COD_UNICO_ENDERECO": "191720775",
      "addr:housenumber": "7",
      "addr:postcode": "48619-899",
      "addr:street": "Povoado Nambebe de Baixo",
      "addr:suburb": "Nambebe",
      "building": "yes",
      "fixme": "Verificar coordenadas",
      "note": "Sem setor ou quadra no bayface do IBGE 0500-0097P-0-58"
      },
      "geometry": {
         "type": "Point",
         "coordinates": [-38.357653,-9.475118]
      }
    },
    {
      "type": "Feature",
      "properties": { 
      "IBGE:COD_UNICO_ENDERECO": "191720648",
      "addr:housenumber": "31",
      "addr:postcode": "48619-899",
      "addr:street": "Povoado Nambebe",
      "addr:suburb": "Nambebe",
      "building": "construction",
      "fixme": "Verificar coordenadas",
      "note": "Sem setor ou quadra no bayface do IBGE 0500-0097P-0-57"
      },
      "geometry": {
         "type": "Point",
         "coordinates": [-38.360872,-9.478337]
      }
    },
    {
      "type": "Feature",
      "properties": { 
      "IBGE:COD_UNICO_ENDERECO": "27413014",
      "addr:housenumber": "19",
      "addr:postcode": "48619-899",
      "addr:street": "Estrada Para Povoado Macambira",
      "addr:suburb": "Nambebe",
      "building": "yes"
      },
      "geometry": {
         "type": "Point",
         "coordinates": [-38.3671293,-9.4802552]
      }
    },
    {
      "type": "Feature",
      "properties": { 
      "IBGE:COD_UNICO_ENDERECO": "27410170",
      "addr:housenumber": "92",
      "addr:postcode": "48619-899",
      "addr:street": "Povoado Nambebe de Baixo",
      "addr:suburb": "Nambebe",
      "building": "yes",
      "fixme": "Verificar coordenadas",
      "note": "Sem setor ou quadra no bayface do IBGE 0500-0097P-0-58"
      },
      "geometry": {
         "type": "Point",
         "coordinates": [-38.361857,-9.478738]
      }
    },
    {
      "type": "Feature",
      "properties": { 
      "IBGE:COD_UNICO_ENDERECO": "27410193",
      "addr:housenumber": "57",
      "addr:postcode": "48619-899",
      "addr:street": "Povoado Nambebe de Baixo",
      "addr:suburb": "Nambebe",
      "building": "yes",
      "fixme": "Verificar coordenadas",
      "note": "Sem setor ou quadra no bayface do IBGE 0500-0097P-0-58"
      },
      "geometry": {
         "type": "Point",
         "coordinates": [-38.357812,-9.474882]
      }
    },
    {
      "type": "Feature",
      "properties": { 
      "IBGE:COD_UNICO_ENDERECO": "27410175",
      "addr:housenumber": "85",
      "addr:postcode": "48619-899",
      "addr:street": "Povoado Nambebe de Baixo",
      "addr:suburb": "Nambebe",
      "building": "yes",
      "fixme": "Verificar coordenadas",
      "note": "Sem setor ou quadra no bayface do IBGE 0500-0097P-0-58"
      },
      "geometry": {
         "type": "Point",
         "coordinates": [-38.359918,-9.476507]
      }
    },
    {
      "type": "Feature",
      "properties": { 
      "IBGE:COD_UNICO_ENDERECO": "27413046",
      "addr:housenumber": "103 Fundos Box Lado",
      "addr:postcode": "48619-899",
      "addr:street": "Estrada da Quadra",
      "addr:suburb": "Nambebe",
      "building": "yes",
      "description": "CNEFE 2022 Borracharia",
      "fixme": "Verificar coordenadas",
      "note": "Fora da área de projeção da face 0500-0178P-1-1",
      "repair": "yes",
      "shop": "tyres"
      },
      "geometry": {
         "type": "Point",
         "coordinates": [-38.366456,-9.47461]
      }
    },
    {
      "type": "Feature",
      "properties": { 
      "IBGE:COD_UNICO_ENDERECO": "27410172",
      "addr:housenumber": "89",
      "addr:postcode": "48619-899",
      "addr:street": "Povoado Nambebe de Baixo",
      "addr:suburb": "Nambebe",
      "building": "yes",
      "fixme": "Verificar coordenadas",
      "note": "Sem setor ou quadra no bayface do IBGE 0500-0097P-0-58"
      },
      "geometry": {
         "type": "Point",
         "coordinates": [-38.360557,-9.477625]
      }
    },
    {
      "type": "Feature",
      "properties": { 
      "IBGE:COD_UNICO_ENDERECO": "27413058",
      "addr:housenumber": "100",
      "addr:postcode": "48619-899",
      "addr:street": "Estrada da Quadra",
      "addr:suburb": "Nambebe",
      "building": "yes",
      "fixme": "Verificar coordenadas",
      "note": "Fora da área de projeção da face 0500-0178P-1-1"
      },
      "geometry": {
         "type": "Point",
         "coordinates": [-38.366558,-9.477271]
      }
    },
    {
      "type": "Feature",
      "properties": { 
      "IBGE:COD_UNICO_ENDERECO": "27410161",
      "addr:housenumber": "581",
      "addr:postcode": "48619-899",
      "addr:street": "Estrada da Quadra",
      "addr:suburb": "Nambebe",
      "addr:unit": "Casa 2",
      "building": "yes",
      "fixme": "Verificar coordenadas",
      "note": "Sem dados para mover para dentro da quadra 0500-0178P-2-1"
      },
      "geometry": {
         "type": "Point",
         "coordinates": [-38.3654483,-9.478487]
      }
    },
    {
      "type": "Feature",
      "properties": { 
      "IBGE:COD_UNICO_ENDERECO": "191720712",
      "addr:housenumber": "83",
      "addr:postcode": "48619-899",
      "addr:street": "Povoado Nambebe de Baixo",
      "addr:suburb": "Nambebe",
      "building": "yes",
      "fixme": "Verificar coordenadas",
      "note": "Sem setor ou quadra no bayface do IBGE 0500-0097P-0-58"
      },
      "geometry": {
         "type": "Point",
         "coordinates": [-38.359953,-9.476425]
      }
    },
    {
      "type": "Feature",
      "properties": { 
      "IBGE:COD_UNICO_ENDERECO": "27410155",
      "addr:housenumber": "8",
      "addr:postcode": "48619-899",
      "addr:street": "Estrada Para Olho d'Água de Paulo",
      "addr:suburb": "Nambebe",
      "building": "yes",
      "fixme": "Verificar coordenadas",
      "name": "Recanto do Brother",
      "note": "Sem dados para mover para dentro da quadra 0500-0178P-4-2"
      },
      "geometry": {
         "type": "Point",
         "coordinates": [-38.3645524,-9.4798392]
      }
    },
    {
      "type": "Feature",
      "properties": { 
      "IBGE:COD_UNICO_ENDERECO": "27410198",
      "addr:housenumber": "38",
      "addr:postcode": "48619-899",
      "addr:street": "Povoado Nambebe de Baixo",
      "addr:suburb": "Nambebe",
      "building": "yes",
      "fixme": "Verificar coordenadas",
      "note": "Sem setor ou quadra no bayface do IBGE 0500-0097P-0-58"
      },
      "geometry": {
         "type": "Point",
         "coordinates": [-38.358608,-9.476225]
      }
    }
  ]
}
