{
  "type": "FeatureCollection",
  "source": "IBGE CNEFE + Faces de Logradouros - 2022",
  "generator": "CSV-CNEFE2GeoJSON.lua 1.5.7 - fidelis.assis@gmail.com",
  "date": "2025-02-02T09:05:25-0300",
  "features": [
    {
      "type": "Feature",
      "properties": { 
      "IBGE:COD_UNICO_ENDERECO": "112587229",
      "addr:housenumber": "45",
      "addr:postcode": "48619-899",
      "addr:street": "Estrada Estrada Serrote Paulo Afonso",
      "addr:suburb": "Juá Nambebe",
      "addr:unit": "Fundos",
      "building": "yes",
      "fixme": "Verificar coordenadas",
      "note": "Sem setor ou quadra no bayface do IBGE 0500-0111P-0-89"
      },
      "geometry": {
         "type": "Point",
         "coordinates": [-38.367726,-9.473503]
      }
    },
    {
      "type": "Feature",
      "properties": { 
      "IBGE:COD_UNICO_ENDERECO": "112587299",
      "addr:housenumber": "55",
      "addr:postcode": "48619-899",
      "addr:street": "Estrada Estrada Serrote Paulo Afonso",
      "addr:suburb": "Juá Nambebe",
      "addr:unit": "Fundos",
      "building": "yes",
      "fixme": "Verificar coordenadas",
      "note": "Sem setor ou quadra no bayface do IBGE 0500-0111P-0-89"
      },
      "geometry": {
         "type": "Point",
         "coordinates": [-38.37102,-9.473818]
      }
    },
    {
      "type": "Feature",
      "properties": { 
      "IBGE:COD_UNICO_ENDERECO": "112587293",
      "addr:housenumber": "55",
      "addr:postcode": "48601-248",
      "addr:street": "Estrada Estrada Serrote Paulo Afonso",
      "addr:suburb": "Juá Nambebe",
      "building": "yes",
      "fixme": "Verificar coordenadas",
      "note": "Sem setor ou quadra no bayface do IBGE 0500-0111P-0-84"
      },
      "geometry": {
         "type": "Point",
         "coordinates": [-38.365516,-9.457762]
      }
    },
    {
      "type": "Feature",
      "properties": { 
      "IBGE:COD_UNICO_ENDERECO": "109862728",
      "addr:housenumber": "200",
      "addr:postcode": "48601-248",
      "addr:street": "Estrada do Nambebe para Juá",
      "addr:suburb": "Juá Nambebe",
      "building": "yes",
      "fixme": "Verificar coordenadas",
      "note": "Sem setor ou quadra no bayface do IBGE 0500-0111P-0-85"
      },
      "geometry": {
         "type": "Point",
         "coordinates": [-38.366304,-9.474567]
      }
    }
  ]
}
