{
  "type": "FeatureCollection",
  "source": "IBGE CNEFE + Faces de Logradouros - 2022",
  "generator": "CSV-CNEFE2GeoJSON.lua 1.5.7 - fidelis.assis@gmail.com",
  "date": "2025-02-02T09:05:27-0300",
  "features": [
    {
      "type": "Feature",
      "properties": { 
      "IBGE:COD_UNICO_ENDERECO": "27410265",
      "addr:housenumber": "16",
      "addr:postcode": "48619-899",
      "addr:street": "Povoado Olhos d'Água",
      "addr:suburb": "Olhos d'Água",
      "building": "yes",
      "fixme": "Verificar coordenadas",
      "note": "Sem setor ou quadra no bayface do IBGE 0500-0097P-0-44"
      },
      "geometry": {
         "type": "Point",
         "coordinates": [-38.337472,-9.496758]
      }
    },
    {
      "type": "Feature",
      "properties": { 
      "IBGE:COD_UNICO_ENDERECO": "191720509",
      "addr:housenumber": "20",
      "addr:postcode": "48619-899",
      "addr:street": "Povoado Olhos d'Água",
      "addr:suburb": "Olhos d'Água",
      "building": "yes",
      "fixme": "Verificar coordenadas",
      "note": "Sem setor ou quadra no bayface do IBGE 0500-0097P-0-44"
      },
      "geometry": {
         "type": "Point",
         "coordinates": [-38.337025,-9.497437]
      }
    },
    {
      "type": "Feature",
      "properties": { 
      "IBGE:COD_UNICO_ENDERECO": "27470322",
      "addr:housenumber": "22",
      "addr:postcode": "48619-899",
      "addr:street": "Povoado Olhos d'Água",
      "addr:suburb": "Olhos d'Água",
      "addr:unit": "Fundos",
      "building": "yes",
      "fixme": "Verificar coordenadas",
      "note": "Sem setor ou quadra no bayface do IBGE 0500-0168P-0-43"
      },
      "geometry": {
         "type": "Point",
         "coordinates": [-38.332793,-9.500522]
      }
    },
    {
      "type": "Feature",
      "properties": { 
      "IBGE:COD_UNICO_ENDERECO": "27470323",
      "addr:housenumber": "3",
      "addr:postcode": "48619-899",
      "addr:street": "Povoado Olhos d'Água",
      "addr:suburb": "Olhos d'Água",
      "addr:unit": "Fundos",
      "building": "yes",
      "fixme": "Verificar coordenadas",
      "note": "Sem setor ou quadra no bayface do IBGE 0500-0168P-0-43"
      },
      "geometry": {
         "type": "Point",
         "coordinates": [-38.330133,-9.499365]
      }
    },
    {
      "type": "Feature",
      "properties": { 
      "IBGE:COD_UNICO_ENDERECO": "27410275",
      "addr:housenumber": "448818",
      "addr:postcode": "48619-899",
      "addr:street": "Povoado Olhos d'Água",
      "addr:suburb": "Olhos d'Água",
      "addr:unit": "Cisterna",
      "building": "yes",
      "fixme": "Verificar coordenadas",
      "note": "Sem setor ou quadra no bayface do IBGE 0500-0097P-0-44"
      },
      "geometry": {
         "type": "Point",
         "coordinates": [-38.33419,-9.499522]
      }
    },
    {
      "type": "Feature",
      "properties": { 
      "IBGE:COD_UNICO_ENDERECO": "27410252",
      "addr:housenumber": "137",
      "addr:postcode": "48619-899",
      "addr:street": "Povoado Olhos d'Água",
      "addr:suburb": "Olhos d'Água",
      "building": "yes",
      "fixme": "Verificar coordenadas",
      "note": "Sem setor ou quadra no bayface do IBGE 0500-0097P-0-44"
      },
      "geometry": {
         "type": "Point",
         "coordinates": [-38.333795,-9.496922]
      }
    },
    {
      "type": "Feature",
      "properties": { 
      "IBGE:COD_UNICO_ENDERECO": "191720507",
      "addr:housenumber": "41",
      "addr:postcode": "48619-899",
      "addr:street": "Povoado Olhos d'Água",
      "addr:suburb": "Olhos d'Água",
      "addr:unit": "Cisterna",
      "building": "yes",
      "fixme": "Verificar coordenadas",
      "note": "Sem setor ou quadra no bayface do IBGE 0500-0097P-0-44"
      },
      "geometry": {
         "type": "Point",
         "coordinates": [-38.335523,-9.497572]
      }
    },
    {
      "type": "Feature",
      "properties": { 
      "IBGE:COD_UNICO_ENDERECO": "27410255",
      "addr:housenumber": "46",
      "addr:postcode": "48619-899",
      "addr:street": "Povoado Olhos d'Água",
      "addr:suburb": "Olhos d'Água",
      "building": "yes",
      "fixme": "Verificar coordenadas",
      "note": "Sem setor ou quadra no bayface do IBGE 0500-0097P-0-44"
      },
      "geometry": {
         "type": "Point",
         "coordinates": [-38.338232,-9.49395]
      }
    },
    {
      "type": "Feature",
      "properties": { 
      "IBGE:COD_UNICO_ENDERECO": "27410268",
      "addr:housenumber": "41",
      "addr:postcode": "48619-899",
      "addr:street": "Povoado Olhos d'Água",
      "addr:suburb": "Olhos d'Água",
      "amenity": "place_of_worship",
      "building": "church",
      "denomination": "pentecostal",
      "fixme": "Verificar coordenadas",
      "name": "Igreja Assembleia de Deus",
      "note": "Sem setor ou quadra no bayface do IBGE 0500-0097P-0-44",
      "religion": "christian"
      },
      "geometry": {
         "type": "Point",
         "coordinates": [-38.337172,-9.496773]
      }
    },
    {
      "type": "Feature",
      "properties": { 
      "IBGE:COD_UNICO_ENDERECO": "112586098",
      "addr:housenumber": "5",
      "addr:postcode": "48619-899",
      "addr:street": "Estrada Principal",
      "addr:suburb": "Olhos d'Água",
      "building": "yes",
      "fixme": "Verificar coordenadas",
      "note": "Sem setor ou quadra no bayface do IBGE 0500-0168P-0-44"
      },
      "geometry": {
         "type": "Point",
         "coordinates": [-38.330788,-9.501647]
      }
    },
    {
      "type": "Feature",
      "properties": { 
      "IBGE:COD_UNICO_ENDERECO": "27410257;191720520",
      "addr:housenumber": "10",
      "addr:postcode": "48619-899",
      "addr:street": "Povoado Olhos d'Água",
      "addr:suburb": "Olhos d'Água",
      "building": "yes",
      "fixme": "Verificar coordenadas",
      "note": "Sem setor ou quadra no bayface do IBGE 0500-0097P-0-44"
      },
      "geometry": {
         "type": "Point",
         "coordinates": [-38.337655,-9.493714]
      }
    },
    {
      "type": "Feature",
      "properties": { 
      "IBGE:COD_UNICO_ENDERECO": "27470321",
      "addr:housenumber": "2",
      "addr:postcode": "48619-899",
      "addr:street": "Povoado Olhos d'Água",
      "addr:suburb": "Olhos d'Água",
      "building": "yes",
      "fixme": "Verificar coordenadas",
      "note": "Sem setor ou quadra no bayface do IBGE 0500-0168P-0-43"
      },
      "geometry": {
         "type": "Point",
         "coordinates": [-38.332145,-9.500968]
      }
    },
    {
      "type": "Feature",
      "properties": { 
      "IBGE:COD_UNICO_ENDERECO": "27410278;27410281",
      "addr:housenumber": "2",
      "addr:postcode": "48619-899",
      "addr:street": "Povoado Olhos d'Água",
      "addr:suburb": "Olhos d'Água",
      "building": "yes",
      "fixme": "Verificar coordenadas",
      "note": "Sem setor ou quadra no bayface do IBGE 0500-0097P-0-44"
      },
      "geometry": {
         "type": "Point",
         "coordinates": [-38.332232,-9.500996]
      }
    },
    {
      "type": "Feature",
      "properties": { 
      "IBGE:COD_UNICO_ENDERECO": "191720536",
      "addr:housenumber": "12",
      "addr:postcode": "48619-899",
      "addr:street": "Estrada Olho d'Água de Paulo",
      "addr:suburb": "Olhos d'Água",
      "building": "yes",
      "fixme": "Verificar coordenadas",
      "note": "Sem setor ou quadra no bayface do IBGE 0500-0097P-0-45"
      },
      "geometry": {
         "type": "Point",
         "coordinates": [-38.330923,-9.501633]
      }
    },
    {
      "type": "Feature",
      "properties": { 
      "IBGE:COD_UNICO_ENDERECO": "27410282",
      "addr:housenumber": "24",
      "addr:postcode": "48619-899",
      "addr:street": "Povoado Olhos d'Água",
      "addr:suburb": "Olhos d'Água",
      "building": "yes",
      "fixme": "Verificar coordenadas",
      "note": "Sem setor ou quadra no bayface do IBGE 0500-0097P-0-44"
      },
      "geometry": {
         "type": "Point",
         "coordinates": [-38.336123,-9.497438]
      }
    },
    {
      "type": "Feature",
      "properties": { 
      "IBGE:COD_UNICO_ENDERECO": "27410267;191720512",
      "addr:housenumber": "15",
      "addr:postcode": "48619-899",
      "addr:street": "Povoado Olhos d'Água",
      "addr:suburb": "Olhos d'Água",
      "building": "yes",
      "fixme": "Verificar coordenadas",
      "note": "Sem setor ou quadra no bayface do IBGE 0500-0097P-0-44"
      },
      "geometry": {
         "type": "Point",
         "coordinates": [-38.337835,-9.495773]
      }
    },
    {
      "type": "Feature",
      "properties": { 
      "IBGE:COD_UNICO_ENDERECO": "191720516",
      "addr:housenumber": "46",
      "addr:postcode": "48619-899",
      "addr:street": "Povoado Olhos d'Água",
      "addr:suburb": "Olhos d'Água",
      "addr:unit": "Cisterna",
      "building": "yes",
      "fixme": "Verificar coordenadas",
      "note": "Sem setor ou quadra no bayface do IBGE 0500-0097P-0-44"
      },
      "geometry": {
         "type": "Point",
         "coordinates": [-38.338542,-9.493768]
      }
    },
    {
      "type": "Feature",
      "properties": { 
      "IBGE:COD_UNICO_ENDERECO": "112585841",
      "addr:housenumber": "22",
      "addr:postcode": "48619-899",
      "addr:street": "Estrada Principal",
      "addr:suburb": "Olhos d'Água",
      "addr:unit": "Fundos",
      "building": "yes",
      "fixme": "Verificar coordenadas",
      "note": "Sem setor ou quadra no bayface do IBGE 0500-0168P-0-44"
      },
      "geometry": {
         "type": "Point",
         "coordinates": [-38.33279295582,-9.5005221616562]
      }
    },
    {
      "type": "Feature",
      "properties": { 
      "IBGE:COD_UNICO_ENDERECO": "27410273",
      "addr:housenumber": "8",
      "addr:postcode": "48619-899",
      "addr:street": "Povoado Olhos d'Água",
      "addr:suburb": "Olhos d'Água",
      "building": "yes",
      "fixme": "Verificar coordenadas",
      "note": "Sem setor ou quadra no bayface do IBGE 0500-0097P-0-44"
      },
      "geometry": {
         "type": "Point",
         "coordinates": [-38.336963,-9.497315]
      }
    },
    {
      "type": "Feature",
      "properties": { 
      "IBGE:COD_UNICO_ENDERECO": "27410279",
      "addr:housenumber": "19",
      "addr:postcode": "48619-899",
      "addr:street": "Estrada Olho d'Água de Paulo",
      "addr:suburb": "Olhos d'Água",
      "building": "yes",
      "fixme": "Verificar coordenadas",
      "note": "Sem setor ou quadra no bayface do IBGE 0500-0097P-0-45"
      },
      "geometry": {
         "type": "Point",
         "coordinates": [-38.332815,-9.500667]
      }
    },
    {
      "type": "Feature",
      "properties": { 
      "IBGE:COD_UNICO_ENDERECO": "27410270",
      "addr:housenumber": "18",
      "addr:postcode": "48619-899",
      "addr:street": "Povoado Olhos d'Água",
      "addr:suburb": "Olhos d'Água",
      "building": "yes",
      "fixme": "Verificar coordenadas",
      "note": "Sem setor ou quadra no bayface do IBGE 0500-0097P-0-44"
      },
      "geometry": {
         "type": "Point",
         "coordinates": [-38.337395,-9.496928]
      }
    },
    {
      "type": "Feature",
      "properties": { 
      "IBGE:COD_UNICO_ENDERECO": "112585930",
      "addr:housenumber": "6",
      "addr:postcode": "48619-899",
      "addr:street": "Povoado Olhos d'Água",
      "addr:suburb": "Olhos d'Água",
      "addr:unit": "Fundos",
      "building": "yes",
      "fixme": "Verificar coordenadas",
      "note": "Sem setor ou quadra no bayface do IBGE 0500-0168P-0-43"
      },
      "geometry": {
         "type": "Point",
         "coordinates": [-38.331142,-9.499633]
      }
    },
    {
      "type": "Feature",
      "properties": { 
      "IBGE:COD_UNICO_ENDERECO": "27410266",
      "addr:housenumber": "17",
      "addr:postcode": "48619-899",
      "addr:street": "Povoado Olhos d'Água",
      "addr:suburb": "Olhos d'Água",
      "building": "yes",
      "fixme": "Verificar coordenadas",
      "note": "Sem setor ou quadra no bayface do IBGE 0500-0097P-0-44"
      },
      "geometry": {
         "type": "Point",
         "coordinates": [-38.337512,-9.496795]
      }
    },
    {
      "type": "Feature",
      "properties": { 
      "IBGE:COD_UNICO_ENDERECO": "27470320",
      "addr:housenumber": "3",
      "addr:postcode": "48619-899",
      "addr:street": "Povoado Olhos d'Água",
      "addr:suburb": "Olhos d'Água",
      "building": "yes",
      "fixme": "Verificar coordenadas",
      "note": "Sem setor ou quadra no bayface do IBGE 0500-0168P-0-43"
      },
      "geometry": {
         "type": "Point",
         "coordinates": [-38.331095,-9.500837]
      }
    },
    {
      "type": "Feature",
      "properties": { 
      "IBGE:COD_UNICO_ENDERECO": "27470324",
      "addr:housenumber": "29",
      "addr:postcode": "48619-899",
      "addr:street": "Povoado Olhos d'Água",
      "addr:suburb": "Olhos d'Água",
      "building": "yes",
      "fixme": "Verificar coordenadas",
      "note": "Sem setor ou quadra no bayface do IBGE 0500-0168P-0-43"
      },
      "geometry": {
         "type": "Point",
         "coordinates": [-38.331153,-9.499602]
      }
    },
    {
      "type": "Feature",
      "properties": { 
      "IBGE:COD_UNICO_ENDERECO": "112585827;112585893",
      "addr:housenumber": "8",
      "addr:postcode": "48619-899",
      "addr:street": "Povoado Olhos d'Água",
      "addr:suburb": "Olhos d'Água",
      "building": "yes",
      "fixme": "Verificar coordenadas",
      "note": "Sem setor ou quadra no bayface do IBGE 0500-0168P-0-43"
      },
      "geometry": {
         "type": "Point",
         "coordinates": [-38.330135,-9.4993635]
      }
    },
    {
      "type": "Feature",
      "properties": { 
      "IBGE:COD_UNICO_ENDERECO": "112585923",
      "addr:housenumber": "1",
      "addr:postcode": "48619-899",
      "addr:street": "Estrada Principal",
      "addr:suburb": "Olhos d'Água",
      "addr:unit": "Fundos",
      "building": "yes",
      "fixme": "Verificar coordenadas",
      "note": "Sem setor ou quadra no bayface do IBGE 0500-0168P-0-44"
      },
      "geometry": {
         "type": "Point",
         "coordinates": [-38.331187,-9.500868]
      }
    },
    {
      "type": "Feature",
      "properties": { 
      "IBGE:COD_UNICO_ENDERECO": "27410261",
      "addr:housenumber": "5",
      "addr:postcode": "48619-899",
      "addr:street": "Povoado Olhos d'Água",
      "addr:suburb": "Olhos d'Água",
      "building": "yes",
      "fixme": "Verificar coordenadas",
      "note": "Sem setor ou quadra no bayface do IBGE 0500-0097P-0-44"
      },
      "geometry": {
         "type": "Point",
         "coordinates": [-38.338297,-9.495112]
      }
    },
    {
      "type": "Feature",
      "properties": { 
      "IBGE:COD_UNICO_ENDERECO": "27410271",
      "addr:housenumber": "7",
      "addr:postcode": "48619-899",
      "addr:street": "Povoado Olhos d'Água",
      "addr:suburb": "Olhos d'Água",
      "building": "yes",
      "fixme": "Verificar coordenadas",
      "note": "Sem setor ou quadra no bayface do IBGE 0500-0097P-0-44"
      },
      "geometry": {
         "type": "Point",
         "coordinates": [-38.336967,-9.497432]
      }
    },
    {
      "type": "Feature",
      "properties": { 
      "IBGE:COD_UNICO_ENDERECO": "27410254",
      "addr:housenumber": "48",
      "addr:postcode": "48619-899",
      "addr:street": "Povoado Olhos d'Água",
      "addr:suburb": "Olhos d'Água",
      "addr:unit": "Cisterna",
      "building": "yes",
      "fixme": "Verificar coordenadas",
      "note": "Sem setor ou quadra no bayface do IBGE 0500-0097P-0-44"
      },
      "geometry": {
         "type": "Point",
         "coordinates": [-38.338662,-9.494745]
      }
    },
    {
      "type": "Feature",
      "properties": { 
      "IBGE:COD_UNICO_ENDERECO": "27410269",
      "addr:housenumber": "42",
      "addr:postcode": "48619-899",
      "addr:street": "Povoado Olhos d'Água",
      "addr:suburb": "Olhos d'Água",
      "building": "yes",
      "fixme": "Verificar coordenadas",
      "note": "Sem setor ou quadra no bayface do IBGE 0500-0097P-0-44"
      },
      "geometry": {
         "type": "Point",
         "coordinates": [-38.337335,-9.496813]
      }
    },
    {
      "type": "Feature",
      "properties": { 
      "IBGE:COD_UNICO_ENDERECO": "27410256",
      "addr:housenumber": "47",
      "addr:postcode": "48619-899",
      "addr:street": "Povoado Olhos d'Água",
      "addr:suburb": "Olhos d'Água",
      "building": "yes",
      "fixme": "Verificar coordenadas",
      "note": "Sem setor ou quadra no bayface do IBGE 0500-0097P-0-44"
      },
      "geometry": {
         "type": "Point",
         "coordinates": [-38.338093,-9.49388]
      }
    },
    {
      "type": "Feature",
      "properties": { 
      "IBGE:COD_UNICO_ENDERECO": "191889110",
      "addr:housenumber": "34",
      "addr:postcode": "48619-899",
      "addr:street": "Povoado Olhos d'Água",
      "addr:suburb": "Olhos d'Água",
      "building": "yes",
      "fixme": "Verificar coordenadas",
      "note": "Sem setor ou quadra no bayface do IBGE 0500-0168P-0-43"
      },
      "geometry": {
         "type": "Point",
         "coordinates": [-38.33424,-9.499333]
      }
    },
    {
      "type": "Feature",
      "properties": { 
      "IBGE:COD_UNICO_ENDERECO": "27410274",
      "addr:housenumber": "39",
      "addr:postcode": "48619-899",
      "addr:street": "Povoado Olhos d'Água",
      "addr:suburb": "Olhos d'Água",
      "building": "yes",
      "fixme": "Verificar coordenadas",
      "note": "Sem setor ou quadra no bayface do IBGE 0500-0097P-0-44"
      },
      "geometry": {
         "type": "Point",
         "coordinates": [-38.336957,-9.496913]
      }
    },
    {
      "type": "Feature",
      "properties": { 
      "IBGE:COD_UNICO_ENDERECO": "27410260",
      "addr:housenumber": "44",
      "addr:postcode": "48619-899",
      "addr:street": "Povoado Olhos d'Água",
      "addr:suburb": "Olhos d'Água",
      "building": "yes",
      "fixme": "Verificar coordenadas",
      "note": "Sem setor ou quadra no bayface do IBGE 0500-0097P-0-44"
      },
      "geometry": {
         "type": "Point",
         "coordinates": [-38.338385,-9.494902]
      }
    }
  ]
}
