{
  "type": "FeatureCollection",
  "generator": "CSV-CNEFE2GeoJSON.lua 1.5.7 - fidelis.assis@gmail.com",
  "source": "IBGE CNEFE + Faces de Logradouros - 2022",
  "date": "2025-02-02T09:05:09-0300",
  "features": [
    {
      "type": "Feature",
      "properties": { 
      "IBGE:COD_UNICO_ENDERECO": "112589184",
      "addr:housenumber": "80",
      "addr:postcode": "48601-248",
      "addr:street": "Corredor Santo Antônio",
      "addr:suburb": "Bogo de Cima",
      "building": "yes",
      "fixme": "Verificar coordenadas",
      "note": "Sem setor ou quadra no bayface do IBGE 0500-0217P-0-89"
      },
      "geometry": {
         "type": "Point",
         "coordinates": [-38.322175,-9.589142]
      }
    },
    {
      "type": "Feature",
      "properties": { 
      "IBGE:COD_UNICO_ENDERECO": "112589760",
      "addr:housenumber": "26",
      "addr:postcode": "48601-016",
      "addr:street": "Estrada do São José para Paulo Afonso",
      "addr:suburb": "Bogo de Cima",
      "building": "yes",
      "fixme": "Verificar coordenadas",
      "note": "Sem setor ou quadra no bayface do IBGE 0500-0217P-0-80"
      },
      "geometry": {
         "type": "Point",
         "coordinates": [-38.323847,-9.560644]
      }
    },
    {
      "type": "Feature",
      "properties": { 
      "IBGE:COD_UNICO_ENDERECO": "112589221",
      "addr:housenumber": "741",
      "addr:postcode": "48601-248",
      "addr:street": "Estrada Para Santo Antônio",
      "addr:suburb": "Bogo de Cima",
      "addr:unit": "Fundos",
      "building": "yes",
      "fixme": "Verificar coordenadas",
      "note": "Sem setor ou quadra no bayface do IBGE 0500-0217P-0-85"
      },
      "geometry": {
         "type": "Point",
         "coordinates": [-38.325595,-9.585448]
      }
    },
    {
      "type": "Feature",
      "properties": { 
      "IBGE:COD_UNICO_ENDERECO": "112590096",
      "addr:housenumber": "39",
      "addr:postcode": "48601-248",
      "addr:street": "Estrada do São José para Paulo Afonso",
      "addr:suburb": "Bogo de Cima",
      "building": "yes",
      "fixme": "Verificar coordenadas",
      "note": "Sem setor ou quadra no bayface do IBGE 0500-0217P-0-79"
      },
      "geometry": {
         "type": "Point",
         "coordinates": [-38.324844,-9.577932]
      }
    },
    {
      "type": "Feature",
      "properties": { 
      "IBGE:COD_UNICO_ENDERECO": "112589742",
      "addr:housenumber": "26",
      "addr:postcode": "48601-248",
      "addr:street": "Estrada do São José para Paulo Afonso",
      "addr:suburb": "Bogo de Cima",
      "building": "yes",
      "fixme": "Verificar coordenadas",
      "note": "Sem setor ou quadra no bayface do IBGE 0500-0217P-0-79"
      },
      "geometry": {
         "type": "Point",
         "coordinates": [-38.324038,-9.571542]
      }
    },
    {
      "type": "Feature",
      "properties": { 
      "IBGE:COD_UNICO_ENDERECO": "112589780",
      "addr:housenumber": "87",
      "addr:postcode": "48601-248",
      "addr:street": "Estrada do São José para Paulo Afonso",
      "addr:suburb": "Bogo de Cima",
      "addr:unit": "Fundos",
      "building": "yes",
      "fixme": "Verificar coordenadas",
      "note": "Sem setor ou quadra no bayface do IBGE 0500-0217P-0-79"
      },
      "geometry": {
         "type": "Point",
         "coordinates": [-38.325032,-9.588831]
      }
    },
    {
      "type": "Feature",
      "properties": { 
      "IBGE:COD_UNICO_ENDERECO": "112589642",
      "addr:housenumber": "45",
      "addr:postcode": "48601-248",
      "addr:street": "Estrada do São José para Paulo Afonso",
      "addr:suburb": "Bogo de Cima",
      "building": "yes",
      "fixme": "Verificar coordenadas",
      "note": "Sem setor ou quadra no bayface do IBGE 0500-0217P-0-79"
      },
      "geometry": {
         "type": "Point",
         "coordinates": [-38.325394,-9.583357]
      }
    },
    {
      "type": "Feature",
      "properties": { 
      "IBGE:COD_UNICO_ENDERECO": "112590310",
      "addr:housenumber": "460",
      "addr:postcode": "48601-016",
      "addr:suburb": "Bogo de Cima",
      "building": "yes",
      "fixme": "Verificar coordenadas",
      "note": "Sem setor ou quadra no bayface do IBGE 0500-0217P-0-82"
      },
      "geometry": {
         "type": "Point",
         "coordinates": [-38.321376,-9.5675]
      }
    },
    {
      "type": "Feature",
      "properties": { 
      "IBGE:COD_UNICO_ENDERECO": "112589179",
      "addr:housenumber": "35",
      "addr:postcode": "48601-248",
      "addr:street": "Corredor Santo Antônio",
      "addr:suburb": "Bogo de Cima",
      "building": "yes",
      "fixme": "Verificar coordenadas",
      "note": "Sem setor ou quadra no bayface do IBGE 0500-0217P-0-89"
      },
      "geometry": {
         "type": "Point",
         "coordinates": [-38.321849,-9.588301]
      }
    },
    {
      "type": "Feature",
      "properties": { 
      "IBGE:COD_UNICO_ENDERECO": "27415592",
      "addr:housenumber": "20",
      "addr:postcode": "48601-248",
      "addr:street": "Povoado Bogo de Cima",
      "addr:suburb": "Bogo de Cima",
      "building": "yes",
      "fixme": "Verificar coordenadas",
      "note": "Sem setor ou quadra no bayface do IBGE 0500-0217P-0-75"
      },
      "geometry": {
         "type": "Point",
         "coordinates": [-38.283946,-9.64958]
      }
    },
    {
      "type": "Feature",
      "properties": { 
      "IBGE:COD_UNICO_ENDERECO": "27415585",
      "addr:housenumber": "6",
      "addr:postcode": "48619-899",
      "addr:street": "Povoado Bogo de Cima",
      "addr:suburb": "Bogo de Cima",
      "building": "yes",
      "fixme": "Verificar coordenadas",
      "note": "Sem setor ou quadra no bayface do IBGE 0500-0217P-0-94"
      },
      "geometry": {
         "type": "Point",
         "coordinates": [-38.282012,-9.644273]
      }
    },
    {
      "type": "Feature",
      "properties": { 
      "IBGE:COD_UNICO_ENDERECO": "112590363",
      "addr:housenumber": "76",
      "addr:postcode": "48601-248",
      "addr:street": "Estrada da Barrinha para O São Domingos",
      "addr:suburb": "Bogo de Cima",
      "addr:unit": "Fundos",
      "building": "yes",
      "fixme": "Verificar coordenadas",
      "note": "Sem setor ou quadra no bayface do IBGE 0500-0217P-0-90"
      },
      "geometry": {
         "type": "Point",
         "coordinates": [-38.321517,-9.58787]
      }
    },
    {
      "type": "Feature",
      "properties": { 
      "IBGE:COD_UNICO_ENDERECO": "112589667",
      "addr:housenumber": "75",
      "addr:postcode": "48601-248",
      "addr:street": "Estrada do São José para Paulo Afonso",
      "addr:suburb": "Bogo de Cima",
      "building": "yes",
      "fixme": "Verificar coordenadas",
      "note": "Sem setor ou quadra no bayface do IBGE 0500-0217P-0-79"
      },
      "geometry": {
         "type": "Point",
         "coordinates": [-38.324844,-9.578581]
      }
    },
    {
      "type": "Feature",
      "properties": { 
      "IBGE:COD_UNICO_ENDERECO": "112589766",
      "addr:housenumber": "20",
      "addr:postcode": "48601-248",
      "addr:street": "Estrada do São José para Paulo Afonso",
      "addr:suburb": "Bogo de Cima",
      "building": "yes",
      "fixme": "Verificar coordenadas",
      "note": "Sem setor ou quadra no bayface do IBGE 0500-0217P-0-79"
      },
      "geometry": {
         "type": "Point",
         "coordinates": [-38.323748,-9.560339]
      }
    },
    {
      "type": "Feature",
      "properties": { 
      "IBGE:COD_UNICO_ENDERECO": "112589658",
      "addr:housenumber": "40",
      "addr:postcode": "48601-248",
      "addr:street": "Estrada do São José para Paulo Afonso",
      "addr:suburb": "Bogo de Cima",
      "building": "yes",
      "fixme": "Verificar coordenadas",
      "note": "Sem setor ou quadra no bayface do IBGE 0500-0217P-0-79"
      },
      "geometry": {
         "type": "Point",
         "coordinates": [-38.324886,-9.576406]
      }
    }
  ]
}
