{
  "type": "FeatureCollection",
  "source": "IBGE CNEFE + Faces de Logradouros - 2022",
  "generator": "CSV-CNEFE2GeoJSON.lua 1.5.7 - fidelis.assis@gmail.com",
  "date": "2025-02-02T09:05:07-0300",
  "features": [
    {
      "type": "Feature",
      "properties": { 
      "IBGE:COD_UNICO_ENDERECO": "191541509",
      "addr:housenumber": "189",
      "addr:postcode": "48610-488",
      "addr:street": "Estrada do Riacho Grande",
      "addr:suburb": "Baixa do Boi",
      "building": "yes",
      "fixme": "Verificar coordenadas",
      "note": "Sem setor ou quadra no bayface do IBGE 0500-0103P-0-129"
      },
      "geometry": {
         "type": "Point",
         "coordinates": [-38.215788,-9.512314]
      }
    },
    {
      "type": "Feature",
      "properties": { 
      "IBGE:COD_UNICO_ENDERECO": "191541759",
      "addr:housenumber": "41",
      "addr:postcode": "48610-488",
      "addr:street": "Estrada Linha de Transmisao",
      "addr:suburb": "Baixa do Boi",
      "building": "construction",
      "fixme": "Verificar coordenadas",
      "note": "Sem setor ou quadra no bayface do IBGE 0500-0103P-0-145"
      },
      "geometry": {
         "type": "Point",
         "coordinates": [-38.206716,-9.506568]
      }
    },
    {
      "type": "Feature",
      "properties": { 
      "IBGE:COD_UNICO_ENDERECO": "27410950",
      "addr:housenumber": "1",
      "addr:postcode": "48601-018",
      "addr:street": "Avenida Mestra Baixa do Boi",
      "addr:suburb": "Baixa do Boi",
      "addr:unit": "Casa",
      "building": "yes",
      "fixme": "Verificar coordenadas",
      "name": "Associação",
      "note": "Sem setor ou quadra no bayface do IBGE 0500-0103P-0-111",
      "office": "association"
      },
      "geometry": {
         "type": "Point",
         "coordinates": [-38.204741,-9.520967]
      }
    },
    {
      "type": "Feature",
      "properties": { 
      "IBGE:COD_UNICO_ENDERECO": "191541282",
      "addr:housenumber": "148",
      "addr:postcode": "48610-480",
      "addr:street": "Estrada do Riacho Grande",
      "addr:suburb": "Baixa do Boi",
      "building": "yes",
      "fixme": "Verificar coordenadas",
      "note": "Sem setor ou quadra no bayface do IBGE 0500-0103P-0-120"
      },
      "geometry": {
         "type": "Point",
         "coordinates": [-38.213868,-9.511712]
      }
    },
    {
      "type": "Feature",
      "properties": { 
      "IBGE:COD_UNICO_ENDERECO": "191541323",
      "addr:housenumber": "118",
      "addr:postcode": "48610-480",
      "addr:street": "Rodovia BR-110",
      "addr:suburb": "Baixa do Boi",
      "building": "yes",
      "fixme": "Verificar coordenadas",
      "note": "Sem setor ou quadra no bayface do IBGE 0500-0103P-0-125"
      },
      "geometry": {
         "type": "Point",
         "coordinates": [-38.21797,-9.514457]
      }
    },
    {
      "type": "Feature",
      "properties": { 
      "IBGE:COD_UNICO_ENDERECO": "27410964",
      "addr:housenumber": "1",
      "addr:postcode": "48601-018",
      "addr:street": "Avenida Mestra Baixa do Boi",
      "addr:suburb": "Baixa do Boi",
      "building": "yes",
      "fixme": "Verificar coordenadas",
      "note": "Sem setor ou quadra no bayface do IBGE 0500-0103P-0-111"
      },
      "geometry": {
         "type": "Point",
         "coordinates": [-38.209405,-9.531946]
      }
    },
    {
      "type": "Feature",
      "properties": { 
      "IBGE:COD_UNICO_ENDERECO": "27410943",
      "addr:housenumber": "21",
      "addr:postcode": "48601-018",
      "addr:street": "Avenida Mestra Baixa do Boi",
      "addr:suburb": "Baixa do Boi",
      "building": "yes",
      "fixme": "Verificar coordenadas",
      "note": "Sem setor ou quadra no bayface do IBGE 0500-0103P-0-111"
      },
      "geometry": {
         "type": "Point",
         "coordinates": [-38.214488,-9.520237]
      }
    },
    {
      "type": "Feature",
      "properties": { 
      "IBGE:COD_UNICO_ENDERECO": "191541329",
      "addr:housenumber": "126",
      "addr:postcode": "48610-480",
      "addr:street": "Rodovia BR-110",
      "addr:suburb": "Baixa do Boi",
      "building": "yes",
      "fixme": "Verificar coordenadas",
      "note": "Sem setor ou quadra no bayface do IBGE 0500-0103P-0-125"
      },
      "geometry": {
         "type": "Point",
         "coordinates": [-38.217415,-9.513949]
      }
    },
    {
      "type": "Feature",
      "properties": { 
      "IBGE:COD_UNICO_ENDERECO": "191541334",
      "addr:housenumber": "131",
      "addr:postcode": "48610-480",
      "addr:street": "Rodovia BR-110",
      "addr:suburb": "Baixa do Boi",
      "building": "construction",
      "fixme": "Verificar coordenadas",
      "note": "Sem setor ou quadra no bayface do IBGE 0500-0103P-0-125"
      },
      "geometry": {
         "type": "Point",
         "coordinates": [-38.216376,-9.513278]
      }
    },
    {
      "type": "Feature",
      "properties": { 
      "IBGE:COD_UNICO_ENDERECO": "191541355",
      "addr:housenumber": "120",
      "addr:postcode": "48610-488",
      "addr:street": "Rodovia BR-110",
      "addr:suburb": "Baixa do Boi",
      "building": "yes",
      "fixme": "Verificar coordenadas",
      "note": "Sem setor ou quadra no bayface do IBGE 0500-0103P-0-126"
      },
      "geometry": {
         "type": "Point",
         "coordinates": [-38.21795,-9.514109]
      }
    },
    {
      "type": "Feature",
      "properties": { 
      "IBGE:COD_UNICO_ENDERECO": "109752380",
      "addr:housenumber": "9 Km",
      "addr:postcode": "48619-899",
      "addr:street": "Rodovia BR-110",
      "addr:suburb": "Baixa do Boi",
      "building": "yes",
      "fixme": "Verificar coordenadas",
      "note": "Sem setor ou quadra no bayface do IBGE 0500-0115P-0-48"
      },
      "geometry": {
         "type": "Point",
         "coordinates": [-38.21738,-9.503441]
      }
    },
    {
      "type": "Feature",
      "properties": { 
      "IBGE:COD_UNICO_ENDERECO": "191541454",
      "addr:housenumber": "145",
      "addr:postcode": "48610-488",
      "addr:street": "Estrada do Riacho Grande",
      "addr:suburb": "Baixa do Boi",
      "building": "yes",
      "fixme": "Verificar coordenadas",
      "note": "Sem setor ou quadra no bayface do IBGE 0500-0103P-0-129"
      },
      "geometry": {
         "type": "Point",
         "coordinates": [-38.213516,-9.513278]
      }
    },
    {
      "type": "Feature",
      "properties": { 
      "IBGE:COD_UNICO_ENDERECO": "191541287",
      "addr:housenumber": "149",
      "addr:postcode": "48610-480",
      "addr:street": "Estrada do Riacho Grande",
      "addr:suburb": "Baixa do Boi",
      "building": "yes",
      "fixme": "Verificar coordenadas",
      "note": "Sem setor ou quadra no bayface do IBGE 0500-0103P-0-120"
      },
      "geometry": {
         "type": "Point",
         "coordinates": [-38.213972,-9.512063]
      }
    },
    {
      "type": "Feature",
      "properties": { 
      "IBGE:COD_UNICO_ENDERECO": "191541551",
      "addr:housenumber": "158",
      "addr:postcode": "48604-514",
      "addr:street": "Estrada do Riacho Grande",
      "addr:suburb": "Baixa do Boi",
      "building": "yes",
      "fixme": "Verificar coordenadas",
      "note": "Sem setor ou quadra no bayface do IBGE 0500-0103P-0-131"
      },
      "geometry": {
         "type": "Point",
         "coordinates": [-38.214705,-9.512879]
      }
    },
    {
      "type": "Feature",
      "properties": { 
      "IBGE:COD_UNICO_ENDERECO": "191541443;191541449",
      "addr:housenumber": "141",
      "addr:postcode": "48610-488",
      "addr:street": "Estrada do Riacho Grande",
      "addr:suburb": "Baixa do Boi",
      "building": "yes",
      "fixme": "Verificar coordenadas",
      "note": "Sem setor ou quadra no bayface do IBGE 0500-0103P-0-129"
      },
      "geometry": {
         "type": "Point",
         "coordinates": [-38.214323,-9.512904]
      }
    },
    {
      "type": "Feature",
      "properties": { 
      "IBGE:COD_UNICO_ENDERECO": "191541425",
      "addr:housenumber": "137",
      "addr:postcode": "48610-488",
      "addr:street": "Estrada do Riacho Grande",
      "addr:suburb": "Baixa do Boi",
      "building": "yes",
      "fixme": "Verificar coordenadas",
      "note": "Sem setor ou quadra no bayface do IBGE 0500-0103P-0-129"
      },
      "geometry": {
         "type": "Point",
         "coordinates": [-38.215446,-9.512965]
      }
    },
    {
      "type": "Feature",
      "properties": { 
      "IBGE:COD_UNICO_ENDERECO": "191541439",
      "addr:housenumber": "140",
      "addr:postcode": "48610-488",
      "addr:street": "Estrada do Riacho Grande",
      "addr:suburb": "Baixa do Boi",
      "building": "yes",
      "fixme": "Verificar coordenadas",
      "note": "Sem setor ou quadra no bayface do IBGE 0500-0103P-0-129"
      },
      "geometry": {
         "type": "Point",
         "coordinates": [-38.214771,-9.51307]
      }
    },
    {
      "type": "Feature",
      "properties": { 
      "IBGE:COD_UNICO_ENDERECO": "27410942",
      "addr:housenumber": "20",
      "addr:postcode": "48601-018",
      "addr:street": "Avenida Mestra Baixa do Boi",
      "addr:suburb": "Baixa do Boi",
      "addr:unit": "Casa",
      "building": "yes",
      "fixme": "Verificar coordenadas",
      "note": "Sem setor ou quadra no bayface do IBGE 0500-0103P-0-111"
      },
      "geometry": {
         "type": "Point",
         "coordinates": [-38.215883,-9.519965]
      }
    },
    {
      "type": "Feature",
      "properties": { 
      "IBGE:COD_UNICO_ENDERECO": "191541247",
      "addr:housenumber": "111",
      "addr:postcode": "48610-480",
      "addr:street": "Estrada do Riacho Grande",
      "addr:suburb": "Baixa do Boi",
      "building": "yes",
      "fixme": "Verificar coordenadas",
      "note": "Sem setor ou quadra no bayface do IBGE 0500-0103P-0-120"
      },
      "geometry": {
         "type": "Point",
         "coordinates": [-38.207643,-9.514525]
      }
    },
    {
      "type": "Feature",
      "properties": { 
      "IBGE:COD_UNICO_ENDERECO": "191541383",
      "addr:housenumber": "132",
      "addr:postcode": "48610-488",
      "addr:street": "Rodovia BR-110",
      "addr:suburb": "Baixa do Boi",
      "building": "yes",
      "fixme": "Verificar coordenadas",
      "note": "Sem setor ou quadra no bayface do IBGE 0500-0103P-0-126"
      },
      "geometry": {
         "type": "Point",
         "coordinates": [-38.216279,-9.513296]
      }
    },
    {
      "type": "Feature",
      "properties": { 
      "IBGE:COD_UNICO_ENDERECO": "191541235",
      "addr:housenumber": "29",
      "addr:postcode": "48610-480",
      "addr:street": "Avenida Mestra Baixa do Boi",
      "addr:suburb": "Baixa do Boi",
      "building": "yes",
      "fixme": "Verificar coordenadas",
      "note": "Sem setor ou quadra no bayface do IBGE 0500-0103P-0-118"
      },
      "geometry": {
         "type": "Point",
         "coordinates": [-38.211741,-9.524523]
      }
    },
    {
      "type": "Feature",
      "properties": { 
      "IBGE:COD_UNICO_ENDERECO": "191541362",
      "addr:housenumber": "121",
      "addr:postcode": "48610-488",
      "addr:street": "Rodovia BR-110",
      "addr:suburb": "Baixa do Boi",
      "building": "construction",
      "fixme": "Verificar coordenadas",
      "note": "Sem setor ou quadra no bayface do IBGE 0500-0103P-0-126"
      },
      "geometry": {
         "type": "Point",
         "coordinates": [-38.217974,-9.51385]
      }
    },
    {
      "type": "Feature",
      "properties": { 
      "IBGE:COD_UNICO_ENDERECO": "191541252",
      "addr:housenumber": "112",
      "addr:postcode": "48610-480",
      "addr:street": "Estrada do Riacho Grande",
      "addr:suburb": "Baixa do Boi",
      "building": "yes",
      "fixme": "Verificar coordenadas",
      "note": "Sem setor ou quadra no bayface do IBGE 0500-0103P-0-120"
      },
      "geometry": {
         "type": "Point",
         "coordinates": [-38.207456,-9.517145]
      }
    },
    {
      "type": "Feature",
      "properties": { 
      "IBGE:COD_UNICO_ENDERECO": "27410957;27410959;27410967",
      "addr:housenumber": "11",
      "addr:postcode": "48601-018",
      "addr:street": "Avenida Mestra Baixa do Boi",
      "addr:suburb": "Baixa do Boi",
      "addr:unit": "Casa",
      "building": "yes",
      "fixme": "Verificar coordenadas",
      "note": "Sem setor ou quadra no bayface do IBGE 0500-0103P-0-111"
      },
      "geometry": {
         "type": "Point",
         "coordinates": [-38.2091117,-9.529333]
      }
    },
    {
      "type": "Feature",
      "properties": { 
      "IBGE:COD_UNICO_ENDERECO": "191541569",
      "addr:housenumber": "184",
      "addr:postcode": "48604-514",
      "addr:street": "Estrada do Riacho Grande",
      "addr:suburb": "Baixa do Boi",
      "building": "yes",
      "fixme": "Verificar coordenadas",
      "note": "Sem setor ou quadra no bayface do IBGE 0500-0103P-0-131"
      },
      "geometry": {
         "type": "Point",
         "coordinates": [-38.215211,-9.51261]
      }
    },
    {
      "type": "Feature",
      "properties": { 
      "IBGE:COD_UNICO_ENDERECO": "191541252",
      "addr:housenumber": "112",
      "addr:postcode": "48610-480",
      "addr:street": "Estrada do Riacho Grande",
      "addr:suburb": "Baixa do Boi",
      "amenity": "pub",
      "building": "yes",
      "fixme": "Verificar coordenadas",
      "name": "Barzinho",
      "note": "Sem setor ou quadra no bayface do IBGE 0500-0103P-0-120"
      },
      "geometry": {
         "type": "Point",
         "coordinates": [-38.207455955817,-9.5171451616562]
      }
    },
    {
      "type": "Feature",
      "properties": { 
      "IBGE:COD_UNICO_ENDERECO": "27410953",
      "addr:housenumber": "5",
      "addr:postcode": "48601-018",
      "addr:street": "Avenida Mestra Baixa do Boi",
      "addr:suburb": "Baixa do Boi",
      "building": "yes",
      "fixme": "Verificar coordenadas",
      "note": "Sem setor ou quadra no bayface do IBGE 0500-0103P-0-111"
      },
      "geometry": {
         "type": "Point",
         "coordinates": [-38.206714,-9.533858]
      }
    },
    {
      "type": "Feature",
      "properties": { 
      "IBGE:COD_UNICO_ENDERECO": "27410955",
      "addr:housenumber": "6",
      "addr:postcode": "48601-018",
      "addr:street": "Avenida Mestra Baixa do Boi",
      "addr:suburb": "Baixa do Boi",
      "addr:unit": "Casa",
      "building": "yes",
      "fixme": "Verificar coordenadas",
      "note": "Sem setor ou quadra no bayface do IBGE 0500-0103P-0-111"
      },
      "geometry": {
         "type": "Point",
         "coordinates": [-38.208599,-9.527128]
      }
    },
    {
      "type": "Feature",
      "properties": { 
      "IBGE:COD_UNICO_ENDERECO": "191541517",
      "addr:housenumber": "2",
      "addr:postcode": "48610-488",
      "addr:street": "Estrada do Riacho Grande",
      "addr:suburb": "Baixa do Boi",
      "building": "yes",
      "fixme": "Verificar coordenadas",
      "note": "Sem setor ou quadra no bayface do IBGE 0500-0103P-0-129"
      },
      "geometry": {
         "type": "Point",
         "coordinates": [-38.216065,-9.512248]
      }
    },
    {
      "type": "Feature",
      "properties": { 
      "IBGE:COD_UNICO_ENDERECO": "191541412",
      "addr:housenumber": "129",
      "addr:postcode": "48610-488",
      "addr:street": "Estrada do Riacho Grande",
      "addr:suburb": "Baixa do Boi",
      "building": "yes",
      "fixme": "Verificar coordenadas",
      "note": "Sem setor ou quadra no bayface do IBGE 0500-0103P-0-129"
      },
      "geometry": {
         "type": "Point",
         "coordinates": [-38.216951,-9.513262]
      }
    },
    {
      "type": "Feature",
      "properties": { 
      "IBGE:COD_UNICO_ENDERECO": "27410935",
      "addr:housenumber": "4",
      "addr:postcode": "48601-018",
      "addr:street": "Avenida Mestra Baixa do Boi",
      "addr:suburb": "Baixa do Boi",
      "addr:unit": "Casa",
      "building": "yes",
      "fixme": "Verificar coordenadas",
      "note": "Sem setor ou quadra no bayface do IBGE 0500-0103P-0-111"
      },
      "geometry": {
         "type": "Point",
         "coordinates": [-38.218118,-9.527762]
      }
    },
    {
      "type": "Feature",
      "properties": { 
      "IBGE:COD_UNICO_ENDERECO": "191541476",
      "addr:housenumber": "150",
      "addr:postcode": "48610-488",
      "addr:street": "Estrada do Riacho Grande",
      "addr:suburb": "Baixa do Boi",
      "building": "yes",
      "fixme": "Verificar coordenadas",
      "note": "Sem setor ou quadra no bayface do IBGE 0500-0103P-0-129"
      },
      "geometry": {
         "type": "Point",
         "coordinates": [-38.214353,-9.511773]
      }
    },
    {
      "type": "Feature",
      "properties": { 
      "IBGE:COD_UNICO_ENDERECO": "191541435",
      "addr:housenumber": "139",
      "addr:postcode": "48610-488",
      "addr:street": "Estrada do Riacho Grande",
      "addr:suburb": "Baixa do Boi",
      "building": "yes",
      "fixme": "Verificar coordenadas",
      "note": "Sem setor ou quadra no bayface do IBGE 0500-0103P-0-129"
      },
      "geometry": {
         "type": "Point",
         "coordinates": [-38.214933,-9.513056]
      }
    },
    {
      "type": "Feature",
      "properties": { 
      "IBGE:COD_UNICO_ENDERECO": "191541572",
      "addr:housenumber": "182",
      "addr:postcode": "48604-514",
      "addr:street": "Estrada do Riacho Grande",
      "addr:suburb": "Baixa do Boi",
      "building": "yes",
      "fixme": "Verificar coordenadas",
      "note": "Sem setor ou quadra no bayface do IBGE 0500-0103P-0-131"
      },
      "geometry": {
         "type": "Point",
         "coordinates": [-38.21592,-9.513131]
      }
    },
    {
      "type": "Feature",
      "properties": { 
      "IBGE:COD_UNICO_ENDERECO": "191541575",
      "addr:housenumber": "191",
      "addr:postcode": "48610-488",
      "addr:street": "Povoado Riacho Grande",
      "addr:suburb": "Baixa do Boi",
      "building": "warehouse",
      "description": "CNEFE 2022 Galpão",
      "fixme": "Verificar coordenadas",
      "note": "Sem setor ou quadra no bayface do IBGE 0500-0103P-0-132"
      },
      "geometry": {
         "type": "Point",
         "coordinates": [-38.217152,-9.513162]
      }
    },
    {
      "type": "Feature",
      "properties": { 
      "IBGE:COD_UNICO_ENDERECO": "191541527",
      "addr:housenumber": "186",
      "addr:postcode": "48610-488",
      "addr:street": "Estrada do Riacho Grande",
      "addr:suburb": "Baixa do Boi",
      "building": "yes",
      "fixme": "Verificar coordenadas",
      "note": "Sem setor ou quadra no bayface do IBGE 0500-0103P-0-129"
      },
      "geometry": {
         "type": "Point",
         "coordinates": [-38.216273,-9.512602]
      }
    },
    {
      "type": "Feature",
      "properties": { 
      "IBGE:COD_UNICO_ENDERECO": "191541564",
      "addr:housenumber": "181",
      "addr:postcode": "48604-514",
      "addr:street": "Estrada do Riacho Grande",
      "addr:suburb": "Baixa do Boi",
      "building": "yes",
      "fixme": "Verificar coordenadas",
      "name": "Vends",
      "note": "Sem setor ou quadra no bayface do IBGE 0500-0103P-0-131"
      },
      "geometry": {
         "type": "Point",
         "coordinates": [-38.214895,-9.512904]
      }
    },
    {
      "type": "Feature",
      "properties": { 
      "IBGE:COD_UNICO_ENDERECO": "191541764",
      "addr:housenumber": "42",
      "addr:postcode": "48610-488",
      "addr:street": "Estrada da Linha de Transmissão 69 Kv",
      "addr:suburb": "Baixa do Boi",
      "building": "yes",
      "fixme": "Verificar coordenadas",
      "note": "Sem setor ou quadra no bayface do IBGE 0500-0103P-0-146"
      },
      "geometry": {
         "type": "Point",
         "coordinates": [-38.207449,-9.506732]
      }
    },
    {
      "type": "Feature",
      "properties": { 
      "IBGE:COD_UNICO_ENDERECO": "191541390",
      "addr:housenumber": "197",
      "addr:postcode": "48610-488",
      "addr:street": "Rodovia BR-110",
      "addr:suburb": "Baixa do Boi",
      "building": "yes",
      "fixme": "Verificar coordenadas",
      "note": "Sem setor ou quadra no bayface do IBGE 0500-0103P-0-126"
      },
      "geometry": {
         "type": "Point",
         "coordinates": [-38.217586,-9.512743]
      }
    },
    {
      "type": "Feature",
      "properties": { 
      "IBGE:COD_UNICO_ENDERECO": "191541378",
      "addr:housenumber": "127",
      "addr:postcode": "48610-488",
      "addr:street": "Rodovia BR-110",
      "addr:suburb": "Baixa do Boi",
      "building": "yes",
      "fixme": "Verificar coordenadas",
      "note": "Sem setor ou quadra no bayface do IBGE 0500-0103P-0-126"
      },
      "geometry": {
         "type": "Point",
         "coordinates": [-38.217334,-9.513283]
      }
    },
    {
      "type": "Feature",
      "properties": { 
      "IBGE:COD_UNICO_ENDERECO": "191541343",
      "addr:housenumber": "77",
      "addr:postcode": "48610-480",
      "addr:street": "Rodovia BR-110",
      "addr:suburb": "Baixa do Boi",
      "building": "yes",
      "fixme": "Verificar coordenadas",
      "note": "Sem setor ou quadra no bayface do IBGE 0500-0103P-0-125"
      },
      "geometry": {
         "type": "Point",
         "coordinates": [-38.216075,-9.513045]
      }
    },
    {
      "type": "Feature",
      "properties": { 
      "IBGE:COD_UNICO_ENDERECO": "191541240",
      "addr:housenumber": "30",
      "addr:postcode": "48610-480",
      "addr:street": "Avenida Mestra Baixa do Boi",
      "addr:suburb": "Baixa do Boi",
      "building": "yes",
      "fixme": "Verificar coordenadas",
      "note": "Sem setor ou quadra no bayface do IBGE 0500-0103P-0-118"
      },
      "geometry": {
         "type": "Point",
         "coordinates": [-38.214434,-9.524055]
      }
    },
    {
      "type": "Feature",
      "properties": { 
      "IBGE:COD_UNICO_ENDERECO": "191541559",
      "addr:housenumber": "1773",
      "addr:postcode": "48604-514",
      "addr:street": "Estrada do Riacho Grande",
      "addr:suburb": "Baixa do Boi",
      "building": "yes",
      "fixme": "Verificar coordenadas",
      "name": "Mercearia Alfa Ômega",
      "note": "Sem setor ou quadra no bayface do IBGE 0500-0103P-0-131",
      "shop": "convenience"
      },
      "geometry": {
         "type": "Point",
         "coordinates": [-38.214748,-9.512896]
      }
    },
    {
      "type": "Feature",
      "properties": { 
      "IBGE:COD_UNICO_ENDERECO": "191541459",
      "addr:housenumber": "146",
      "addr:postcode": "48610-488",
      "addr:street": "Estrada do Riacho Grande",
      "addr:suburb": "Baixa do Boi",
      "building": "yes",
      "fixme": "Verificar coordenadas",
      "note": "Sem setor ou quadra no bayface do IBGE 0500-0103P-0-129"
      },
      "geometry": {
         "type": "Point",
         "coordinates": [-38.2136,-9.511872]
      }
    },
    {
      "type": "Feature",
      "properties": { 
      "IBGE:COD_UNICO_ENDERECO": "191541339",
      "addr:housenumber": "133",
      "addr:postcode": "48610-480",
      "addr:street": "Rodovia BR-110",
      "addr:suburb": "Baixa do Boi",
      "building": "yes",
      "fixme": "Verificar coordenadas",
      "note": "Sem setor ou quadra no bayface do IBGE 0500-0103P-0-125"
      },
      "geometry": {
         "type": "Point",
         "coordinates": [-38.216381,-9.514101]
      }
    },
    {
      "type": "Feature",
      "properties": { 
      "IBGE:COD_UNICO_ENDERECO": "191541531",
      "addr:housenumber": "188",
      "addr:postcode": "48610-488",
      "addr:street": "Estrada do Riacho Grande",
      "addr:suburb": "Baixa do Boi",
      "building": "yes",
      "fixme": "Verificar coordenadas",
      "note": "Sem setor ou quadra no bayface do IBGE 0500-0103P-0-129"
      },
      "geometry": {
         "type": "Point",
         "coordinates": [-38.216422,-9.513111]
      }
    },
    {
      "type": "Feature",
      "properties": { 
      "IBGE:COD_UNICO_ENDERECO": "191541349",
      "addr:housenumber": "119",
      "addr:postcode": "48610-488",
      "addr:street": "Rodovia BR-110",
      "addr:suburb": "Baixa do Boi",
      "building": "yes",
      "fixme": "Verificar coordenadas",
      "note": "Sem setor ou quadra no bayface do IBGE 0500-0103P-0-126"
      },
      "geometry": {
         "type": "Point",
         "coordinates": [-38.217959,-9.514393]
      }
    },
    {
      "type": "Feature",
      "properties": { 
      "IBGE:COD_UNICO_ENDERECO": "191541317",
      "addr:housenumber": "8",
      "addr:postcode": "48610-480",
      "addr:street": "Estrada BR-110",
      "addr:suburb": "Baixa do Boi",
      "building": "yes",
      "fixme": "Verificar coordenadas",
      "note": "Sem setor ou quadra no bayface do IBGE 0500-0103P-0-124"
      },
      "geometry": {
         "type": "Point",
         "coordinates": [-38.215305,-9.51647]
      }
    },
    {
      "type": "Feature",
      "properties": { 
      "IBGE:COD_UNICO_ENDERECO": "191541534",
      "addr:housenumber": "190",
      "addr:postcode": "48610-488",
      "addr:street": "Estrada do Riacho Grande",
      "addr:suburb": "Baixa do Boi",
      "fixme": "Verificar coordenadas",
      "landuse": "farmyard;orchard",
      "name": "Chácara Presente de Deus",
      "note": "Sem setor ou quadra no bayface do IBGE 0500-0103P-0-129"
      },
      "geometry": {
         "type": "Point",
         "coordinates": [-38.216924,-9.513157]
      }
    },
    {
      "type": "Feature",
      "properties": { 
      "IBGE:COD_UNICO_ENDERECO": "191541368;191541374",
      "addr:housenumber": "122",
      "addr:postcode": "48610-488",
      "addr:street": "Rodovia BR-110",
      "addr:suburb": "Baixa do Boi",
      "building": "yes",
      "fixme": "Verificar coordenadas",
      "note": "Sem setor ou quadra no bayface do IBGE 0500-0103P-0-126"
      },
      "geometry": {
         "type": "Point",
         "coordinates": [-38.2176705,-9.5138905]
      }
    },
    {
      "type": "Feature",
      "properties": { 
      "IBGE:COD_UNICO_ENDERECO": "191541390",
      "addr:housenumber": "197",
      "addr:postcode": "48610-488",
      "addr:street": "Rodovia BR-110",
      "addr:suburb": "Baixa do Boi",
      "amenity": "pub",
      "building": "yes",
      "fixme": "Verificar coordenadas",
      "name": "Bar e Mercearia Padre Cícero",
      "note": "Sem setor ou quadra no bayface do IBGE 0500-0103P-0-126",
      "shop": "convenience"
      },
      "geometry": {
         "type": "Point",
         "coordinates": [-38.21757829707,-9.5127445613881]
      }
    },
    {
      "type": "Feature",
      "properties": { 
      "IBGE:COD_UNICO_ENDERECO": "191541523",
      "addr:housenumber": "187",
      "addr:postcode": "48610-488",
      "addr:street": "Estrada do Riacho Grande",
      "addr:suburb": "Baixa do Boi",
      "building": "yes",
      "fixme": "Verificar coordenadas",
      "note": "Sem setor ou quadra no bayface do IBGE 0500-0103P-0-129"
      },
      "geometry": {
         "type": "Point",
         "coordinates": [-38.216035,-9.512394]
      }
    },
    {
      "type": "Feature",
      "properties": { 
      "IBGE:COD_UNICO_ENDERECO": "191541230",
      "addr:housenumber": "28",
      "addr:postcode": "48610-480",
      "addr:street": "Avenida Mestra Baixa do Boi",
      "addr:suburb": "Baixa do Boi",
      "building": "yes",
      "fixme": "Verificar coordenadas",
      "note": "Sem setor ou quadra no bayface do IBGE 0500-0103P-0-118"
      },
      "geometry": {
         "type": "Point",
         "coordinates": [-38.211301,-9.524323]
      }
    },
    {
      "type": "Feature",
      "properties": { 
      "IBGE:COD_UNICO_ENDERECO": "191541543",
      "addr:housenumber": "5",
      "addr:postcode": "48605-480",
      "addr:street": "Rodovia BR-110",
      "addr:suburb": "Baixa do Boi",
      "building": "yes",
      "fixme": "Verificar coordenadas",
      "note": "Sem setor ou quadra no bayface do IBGE 0500-0103P-0-130"
      },
      "geometry": {
         "type": "Point",
         "coordinates": [-38.215917,-9.513047]
      }
    },
    {
      "type": "Feature",
      "properties": { 
      "IBGE:COD_UNICO_ENDERECO": "191541265",
      "addr:housenumber": "14",
      "addr:postcode": "48610-480",
      "addr:street": "Estrada do Riacho Grande",
      "addr:suburb": "Baixa do Boi",
      "building": "yes",
      "fixme": "Verificar coordenadas",
      "note": "Sem setor ou quadra no bayface do IBGE 0500-0103P-0-120"
      },
      "geometry": {
         "type": "Point",
         "coordinates": [-38.210308,-9.514106]
      }
    },
    {
      "type": "Feature",
      "properties": { 
      "IBGE:COD_UNICO_ENDERECO": "109752380",
      "addr:housenumber": "9 Km",
      "addr:postcode": "48619-899",
      "addr:street": "Rodovia BR-110",
      "addr:suburb": "Baixa do Boi",
      "building": "yes",
      "fixme": "Verificar coordenadas",
      "name": "Fazenda Gm",
      "note": "Sem setor ou quadra no bayface do IBGE 0500-0115P-0-48",
      "place": "farm"
      },
      "geometry": {
         "type": "Point",
         "coordinates": [-38.217381746544,-9.5034459000032]
      }
    },
    {
      "type": "Feature",
      "properties": { 
      "IBGE:COD_UNICO_ENDERECO": "27410936",
      "addr:housenumber": "29",
      "addr:postcode": "48601-018",
      "addr:street": "Avenida Mestra Baixa do Boi",
      "addr:suburb": "Baixa do Boi",
      "addr:unit": "Fundos Casa",
      "building": "yes",
      "fixme": "Verificar coordenadas",
      "note": "Sem setor ou quadra no bayface do IBGE 0500-0103P-0-111"
      },
      "geometry": {
         "type": "Point",
         "coordinates": [-38.218949,-9.527006]
      }
    },
    {
      "type": "Feature",
      "properties": { 
      "IBGE:COD_UNICO_ENDERECO": "191541257",
      "addr:housenumber": "15",
      "addr:postcode": "48610-480",
      "addr:street": "Estrada do Riacho Grande",
      "addr:suburb": "Baixa do Boi",
      "building": "yes",
      "fixme": "Verificar coordenadas",
      "note": "Sem setor ou quadra no bayface do IBGE 0500-0103P-0-120"
      },
      "geometry": {
         "type": "Point",
         "coordinates": [-38.210489,-9.513755]
      }
    },
    {
      "type": "Feature",
      "properties": { 
      "IBGE:COD_UNICO_ENDERECO": "192024809",
      "addr:housenumber": "13",
      "addr:postcode": "48619-899",
      "addr:street": "Rodovia BR-110",
      "addr:suburb": "Baixa do Boi",
      "building": "yes",
      "fixme": "Verificar coordenadas",
      "note": "Sem setor ou quadra no bayface do IBGE 0500-0115P-0-48"
      },
      "geometry": {
         "type": "Point",
         "coordinates": [-38.218734,-9.517682]
      }
    },
    {
      "type": "Feature",
      "properties": { 
      "IBGE:COD_UNICO_ENDERECO": "191541275",
      "addr:housenumber": "11",
      "addr:postcode": "48610-480",
      "addr:street": "Estrada do Riacho Grande",
      "addr:suburb": "Baixa do Boi",
      "building": "yes",
      "fixme": "Verificar coordenadas",
      "note": "Sem setor ou quadra no bayface do IBGE 0500-0103P-0-120"
      },
      "geometry": {
         "type": "Point",
         "coordinates": [-38.211557,-9.51355]
      }
    },
    {
      "type": "Feature",
      "properties": { 
      "IBGE:COD_UNICO_ENDERECO": "27410961",
      "addr:housenumber": "11",
      "addr:postcode": "48601-018",
      "addr:street": "Avenida Mestra Baixa do Boi",
      "addr:suburb": "Baixa do Boi",
      "addr:unit": "Fundos Casa",
      "building": "yes",
      "fixme": "Verificar coordenadas",
      "note": "Sem setor ou quadra no bayface do IBGE 0500-0103P-0-111"
      },
      "geometry": {
         "type": "Point",
         "coordinates": [-38.208907,-9.531781]
      }
    },
    {
      "type": "Feature",
      "properties": { 
      "IBGE:COD_UNICO_ENDERECO": "191541487",
      "addr:housenumber": "177",
      "addr:postcode": "48610-488",
      "addr:street": "Estrada do Riacho Grande",
      "addr:suburb": "Baixa do Boi",
      "building": "yes",
      "fixme": "Verificar coordenadas",
      "name": "Borracharia Alfa Ômega",
      "note": "Sem setor ou quadra no bayface do IBGE 0500-0103P-0-129",
      "repair": "yes",
      "shop": "tyres"
      },
      "geometry": {
         "type": "Point",
         "coordinates": [-38.214713,-9.512887]
      }
    },
    {
      "type": "Feature",
      "properties": { 
      "IBGE:COD_UNICO_ENDERECO": "191541514",
      "addr:housenumber": "183",
      "addr:postcode": "48610-488",
      "addr:street": "Estrada do Riacho Grande",
      "addr:suburb": "Baixa do Boi",
      "building": "yes",
      "fixme": "Verificar coordenadas",
      "note": "Sem setor ou quadra no bayface do IBGE 0500-0103P-0-129"
      },
      "geometry": {
         "type": "Point",
         "coordinates": [-38.216125,-9.512176]
      }
    },
    {
      "type": "Feature",
      "properties": { 
      "IBGE:COD_UNICO_ENDERECO": "27410947",
      "addr:housenumber": "7",
      "addr:postcode": "48601-018",
      "addr:street": "Avenida Mestra Baixa do Boi",
      "addr:suburb": "Baixa do Boi",
      "addr:unit": "Casa",
      "building": "yes",
      "fixme": "Verificar coordenadas",
      "note": "Sem setor ou quadra no bayface do IBGE 0500-0103P-0-111"
      },
      "geometry": {
         "type": "Point",
         "coordinates": [-38.208301,-9.52076]
      }
    },
    {
      "type": "Feature",
      "properties": { 
      "IBGE:COD_UNICO_ENDERECO": "191541536",
      "addr:housenumber": "192",
      "addr:postcode": "48610-488",
      "addr:street": "Estrada do Riacho Grande",
      "addr:suburb": "Baixa do Boi",
      "building": "yes",
      "fixme": "Verificar coordenadas",
      "note": "Sem setor ou quadra no bayface do IBGE 0500-0103P-0-129"
      },
      "geometry": {
         "type": "Point",
         "coordinates": [-38.217585,-9.51323]
      }
    },
    {
      "type": "Feature",
      "properties": { 
      "IBGE:COD_UNICO_ENDERECO": "191541296",
      "addr:housenumber": "112",
      "addr:postcode": "48610-488",
      "addr:street": "Estrada Lotes 02",
      "addr:suburb": "Baixa do Boi",
      "building": "yes",
      "fixme": "Verificar coordenadas",
      "note": "Sem setor ou quadra no bayface do IBGE 0500-0103P-0-121"
      },
      "geometry": {
         "type": "Point",
         "coordinates": [-38.208163,-9.519198]
      }
    },
    {
      "type": "Feature",
      "properties": { 
      "IBGE:COD_UNICO_ENDERECO": "191541310",
      "addr:housenumber": "7",
      "addr:postcode": "48610-488",
      "addr:street": "Estrada ao lado da BR-110",
      "addr:suburb": "Baixa do Boi",
      "building": "yes",
      "fixme": "Verificar coordenadas",
      "note": "Sem setor ou quadra no bayface do IBGE 0500-0103P-0-123"
      },
      "geometry": {
         "type": "Point",
         "coordinates": [-38.216135,-9.516313]
      }
    },
    {
      "type": "Feature",
      "properties": { 
      "IBGE:COD_UNICO_ENDERECO": "191541432",
      "addr:housenumber": "138",
      "addr:postcode": "48610-488",
      "addr:street": "Estrada do Riacho Grande",
      "addr:suburb": "Baixa do Boi",
      "building": "yes",
      "fixme": "Verificar coordenadas",
      "note": "Sem setor ou quadra no bayface do IBGE 0500-0103P-0-129"
      },
      "geometry": {
         "type": "Point",
         "coordinates": [-38.215291,-9.512971]
      }
    },
    {
      "type": "Feature",
      "properties": { 
      "IBGE:COD_UNICO_ENDERECO": "191541397",
      "addr:housenumber": "118",
      "addr:postcode": "48604-502",
      "addr:street": "Rodovia BR-110",
      "addr:suburb": "Baixa do Boi",
      "building": "yes",
      "fixme": "Verificar coordenadas",
      "note": "Sem setor ou quadra no bayface do IBGE 0500-0103P-0-127"
      },
      "geometry": {
         "type": "Point",
         "coordinates": [-38.217622,-9.514024]
      }
    },
    {
      "type": "Feature",
      "properties": { 
      "IBGE:COD_UNICO_ENDERECO": "27410956;27410965",
      "addr:housenumber": "5",
      "addr:postcode": "48601-018",
      "addr:street": "Avenida Mestra Baixa do Boi",
      "addr:suburb": "Baixa do Boi",
      "addr:unit": "Casa",
      "building": "yes",
      "fixme": "Verificar coordenadas",
      "note": "Sem setor ou quadra no bayface do IBGE 0500-0103P-0-111"
      },
      "geometry": {
         "type": "Point",
         "coordinates": [-38.2093405,-9.5295255]
      }
    },
    {
      "type": "Feature",
      "properties": { 
      "IBGE:COD_UNICO_ENDERECO": "27410939-27410940",
      "addr:housenumber": "19",
      "addr:postcode": "48601-018",
      "addr:street": "Avenida Mestra Baixa do Boi",
      "addr:suburb": "Baixa do Boi",
      "addr:unit": "Casa",
      "building": "yes",
      "fixme": "Verificar coordenadas",
      "note": "Sem setor ou quadra no bayface do IBGE 0500-0103P-0-111"
      },
      "geometry": {
         "type": "Point",
         "coordinates": [-38.217144,-9.519982]
      }
    },
    {
      "type": "Feature",
      "properties": { 
      "IBGE:COD_UNICO_ENDERECO": "27410968",
      "addr:housenumber": "6",
      "addr:postcode": "48601-018",
      "addr:street": "Estrada Linha de Transmisao",
      "addr:suburb": "Baixa do Boi",
      "addr:unit": "Casa",
      "building": "yes",
      "fixme": "Verificar coordenadas",
      "note": "Sem setor ou quadra no bayface do IBGE 0500-0103P-0-119"
      },
      "geometry": {
         "type": "Point",
         "coordinates": [-38.208538,-9.524503]
      }
    },
    {
      "type": "Feature",
      "properties": { 
      "IBGE:COD_UNICO_ENDERECO": "27410938",
      "addr:housenumber": "18",
      "addr:postcode": "48601-018",
      "addr:street": "Avenida Mestra Baixa do Boi",
      "addr:suburb": "Baixa do Boi",
      "addr:unit": "Casa",
      "building": "yes",
      "fixme": "Verificar coordenadas",
      "note": "Sem setor ou quadra no bayface do IBGE 0500-0103P-0-111"
      },
      "geometry": {
         "type": "Point",
         "coordinates": [-38.217579,-9.519855]
      }
    },
    {
      "type": "Feature",
      "properties": { 
      "IBGE:COD_UNICO_ENDERECO": "191541500",
      "addr:housenumber": "179",
      "addr:postcode": "48610-488",
      "addr:street": "Estrada do Riacho Grande",
      "addr:suburb": "Baixa do Boi",
      "building": "yes",
      "fixme": "Verificar coordenadas",
      "note": "Sem setor ou quadra no bayface do IBGE 0500-0103P-0-129"
      },
      "geometry": {
         "type": "Point",
         "coordinates": [-38.214957,-9.51248]
      }
    },
    {
      "type": "Feature",
      "properties": { 
      "IBGE:COD_UNICO_ENDERECO": "27410969",
      "addr:housenumber": "27",
      "addr:postcode": "48601-018",
      "addr:street": "Avenida Mestra Baixa do Boi",
      "addr:suburb": "Baixa do Boi",
      "addr:unit": "Casa",
      "building": "yes",
      "fixme": "Verificar coordenadas",
      "note": "Sem setor ou quadra no bayface do IBGE 0500-0103P-0-111"
      },
      "geometry": {
         "type": "Point",
         "coordinates": [-38.209898,-9.524549]
      }
    },
    {
      "type": "Feature",
      "properties": { 
      "IBGE:COD_UNICO_ENDERECO": "27410966",
      "addr:housenumber": "6",
      "addr:postcode": "48601-018",
      "addr:street": "Avenida Mestra Baixa do Boi",
      "addr:suburb": "Baixa do Boi",
      "building": "construction",
      "fixme": "Verificar coordenadas",
      "note": "Sem setor ou quadra no bayface do IBGE 0500-0103P-0-111"
      },
      "geometry": {
         "type": "Point",
         "coordinates": [-38.209554,-9.531507]
      }
    },
    {
      "type": "Feature",
      "properties": { 
      "IBGE:COD_UNICO_ENDERECO": "191541303",
      "addr:housenumber": "114",
      "addr:postcode": "48610-480",
      "addr:street": "Estrada Lotes 02",
      "addr:suburb": "Baixa do Boi",
      "building": "yes",
      "fixme": "Verificar coordenadas",
      "note": "Sem setor ou quadra no bayface do IBGE 0500-0103P-0-122"
      },
      "geometry": {
         "type": "Point",
         "coordinates": [-38.20827,-9.519522]
      }
    },
    {
      "type": "Feature",
      "properties": { 
      "IBGE:COD_UNICO_ENDERECO": "191541564",
      "addr:housenumber": "181",
      "addr:postcode": "48604-514",
      "addr:street": "Estrada do Riacho Grande",
      "addr:suburb": "Baixa do Boi",
      "building": "yes",
      "fixme": "Verificar coordenadas",
      "note": "Sem setor ou quadra no bayface do IBGE 0500-0103P-0-131"
      },
      "geometry": {
         "type": "Point",
         "coordinates": [-38.21489850877,-9.5129047951224]
      }
    },
    {
      "type": "Feature",
      "properties": { 
      "IBGE:COD_UNICO_ENDERECO": "191541218",
      "addr:housenumber": "1",
      "addr:postcode": "48610-480",
      "addr:street": "Avenida Mestra Baixa do Boi",
      "addr:suburb": "Baixa do Boi",
      "building": "yes",
      "fixme": "Verificar coordenadas",
      "note": "Sem setor ou quadra no bayface do IBGE 0500-0103P-0-118"
      },
      "geometry": {
         "type": "Point",
         "coordinates": [-38.218462,-9.523539]
      }
    },
    {
      "type": "Feature",
      "properties": { 
      "IBGE:COD_UNICO_ENDERECO": "27410946",
      "addr:housenumber": "22",
      "addr:postcode": "48601-018",
      "addr:street": "Avenida Mestra Baixa do Boi",
      "addr:suburb": "Baixa do Boi",
      "addr:unit": "Casa",
      "building": "yes",
      "fixme": "Verificar coordenadas",
      "note": "Sem setor ou quadra no bayface do IBGE 0500-0103P-0-111"
      },
      "geometry": {
         "type": "Point",
         "coordinates": [-38.212828,-9.520346]
      }
    },
    {
      "type": "Feature",
      "properties": { 
      "IBGE:COD_UNICO_ENDERECO": "27410970",
      "addr:housenumber": "28",
      "addr:postcode": "48601-018",
      "addr:street": "Avenida Mestra Baixa do Boi",
      "addr:suburb": "Baixa do Boi",
      "addr:unit": "Casa",
      "building": "yes",
      "fixme": "Verificar coordenadas",
      "note": "Sem setor ou quadra no bayface do IBGE 0500-0103P-0-111"
      },
      "geometry": {
         "type": "Point",
         "coordinates": [-38.210695,-9.524422]
      }
    },
    {
      "type": "Feature",
      "properties": { 
      "IBGE:COD_UNICO_ENDERECO": "191541505",
      "addr:housenumber": "180",
      "addr:postcode": "48610-488",
      "addr:street": "Estrada do Riacho Grande",
      "addr:suburb": "Baixa do Boi",
      "building": "yes",
      "fixme": "Verificar coordenadas",
      "note": "Sem setor ou quadra no bayface do IBGE 0500-0103P-0-129"
      },
      "geometry": {
         "type": "Point",
         "coordinates": [-38.214984,-9.512522]
      }
    },
    {
      "type": "Feature",
      "properties": { 
      "IBGE:COD_UNICO_ENDERECO": "191541404",
      "addr:housenumber": "28",
      "addr:postcode": "48604-514",
      "addr:street": "Rodovia BR-110",
      "addr:suburb": "Baixa do Boi",
      "building": "yes",
      "fixme": "Verificar coordenadas",
      "note": "Sem setor ou quadra no bayface do IBGE 0500-0103P-0-128"
      },
      "geometry": {
         "type": "Point",
         "coordinates": [-38.217513,-9.51331]
      }
    },
    {
      "type": "Feature",
      "properties": { 
      "IBGE:COD_UNICO_ENDERECO": "27410939",
      "addr:housenumber": "19",
      "addr:postcode": "48601-018",
      "addr:street": "Avenida Mestra Baixa do Boi",
      "addr:suburb": "Baixa do Boi",
      "addr:unit": "Casa",
      "building": "yes",
      "fixme": "Verificar coordenadas",
      "name": "Fazende",
      "note": "Sem setor ou quadra no bayface do IBGE 0500-0103P-0-111"
      },
      "geometry": {
         "type": "Point",
         "coordinates": [-38.217584,-9.519999]
      }
    },
    {
      "type": "Feature",
      "properties": { 
      "IBGE:COD_UNICO_ENDERECO": "27410953",
      "addr:housenumber": "5",
      "addr:postcode": "48601-018",
      "addr:street": "Avenida Mestra Baixa do Boi",
      "addr:suburb": "Baixa do Boi",
      "building": "warehouse",
      "fixme": "Verificar coordenadas",
      "name": "Galpão Após A Cada Grade",
      "note": "Sem setor ou quadra no bayface do IBGE 0500-0103P-0-111"
      },
      "geometry": {
         "type": "Point",
         "coordinates": [-38.206718789082,-9.533850622981]
      }
    },
    {
      "type": "Feature",
      "properties": { 
      "IBGE:COD_UNICO_ENDERECO": "191541418",
      "addr:housenumber": "130",
      "addr:postcode": "48610-488",
      "addr:street": "Estrada do Riacho Grande",
      "addr:suburb": "Baixa do Boi",
      "building": "yes",
      "fixme": "Verificar coordenadas",
      "note": "Sem setor ou quadra no bayface do IBGE 0500-0103P-0-129"
      },
      "geometry": {
         "type": "Point",
         "coordinates": [-38.216534,-9.513168]
      }
    },
    {
      "type": "Feature",
      "properties": { 
      "IBGE:COD_UNICO_ENDERECO": "191541578",
      "addr:housenumber": "38",
      "addr:postcode": "48610-488",
      "addr:street": "Povoado Riacho Grande",
      "addr:suburb": "Baixa do Boi",
      "building": "yes",
      "fixme": "Verificar coordenadas",
      "note": "Sem setor ou quadra no bayface do IBGE 0500-0103P-0-132"
      },
      "geometry": {
         "type": "Point",
         "coordinates": [-38.207177,-9.509564]
      }
    },
    {
      "type": "Feature",
      "properties": { 
      "IBGE:COD_UNICO_ENDERECO": "191541468",
      "addr:housenumber": "148",
      "addr:postcode": "48610-488",
      "addr:street": "Estrada do Riacho Grande",
      "addr:suburb": "Baixa do Boi",
      "building": "yes",
      "fixme": "Verificar coordenadas",
      "note": "Sem setor ou quadra no bayface do IBGE 0500-0103P-0-129"
      },
      "geometry": {
         "type": "Point",
         "coordinates": [-38.21388,-9.512303]
      }
    },
    {
      "type": "Feature",
      "properties": { 
      "IBGE:COD_UNICO_ENDERECO": "27410937",
      "addr:housenumber": "39",
      "addr:postcode": "48601-018",
      "addr:street": "Avenida Mestra Baixa do Boi",
      "addr:suburb": "Baixa do Boi",
      "addr:unit": "Fundos Casa",
      "building": "yes",
      "fixme": "Verificar coordenadas",
      "note": "Sem setor ou quadra no bayface do IBGE 0500-0103P-0-111"
      },
      "geometry": {
         "type": "Point",
         "coordinates": [-38.217075,-9.528848]
      }
    },
    {
      "type": "Feature",
      "properties": { 
      "IBGE:COD_UNICO_ENDERECO": "191541494",
      "addr:housenumber": "178",
      "addr:postcode": "48610-488",
      "addr:street": "Estrada do Riacho Grande",
      "addr:suburb": "Baixa do Boi",
      "building": "yes",
      "fixme": "Verificar coordenadas",
      "note": "Sem setor ou quadra no bayface do IBGE 0500-0103P-0-129"
      },
      "geometry": {
         "type": "Point",
         "coordinates": [-38.214813,-9.512877]
      }
    },
    {
      "type": "Feature",
      "properties": { 
      "IBGE:COD_UNICO_ENDERECO": "191541898",
      "addr:housenumber": "2",
      "addr:postcode": "48610-488",
      "addr:street": "Estrada do Riacho Grande para A Mão Direita",
      "addr:suburb": "Baixa do Boi",
      "building": "yes",
      "fixme": "Verificar coordenadas",
      "note": "Sem setor ou quadra no bayface do IBGE 0500-0103P-0-180"
      },
      "geometry": {
         "type": "Point",
         "coordinates": [-38.182013,-9.548397]
      }
    }
  ]
}
