{
  "type": "FeatureCollection",
  "generator": "CSV-CNEFE2GeoJSON.lua 1.5.7 - fidelis.assis@gmail.com",
  "source": "IBGE CNEFE + Faces de Logradouros - 2022",
  "date": "2025-02-02T09:05:14-0300",
  "features": [
    {
      "type": "Feature",
      "properties": { 
      "IBGE:COD_UNICO_ENDERECO": "27420614",
      "addr:housenumber": "100",
      "addr:postcode": "48610-480",
      "addr:street": "Rua Peró Vaz",
      "addr:suburb": "Cardeal Brandão Vilela",
      "building": "yes",
      "name": "Mercearia do Cícero",
      "shop": "convenience"
      },
      "geometry": {
         "type": "Point",
         "coordinates": [-38.2270078,-9.4493264]
      }
    },
    {
      "type": "Feature",
      "properties": { 
      "IBGE:COD_UNICO_ENDERECO": "27420692",
      "addr:housenumber": "177",
      "addr:postcode": "48610-424",
      "addr:street": "Rua Arcoverde",
      "addr:suburb": "Cardeal Brandão Vilela",
      "building": "yes"
      },
      "geometry": {
         "type": "Point",
         "coordinates": [-38.2216234,-9.4489449]
      }
    },
    {
      "type": "Feature",
      "properties": { 
      "IBGE:COD_UNICO_ENDERECO": "27420616",
      "addr:housenumber": "170",
      "addr:postcode": "48610-480",
      "addr:street": "Rua Peró Vaz",
      "addr:suburb": "Cardeal Brandão Vilela",
      "building": "yes"
      },
      "geometry": {
         "type": "Point",
         "coordinates": [-38.2275885,-9.4495723]
      }
    },
    {
      "type": "Feature",
      "properties": { 
      "IBGE:COD_UNICO_ENDERECO": "27420757",
      "addr:housenumber": "40",
      "addr:postcode": "48610-404",
      "addr:street": "Rua Santa Teresinha",
      "addr:suburb": "Cardeal Brandão Vilela",
      "building": "yes"
      },
      "geometry": {
         "type": "Point",
         "coordinates": [-38.2272126,-9.4484656]
      }
    },
    {
      "type": "Feature",
      "properties": { 
      "IBGE:COD_UNICO_ENDERECO": "191723898",
      "addr:housenumber": "23",
      "addr:postcode": "48610-456",
      "addr:street": "Rua Apolônio Sales",
      "addr:suburb": "Cardeal Brandão Vilela",
      "building": "yes"
      },
      "geometry": {
         "type": "Point",
         "coordinates": [-38.2284961,-9.4493765]
      }
    },
    {
      "type": "Feature",
      "properties": { 
      "IBGE:COD_UNICO_ENDERECO": "27420583",
      "addr:housenumber": "143",
      "addr:postcode": "48610-464",
      "addr:street": "Rua Euclides da Cunha",
      "addr:suburb": "Cardeal Brandão Vilela",
      "building": "yes"
      },
      "geometry": {
         "type": "Point",
         "coordinates": [-38.2286982,-9.4494273]
      }
    },
    {
      "type": "Feature",
      "properties": { 
      "IBGE:COD_UNICO_ENDERECO": "27420657",
      "addr:housenumber": "40",
      "addr:postcode": "48610-408",
      "addr:street": "Rua São Geraldo",
      "addr:suburb": "Cardeal Brandão Vilela",
      "amenity": "place_of_worship",
      "building": "yes",
      "name": "Igreja sem Nome"
      },
      "geometry": {
         "type": "Point",
         "coordinates": [-38.2222756,-9.4475548]
      }
    },
    {
      "type": "Feature",
      "properties": { 
      "IBGE:COD_UNICO_ENDERECO": "27420683",
      "addr:housenumber": "2",
      "addr:postcode": "48610-428",
      "addr:street": "Rua Nova Glória",
      "addr:suburb": "Cardeal Brandão Vilela",
      "building": "yes"
      },
      "geometry": {
         "type": "Point",
         "coordinates": [-38.2213829,-9.4494313]
      }
    },
    {
      "type": "Feature",
      "properties": { 
      "IBGE:COD_UNICO_ENDERECO": "27420622",
      "addr:housenumber": "93",
      "addr:postcode": "48610-464",
      "addr:street": "Rua Euclides da Cunha",
      "addr:suburb": "Cardeal Brandão Vilela",
      "building": "yes"
      },
      "geometry": {
         "type": "Point",
         "coordinates": [-38.2286136,-9.4498313]
      }
    },
    {
      "type": "Feature",
      "properties": { 
      "IBGE:COD_UNICO_ENDERECO": "191723986",
      "addr:housenumber": "16",
      "addr:postcode": "48610-480",
      "addr:street": "Rua Peró Vaz",
      "addr:suburb": "Cardeal Brandão Vilela",
      "building": "yes"
      },
      "geometry": {
         "type": "Point",
         "coordinates": [-38.2279574,-9.4497284]
      }
    },
    {
      "type": "Feature",
      "properties": { 
      "IBGE:COD_UNICO_ENDERECO": "27420574",
      "addr:housenumber": "42",
      "addr:postcode": "48610-456",
      "addr:street": "Rua Apolônio Sales",
      "addr:suburb": "Cardeal Brandão Vilela",
      "building": "yes"
      },
      "geometry": {
         "type": "Point",
         "coordinates": [-38.2261556,-9.4482908]
      }
    },
    {
      "type": "Feature",
      "properties": { 
      "IBGE:COD_UNICO_ENDERECO": "27420775",
      "addr:housenumber": "415",
      "addr:postcode": "48610-560",
      "addr:street": "Rua Felipe Camarão",
      "addr:suburb": "Cardeal Brandão Vilela",
      "building": "yes",
      "fixme": "Verificar coordenadas",
      "note": "Sem dados para mover para dentro da quadra 0500-0145P-20-4"
      },
      "geometry": {
         "type": "Point",
         "coordinates": [-38.2189839,-9.4520494]
      }
    },
    {
      "type": "Feature",
      "properties": { 
      "IBGE:COD_UNICO_ENDERECO": "27420671",
      "addr:housenumber": "19",
      "addr:postcode": "48610-412",
      "addr:street": "Rua Wilson Pereira",
      "addr:suburb": "Cardeal Brandão Vilela",
      "building": "yes"
      },
      "geometry": {
         "type": "Point",
         "coordinates": [-38.2219258,-9.4477808]
      }
    },
    {
      "type": "Feature",
      "properties": { 
      "IBGE:COD_UNICO_ENDERECO": "27420677",
      "addr:housenumber": "44 A",
      "addr:postcode": "48610-412",
      "addr:street": "Rua Wilson Pereira",
      "addr:suburb": "Cardeal Brandão Vilela",
      "building": "yes"
      },
      "geometry": {
         "type": "Point",
         "coordinates": [-38.2217247,-9.4476989]
      }
    },
    {
      "type": "Feature",
      "properties": { 
      "IBGE:COD_UNICO_ENDERECO": "191723981",
      "addr:housenumber": "173 A",
      "addr:postcode": "48610-480",
      "addr:street": "Rua Peró Vaz",
      "addr:suburb": "Cardeal Brandão Vilela",
      "building": "yes"
      },
      "geometry": {
         "type": "Point",
         "coordinates": [-38.227729,-9.4496318]
      }
    },
    {
      "type": "Feature",
      "properties": { 
      "IBGE:COD_UNICO_ENDERECO": "27420688",
      "addr:housenumber": "205",
      "addr:postcode": "48610-424",
      "addr:street": "Rua Arcoverde",
      "addr:suburb": "Cardeal Brandão Vilela",
      "building": "yes"
      },
      "geometry": {
         "type": "Point",
         "coordinates": [-38.2218146,-9.4490338]
      }
    },
    {
      "type": "Feature",
      "properties": { 
      "IBGE:COD_UNICO_ENDERECO": "27420589",
      "addr:housenumber": "1",
      "addr:postcode": "48610-412",
      "addr:street": "Rua Wilson Pereira",
      "addr:suburb": "Cardeal Brandão Vilela",
      "amenity": "school",
      "building": "yes",
      "fixme": "Verificar coordenadas",
      "name": "Cempa Btn",
      "note": "Sem setor ou quadra no bayface do IBGE 0500-0145P-13-2"
      },
      "geometry": {
         "type": "Point",
         "coordinates": [-38.223706,-9.448611]
      }
    },
    {
      "type": "Feature",
      "properties": { 
      "IBGE:COD_UNICO_ENDERECO": "27420661",
      "addr:housenumber": "15",
      "addr:postcode": "48609-024",
      "addr:street": "Rodovia BA-210",
      "addr:suburb": "Cardeal Brandão Vilela",
      "building": "yes",
      "name": "Pinturas PA"
      },
      "geometry": {
         "type": "Point",
         "coordinates": [-38.2215032,-9.4473901]
      }
    },
    {
      "type": "Feature",
      "properties": { 
      "IBGE:COD_UNICO_ENDERECO": "27420698",
      "addr:housenumber": "14 A",
      "addr:postcode": "48610-424",
      "addr:street": "Rua Arcoverde",
      "addr:suburb": "Cardeal Brandão Vilela",
      "building": "yes"
      },
      "geometry": {
         "type": "Point",
         "coordinates": [-38.2219713,-9.4490934]
      }
    },
    {
      "type": "Feature",
      "properties": { 
      "IBGE:COD_UNICO_ENDERECO": "27420778",
      "addr:housenumber": "355",
      "addr:postcode": "48610-560",
      "addr:street": "Rua Felipe Camarão",
      "addr:suburb": "Cardeal Brandão Vilela",
      "building": "yes",
      "fixme": "Verificar coordenadas",
      "note": "Sem dados para mover para dentro da quadra 0500-0145P-20-4"
      },
      "geometry": {
         "type": "Point",
         "coordinates": [-38.2191329,-9.4515616]
      }
    },
    {
      "type": "Feature",
      "properties": { 
      "IBGE:COD_UNICO_ENDERECO": "27420693",
      "addr:housenumber": "169",
      "addr:postcode": "48610-424",
      "addr:street": "Rua Arcoverde",
      "addr:suburb": "Cardeal Brandão Vilela",
      "building": "yes"
      },
      "geometry": {
         "type": "Point",
         "coordinates": [-38.221566,-9.4489622]
      }
    },
    {
      "type": "Feature",
      "properties": { 
      "IBGE:COD_UNICO_ENDERECO": "27420691",
      "addr:housenumber": "14",
      "addr:postcode": "48610-424",
      "addr:street": "Rua Arcoverde",
      "addr:suburb": "Cardeal Brandão Vilela",
      "building": "yes"
      },
      "geometry": {
         "type": "Point",
         "coordinates": [-38.2220776,-9.4491338]
      }
    },
    {
      "type": "Feature",
      "properties": { 
      "IBGE:COD_UNICO_ENDERECO": "27420606",
      "addr:housenumber": "642",
      "addr:postcode": "48610-200",
      "addr:suburb": "Cardeal Brandão Vilela",
      "addr:unit": "Casa",
      "building": "yes"
      },
      "geometry": {
         "type": "Point",
         "coordinates": [-38.2255337,-9.4490604]
      }
    },
    {
      "type": "Feature",
      "properties": { 
      "IBGE:COD_UNICO_ENDERECO": "191724172",
      "addr:housenumber": "26",
      "addr:postcode": "48610-424",
      "addr:street": "Rua Arcoverde",
      "addr:suburb": "Cardeal Brandão Vilela",
      "building": "yes"
      },
      "geometry": {
         "type": "Point",
         "coordinates": [-38.2201905,-9.4489194]
      }
    },
    {
      "type": "Feature",
      "properties": { 
      "IBGE:COD_UNICO_ENDERECO": "27420667",
      "addr:housenumber": "56",
      "addr:postcode": "48610-412",
      "addr:street": "Rua Wilson Pereira",
      "addr:suburb": "Cardeal Brandão Vilela",
      "building": "yes"
      },
      "geometry": {
         "type": "Point",
         "coordinates": [-38.2218093,-9.4477334]
      }
    },
    {
      "type": "Feature",
      "properties": { 
      "IBGE:COD_UNICO_ENDERECO": "191723970",
      "addr:housenumber": "110",
      "addr:postcode": "48610-480",
      "addr:street": "Rua Peró Vaz",
      "addr:suburb": "Cardeal Brandão Vilela",
      "building": "yes"
      },
      "geometry": {
         "type": "Point",
         "coordinates": [-38.2272762,-9.4494401]
      }
    },
    {
      "type": "Feature",
      "properties": { 
      "IBGE:COD_UNICO_ENDERECO": "27420758",
      "addr:housenumber": "697",
      "addr:postcode": "48610-404",
      "addr:street": "Rua Santa Teresinha",
      "addr:suburb": "Cardeal Brandão Vilela",
      "building": "yes"
      },
      "geometry": {
         "type": "Point",
         "coordinates": [-38.227658,-9.448673]
      }
    },
    {
      "type": "Feature",
      "properties": { 
      "IBGE:COD_UNICO_ENDERECO": "27420598",
      "addr:housenumber": "8",
      "addr:postcode": "48610-424",
      "addr:street": "Rua Arcoverde",
      "addr:suburb": "Cardeal Brandão Vilela",
      "building": "yes"
      },
      "geometry": {
         "type": "Point",
         "coordinates": [-38.2208757,-9.4488701]
      }
    },
    {
      "type": "Feature",
      "properties": { 
      "IBGE:COD_UNICO_ENDERECO": "27420699",
      "addr:housenumber": "1854",
      "addr:postcode": "48609-024",
      "addr:street": "Rodovia BA-210",
      "addr:suburb": "Cardeal Brandão Vilela",
      "building": "yes"
      },
      "geometry": {
         "type": "Point",
         "coordinates": [-38.2209717,-9.4477359]
      }
    },
    {
      "type": "Feature",
      "properties": { 
      "IBGE:COD_UNICO_ENDERECO": "191723896",
      "addr:housenumber": "308",
      "addr:postcode": "48610-456",
      "addr:street": "Rua Apolônio Sales",
      "addr:suburb": "Cardeal Brandão Vilela",
      "building": "yes"
      },
      "geometry": {
         "type": "Point",
         "coordinates": [-38.2283699,-9.449318]
      }
    },
    {
      "type": "Feature",
      "properties": { 
      "IBGE:COD_UNICO_ENDERECO": "191723960",
      "addr:housenumber": "672 A",
      "addr:postcode": "48610-428",
      "addr:street": "Rua Nova Glória",
      "addr:suburb": "Cardeal Brandão Vilela",
      "building": "yes"
      },
      "geometry": {
         "type": "Point",
         "coordinates": [-38.2259026,-9.4490849]
      }
    },
    {
      "type": "Feature",
      "properties": { 
      "IBGE:COD_UNICO_ENDERECO": "27420690",
      "addr:housenumber": "189",
      "addr:postcode": "48610-424",
      "addr:street": "Rua Arcoverde",
      "addr:suburb": "Cardeal Brandão Vilela",
      "building": "yes"
      },
      "geometry": {
         "type": "Point",
         "coordinates": [-38.2217298,-9.4490016]
      }
    },
    {
      "type": "Feature",
      "properties": { 
      "IBGE:COD_UNICO_ENDERECO": "27420780",
      "addr:housenumber": "315",
      "addr:postcode": "48610-560",
      "addr:street": "Rua Felipe Camarão",
      "addr:suburb": "Cardeal Brandão Vilela",
      "building": "yes",
      "fixme": "Verificar coordenadas",
      "note": "Sem dados para mover para dentro da quadra 0500-0145P-20-4"
      },
      "geometry": {
         "type": "Point",
         "coordinates": [-38.21924,-9.451211]
      }
    },
    {
      "type": "Feature",
      "properties": { 
      "IBGE:COD_UNICO_ENDERECO": "27420665",
      "addr:housenumber": "4",
      "addr:postcode": "48610-412",
      "addr:street": "Rua Wilson Pereira",
      "addr:suburb": "Cardeal Brandão Vilela",
      "addr:unit": "Loja",
      "building": "yes"
      },
      "geometry": {
         "type": "Point",
         "coordinates": [-38.2215459,-9.4476261]
      }
    },
    {
      "type": "Feature",
      "properties": { 
      "IBGE:COD_UNICO_ENDERECO": "27420736",
      "addr:housenumber": "102",
      "addr:postcode": "48610-428",
      "addr:street": "Rua Nova Glória",
      "addr:suburb": "Cardeal Brandão Vilela",
      "building": "yes"
      },
      "geometry": {
         "type": "Point",
         "coordinates": [-38.2207375,-9.4494858]
      }
    },
    {
      "type": "Feature",
      "properties": { 
      "IBGE:COD_UNICO_ENDERECO": "27420721",
      "addr:housenumber": "99",
      "addr:postcode": "48610-424",
      "addr:street": "Rua Arcoverde",
      "addr:suburb": "Cardeal Brandão Vilela",
      "building": "yes"
      },
      "geometry": {
         "type": "Point",
         "coordinates": [-38.2207936,-9.4490369]
      }
    },
    {
      "type": "Feature",
      "properties": { 
      "IBGE:COD_UNICO_ENDERECO": "27420659",
      "addr:housenumber": "32",
      "addr:postcode": "48610-408",
      "addr:street": "Rua São Geraldo",
      "addr:suburb": "Cardeal Brandão Vilela",
      "building": "yes",
      "name": "Oficina sem Nome"
      },
      "geometry": {
         "type": "Point",
         "coordinates": [-38.2225486,-9.4476643]
      }
    },
    {
      "type": "Feature",
      "properties": { 
      "IBGE:COD_UNICO_ENDERECO": "27420655",
      "addr:housenumber": "55 Lado 3",
      "addr:postcode": "48610-408",
      "addr:street": "Rua São Geraldo",
      "addr:suburb": "Cardeal Brandão Vilela",
      "building": "yes",
      "name": "Paulo Moto e Carro",
      "shop": "motorcycle"
      },
      "geometry": {
         "type": "Point",
         "coordinates": [-38.2219576,-9.4474273]
      }
    },
    {
      "type": "Feature",
      "properties": { 
      "IBGE:COD_UNICO_ENDERECO": "27420726",
      "addr:housenumber": "39",
      "addr:postcode": "48610-424",
      "addr:street": "Rua Arcoverde",
      "addr:suburb": "Cardeal Brandão Vilela",
      "building": "yes"
      },
      "geometry": {
         "type": "Point",
         "coordinates": [-38.22037,-9.4490752]
      }
    },
    {
      "type": "Feature",
      "properties": { 
      "IBGE:COD_UNICO_ENDERECO": "27420631",
      "addr:housenumber": "195",
      "addr:postcode": "48610-456",
      "addr:street": "Rua Apolônio Sales",
      "addr:suburb": "Cardeal Brandão Vilela",
      "building": "construction"
      },
      "geometry": {
         "type": "Point",
         "coordinates": [-38.2274128,-9.4490841]
      }
    },
    {
      "type": "Feature",
      "properties": { 
      "IBGE:COD_UNICO_ENDERECO": "27420675",
      "addr:housenumber": "30",
      "addr:postcode": "48610-412",
      "addr:street": "Rua Wilson Pereira",
      "addr:suburb": "Cardeal Brandão Vilela",
      "amenity": "pharmacy",
      "building": "yes",
      "name": "Farmácia Poty"
      },
      "geometry": {
         "type": "Point",
         "coordinates": [-38.2224832,-9.4480213]
      }
    },
    {
      "type": "Feature",
      "properties": { 
      "IBGE:COD_UNICO_ENDERECO": "27420626",
      "addr:housenumber": "237",
      "addr:postcode": "48610-456",
      "addr:street": "Rua Apolônio Sales",
      "addr:suburb": "Cardeal Brandão Vilela",
      "building": "yes"
      },
      "geometry": {
         "type": "Point",
         "coordinates": [-38.2279283,-9.4493246]
      }
    },
    {
      "type": "Feature",
      "properties": { 
      "IBGE:COD_UNICO_ENDERECO": "27420724",
      "addr:housenumber": "63",
      "addr:postcode": "48610-424",
      "addr:street": "Rua Arcoverde",
      "addr:suburb": "Cardeal Brandão Vilela",
      "building": "yes"
      },
      "geometry": {
         "type": "Point",
         "coordinates": [-38.2206007,-9.4490631]
      }
    },
    {
      "type": "Feature",
      "properties": { 
      "IBGE:COD_UNICO_ENDERECO": "27420695",
      "addr:housenumber": "153",
      "addr:postcode": "48610-424",
      "addr:street": "Rua Arcoverde",
      "addr:suburb": "Cardeal Brandão Vilela",
      "building": "yes"
      },
      "geometry": {
         "type": "Point",
         "coordinates": [-38.2214112,-9.4489751]
      }
    },
    {
      "type": "Feature",
      "properties": { 
      "IBGE:COD_UNICO_ENDERECO": "27420694",
      "addr:housenumber": "165",
      "addr:postcode": "48610-424",
      "addr:street": "Rua Arcoverde",
      "addr:suburb": "Cardeal Brandão Vilela",
      "building": "yes"
      },
      "geometry": {
         "type": "Point",
         "coordinates": [-38.2214774,-9.4489696]
      }
    },
    {
      "type": "Feature",
      "properties": { 
      "IBGE:COD_UNICO_ENDERECO": "27420727",
      "addr:housenumber": "27",
      "addr:postcode": "48610-424",
      "addr:street": "Rua Arcoverde",
      "addr:suburb": "Cardeal Brandão Vilela",
      "building": "yes"
      },
      "geometry": {
         "type": "Point",
         "coordinates": [-38.2201867,-9.4490737]
      }
    },
    {
      "type": "Feature",
      "properties": { 
      "IBGE:COD_UNICO_ENDERECO": "191723984",
      "addr:housenumber": "202 C",
      "addr:postcode": "48610-480",
      "addr:street": "Rua Peró Vaz",
      "addr:suburb": "Cardeal Brandão Vilela",
      "building": "yes"
      },
      "geometry": {
         "type": "Point",
         "coordinates": [-38.2279012,-9.4497047]
      }
    },
    {
      "type": "Feature",
      "properties": { 
      "IBGE:COD_UNICO_ENDERECO": "27420725",
      "addr:housenumber": "61",
      "addr:postcode": "48610-424",
      "addr:street": "Rua Arcoverde",
      "addr:suburb": "Cardeal Brandão Vilela",
      "building": "yes"
      },
      "geometry": {
         "type": "Point",
         "coordinates": [-38.2204713,-9.4490755]
      }
    },
    {
      "type": "Feature",
      "properties": { 
      "IBGE:COD_UNICO_ENDERECO": "191724277",
      "addr:housenumber": "393",
      "addr:postcode": "48610-560",
      "addr:street": "Rua Felipe Camarão",
      "addr:suburb": "Cardeal Brandão Vilela",
      "building": "yes",
      "fixme": "Verificar coordenadas",
      "name": "Mercadinho Todo Dia",
      "note": "Sem dados para mover para dentro da quadra 0500-0145P-20-4",
      "shop": "convenience"
      },
      "geometry": {
         "type": "Point",
         "coordinates": [-38.2190462,-9.4518456]
      }
    },
    {
      "type": "Feature",
      "properties": { 
      "IBGE:COD_UNICO_ENDERECO": "191724250",
      "addr:housenumber": "312",
      "addr:postcode": "48610-568",
      "addr:street": "Rua Sagrada Família",
      "addr:suburb": "Cardeal Brandão Vilela",
      "building": "yes",
      "fixme": "Verificar coordenadas",
      "note": "Sem face no bayface do IBGE 0500-0145P-20-2"
      },
      "geometry": {
         "type": "Point",
         "coordinates": [-38.218784,-9.451416]
      }
    },
    {
      "type": "Feature",
      "properties": { 
      "IBGE:COD_UNICO_ENDERECO": "27420624",
      "addr:housenumber": "230",
      "addr:postcode": "48610-456",
      "addr:street": "Rua Apolônio Sales",
      "addr:suburb": "Cardeal Brandão Vilela",
      "building": "yes"
      },
      "geometry": {
         "type": "Point",
         "coordinates": [-38.2281084,-9.4494086]
      }
    },
    {
      "type": "Feature",
      "properties": { 
      "IBGE:COD_UNICO_ENDERECO": "27420638",
      "addr:housenumber": "577",
      "addr:postcode": "48610-412",
      "addr:street": "Rua Wilson Pereira",
      "addr:suburb": "Cardeal Brandão Vilela",
      "building": "yes"
      },
      "geometry": {
         "type": "Point",
         "coordinates": [-38.2249395,-9.4491018]
      }
    },
    {
      "type": "Feature",
      "properties": { 
      "IBGE:COD_UNICO_ENDERECO": "27420578",
      "addr:housenumber": "7",
      "addr:postcode": "48610-408",
      "addr:street": "Rua São Geraldo",
      "addr:suburb": "Cardeal Brandão Vilela",
      "addr:unit": "Casa",
      "building": "yes",
      "name": "Bahia Flex"
      },
      "geometry": {
         "type": "Point",
         "coordinates": [-38.2215794,-9.4472362]
      }
    },
    {
      "type": "Feature",
      "properties": { 
      "IBGE:COD_UNICO_ENDERECO": "27420768",
      "addr:housenumber": "14",
      "addr:postcode": "48610-424",
      "addr:street": "Rua Arcoverde",
      "addr:suburb": "Cardeal Brandão Vilela",
      "building": "yes"
      },
      "geometry": {
         "type": "Point",
         "coordinates": [-38.2211105,-9.4488514]
      }
    },
    {
      "type": "Feature",
      "properties": { 
      "IBGE:COD_UNICO_ENDERECO": "27420609",
      "addr:housenumber": "672",
      "addr:postcode": "48610-428",
      "addr:street": "Rua Nova Glória",
      "addr:suburb": "Cardeal Brandão Vilela",
      "building": "yes"
      },
      "geometry": {
         "type": "Point",
         "coordinates": [-38.225902555826,-9.4490850616562]
      }
    },
    {
      "type": "Feature",
      "properties": { 
      "IBGE:COD_UNICO_ENDERECO": "27420748",
      "addr:housenumber": "168",
      "addr:postcode": "48610-568",
      "addr:street": "Rua Sagrada Família",
      "addr:suburb": "Cardeal Brandão Vilela",
      "building": "yes",
      "fixme": "Verificar coordenadas",
      "note": "Sem setor ou quadra no bayface do IBGE 0500-0145P-19-2"
      },
      "geometry": {
         "type": "Point",
         "coordinates": [-38.219183,-9.449998]
      }
    },
    {
      "type": "Feature",
      "properties": { 
      "IBGE:COD_UNICO_ENDERECO": "27420636",
      "addr:housenumber": "205",
      "addr:postcode": "48610-456",
      "addr:street": "Rua Apolônio Sales",
      "addr:suburb": "Cardeal Brandão Vilela",
      "building": "yes"
      },
      "geometry": {
         "type": "Point",
         "coordinates": [-38.2275165,-9.4491325]
      }
    },
    {
      "type": "Feature",
      "properties": { 
      "IBGE:COD_UNICO_ENDERECO": "27420611",
      "addr:housenumber": "690",
      "addr:postcode": "48610-428",
      "addr:street": "Rua Nova Glória",
      "addr:suburb": "Cardeal Brandão Vilela",
      "building": "yes"
      },
      "geometry": {
         "type": "Point",
         "coordinates": [-38.2260153,-9.4490801]
      }
    },
    {
      "type": "Feature",
      "properties": { 
      "IBGE:COD_UNICO_ENDERECO": "27420791",
      "addr:housenumber": "229",
      "addr:postcode": "48610-560",
      "addr:street": "Rua Felipe Camarão",
      "addr:suburb": "Cardeal Brandão Vilela",
      "building": "yes",
      "fixme": "Verificar coordenadas",
      "note": "Sem dados para mover para dentro da quadra 0500-0145P-20-4"
      },
      "geometry": {
         "type": "Point",
         "coordinates": [-38.2194621,-9.4504839]
      }
    },
    {
      "type": "Feature",
      "properties": { 
      "IBGE:COD_UNICO_ENDERECO": "27420784",
      "addr:housenumber": "7",
      "addr:postcode": "48610-560",
      "addr:street": "Rua Felipe Camarão",
      "addr:suburb": "Cardeal Brandão Vilela",
      "building": "yes",
      "fixme": "Verificar coordenadas",
      "note": "Sem dados para mover para dentro da quadra 0500-0145P-20-4"
      },
      "geometry": {
         "type": "Point",
         "coordinates": [-38.2194054,-9.4506696]
      }
    },
    {
      "type": "Feature",
      "properties": { 
      "IBGE:COD_UNICO_ENDERECO": "27420619",
      "addr:housenumber": "90",
      "addr:postcode": "48610-480",
      "addr:street": "Rua Peró Vaz",
      "addr:suburb": "Cardeal Brandão Vilela",
      "building": "yes"
      },
      "geometry": {
         "type": "Point",
         "coordinates": [-38.2270884,-9.4493606]
      }
    },
    {
      "type": "Feature",
      "properties": { 
      "IBGE:COD_UNICO_ENDERECO": "27420706",
      "addr:housenumber": "124",
      "addr:postcode": "48610-428",
      "addr:street": "Rua Nova Glória",
      "addr:suburb": "Cardeal Brandão Vilela",
      "building": "yes"
      },
      "geometry": {
         "type": "Point",
         "coordinates": [-38.2210003,-9.4494636]
      }
    },
    {
      "type": "Feature",
      "properties": { 
      "IBGE:COD_UNICO_ENDERECO": "27420681",
      "addr:housenumber": "164",
      "addr:postcode": "48610-428",
      "addr:street": "Rua Nova Glória",
      "addr:suburb": "Cardeal Brandão Vilela",
      "building": "yes"
      },
      "geometry": {
         "type": "Point",
         "coordinates": [-38.2212747,-9.4494659]
      }
    },
    {
      "type": "Feature",
      "properties": { 
      "IBGE:COD_UNICO_ENDERECO": "27420710",
      "addr:housenumber": "75",
      "addr:postcode": "48610-420",
      "addr:street": "Rua São Roque",
      "addr:suburb": "Cardeal Brandão Vilela",
      "building": "yes"
      },
      "geometry": {
         "type": "Point",
         "coordinates": [-38.2208782,-9.4484788]
      }
    },
    {
      "type": "Feature",
      "properties": { 
      "IBGE:COD_UNICO_ENDERECO": "27420666",
      "addr:housenumber": "44",
      "addr:postcode": "48610-412",
      "addr:street": "Rua Wilson Pereira",
      "addr:suburb": "Cardeal Brandão Vilela",
      "building": "yes"
      },
      "geometry": {
         "type": "Point",
         "coordinates": [-38.2216682,-9.4476759]
      }
    },
    {
      "type": "Feature",
      "properties": { 
      "IBGE:COD_UNICO_ENDERECO": "27420776",
      "addr:housenumber": "393",
      "addr:postcode": "48610-560",
      "addr:street": "Rua Felipe Camarão",
      "addr:suburb": "Cardeal Brandão Vilela",
      "building": "yes",
      "fixme": "Verificar coordenadas",
      "note": "Sem dados para mover para dentro da quadra 0500-0145P-20-4"
      },
      "geometry": {
         "type": "Point",
         "coordinates": [-38.2190394,-9.451868]
      }
    },
    {
      "type": "Feature",
      "properties": { 
      "IBGE:COD_UNICO_ENDERECO": "27420582",
      "addr:housenumber": "14",
      "addr:postcode": "48610-408",
      "addr:street": "Rua São Geraldo",
      "addr:suburb": "Cardeal Brandão Vilela",
      "building": "yes",
      "name": "Hmpa Núcleo de Apoio"
      },
      "geometry": {
         "type": "Point",
         "coordinates": [-38.2233083,-9.4479519]
      }
    },
    {
      "type": "Feature",
      "properties": { 
      "IBGE:COD_UNICO_ENDERECO": "27420594",
      "addr:housenumber": "13",
      "addr:postcode": "48610-408",
      "addr:street": "Rua São Geraldo",
      "addr:suburb": "Cardeal Brandão Vilela",
      "building": "yes",
      "description": "CNEFE 2022 Sem Nome"
      },
      "geometry": {
         "type": "Point",
         "coordinates": [-38.2233539,-9.4479483]
      }
    },
    {
      "type": "Feature",
      "properties": { 
      "IBGE:COD_UNICO_ENDERECO": "27420643",
      "addr:housenumber": "454",
      "addr:postcode": "48610-428",
      "addr:street": "Rua Nova Glória",
      "addr:suburb": "Cardeal Brandão Vilela",
      "building": "yes"
      },
      "geometry": {
         "type": "Point",
         "coordinates": [-38.2239852,-9.4491851]
      }
    },
    {
      "type": "Feature",
      "properties": { 
      "IBGE:COD_UNICO_ENDERECO": "191723958",
      "addr:housenumber": "672 B",
      "addr:postcode": "48610-428",
      "addr:street": "Rua Nova Glória",
      "addr:suburb": "Cardeal Brandão Vilela",
      "building": "yes"
      },
      "geometry": {
         "type": "Point",
         "coordinates": [-38.225894898499,-9.4490864613881]
      }
    },
    {
      "type": "Feature",
      "properties": { 
      "IBGE:COD_UNICO_ENDERECO": "27420634",
      "addr:housenumber": "161",
      "addr:postcode": "48610-456",
      "addr:street": "Rua Apolônio Sales",
      "addr:suburb": "Cardeal Brandão Vilela",
      "building": "yes"
      },
      "geometry": {
         "type": "Point",
         "coordinates": [-38.2271258,-9.4489502]
      }
    },
    {
      "type": "Feature",
      "properties": { 
      "IBGE:COD_UNICO_ENDERECO": "191723950",
      "addr:housenumber": "509",
      "addr:postcode": "48610-404",
      "addr:street": "Rua Santa Teresinha",
      "addr:suburb": "Cardeal Brandão Vilela",
      "building": "yes"
      },
      "geometry": {
         "type": "Point",
         "coordinates": [-38.2261598,-9.4479753]
      }
    },
    {
      "type": "Feature",
      "properties": { 
      "IBGE:COD_UNICO_ENDERECO": "191724239",
      "addr:housenumber": "252",
      "addr:postcode": "48610-568",
      "addr:street": "Rua Sagrada Família",
      "addr:suburb": "Cardeal Brandão Vilela",
      "fixme": "Verificar coordenadas",
      "industrial": "brewery",
      "landuse": "industrial",
      "name": "Cervejaria do Negão",
      "note": "Sem face no bayface do IBGE 0500-0145P-20-2"
      },
      "geometry": {
         "type": "Point",
         "coordinates": [-38.21897,-9.450873]
      }
    },
    {
      "type": "Feature",
      "properties": { 
      "IBGE:COD_UNICO_ENDERECO": "27420597",
      "addr:housenumber": "37",
      "addr:postcode": "48610-432",
      "addr:street": "Rua São Cristóvão",
      "addr:suburb": "Cardeal Brandão Vilela",
      "building": "yes"
      },
      "geometry": {
         "type": "Point",
         "coordinates": [-38.2214355,-9.4481315]
      }
    },
    {
      "type": "Feature",
      "properties": { 
      "IBGE:COD_UNICO_ENDERECO": "27420716",
      "addr:housenumber": "30",
      "addr:postcode": "48610-560",
      "addr:street": "Rua Felipe Camarão",
      "addr:suburb": "Cardeal Brandão Vilela",
      "building": "construction"
      },
      "geometry": {
         "type": "Point",
         "coordinates": [-38.2201193,-9.4488324]
      }
    },
    {
      "type": "Feature",
      "properties": { 
      "IBGE:COD_UNICO_ENDERECO": "27420714",
      "addr:housenumber": "6",
      "addr:postcode": "48610-428",
      "addr:street": "Rua Nova Glória",
      "addr:suburb": "Cardeal Brandão Vilela",
      "building": "yes",
      "name": "Salão Vicentino"
      },
      "geometry": {
         "type": "Point",
         "coordinates": [-38.2215196,-9.4494197]
      }
    },
    {
      "type": "Feature",
      "properties": { 
      "IBGE:COD_UNICO_ENDERECO": "27420682",
      "addr:housenumber": "176",
      "addr:postcode": "48610-428",
      "addr:street": "Rua Nova Glória",
      "addr:suburb": "Cardeal Brandão Vilela",
      "building": "yes"
      },
      "geometry": {
         "type": "Point",
         "coordinates": [-38.2213997,-9.4494298]
      }
    },
    {
      "type": "Feature",
      "properties": { 
      "IBGE:COD_UNICO_ENDERECO": "191723938",
      "addr:housenumber": "557",
      "addr:postcode": "48610-404",
      "addr:street": "Rua Santa Teresinha",
      "addr:suburb": "Cardeal Brandão Vilela",
      "building": "yes"
      },
      "geometry": {
         "type": "Point",
         "coordinates": [-38.2267248,-9.4482384]
      }
    },
    {
      "type": "Feature",
      "properties": { 
      "IBGE:COD_UNICO_ENDERECO": "27420696",
      "addr:housenumber": "29",
      "addr:postcode": "48610-428",
      "addr:street": "Rua Nova Glória",
      "addr:suburb": "Cardeal Brandão Vilela",
      "building": "warehouse",
      "description": "CNEFE 2022 Depósito de Móveis",
      "fixme": "Verificar coordenadas",
      "note": "Muito afastado da face: 57m 0500-0145P-15-2"
      },
      "geometry": {
         "type": "Point",
         "coordinates": [-38.221314,-9.448976]
      }
    },
    {
      "type": "Feature",
      "properties": { 
      "IBGE:COD_UNICO_ENDERECO": "27420728",
      "addr:housenumber": "331",
      "addr:postcode": "48610-412",
      "addr:street": "Rua Wilson Pereira",
      "addr:suburb": "Cardeal Brandão Vilela",
      "building": "yes"
      },
      "geometry": {
         "type": "Point",
         "coordinates": [-38.2240309,-9.4488044]
      }
    },
    {
      "type": "Feature",
      "properties": { 
      "IBGE:COD_UNICO_ENDERECO": "27420600",
      "addr:housenumber": "8",
      "addr:postcode": "48610-200",
      "addr:street": "Travessa Wilson Pereira",
      "addr:suburb": "Cardeal Brandão Vilela",
      "addr:unit": "Casa B Fundos",
      "building": "yes",
      "name": "Cris Story"
      },
      "geometry": {
         "type": "Point",
         "coordinates": [-38.2232273,-9.4481827]
      }
    },
    {
      "type": "Feature",
      "properties": { 
      "IBGE:COD_UNICO_ENDERECO": "27420591",
      "addr:housenumber": "811",
      "addr:postcode": "48610-404",
      "addr:street": "Rua Santa Teresinha",
      "addr:suburb": "Cardeal Brandão Vilela",
      "building": "yes"
      },
      "geometry": {
         "type": "Point",
         "coordinates": [-38.2287266,-9.4491484]
      }
    },
    {
      "type": "Feature",
      "properties": { 
      "IBGE:COD_UNICO_ENDERECO": "27420729",
      "addr:housenumber": "14",
      "addr:postcode": "48610-428",
      "addr:street": "Rua Nova Glória",
      "addr:suburb": "Cardeal Brandão Vilela",
      "building": "yes"
      },
      "geometry": {
         "type": "Point",
         "coordinates": [-38.2199345,-9.4495677]
      }
    },
    {
      "type": "Feature",
      "properties": { 
      "IBGE:COD_UNICO_ENDERECO": "27420618",
      "addr:housenumber": "108",
      "addr:postcode": "48610-480",
      "addr:street": "Rua Peró Vaz",
      "addr:suburb": "Cardeal Brandão Vilela",
      "building": "yes",
      "name": "Luciana Menezes Espaço de Beleza",
      "shop": "beauty;hairdresser"
      },
      "geometry": {
         "type": "Point",
         "coordinates": [-38.2271859,-9.4494018]
      }
    },
    {
      "type": "Feature",
      "properties": { 
      "IBGE:COD_UNICO_ENDERECO": "27420603",
      "addr:housenumber": "1826",
      "addr:postcode": "48609-024",
      "addr:street": "Rodovia BA-210",
      "addr:suburb": "Cardeal Brandão Vilela",
      "building": "yes",
      "name": "Dci Piso e Cimento"
      },
      "geometry": {
         "type": "Point",
         "coordinates": [-38.2210746,-9.4476284]
      }
    },
    {
      "type": "Feature",
      "properties": { 
      "IBGE:COD_UNICO_ENDERECO": "27420639",
      "addr:housenumber": "571",
      "addr:postcode": "48610-412",
      "addr:street": "Rua Wilson Pereira",
      "addr:suburb": "Cardeal Brandão Vilela",
      "building": "yes"
      },
      "geometry": {
         "type": "Point",
         "coordinates": [-38.2248663,-9.4490781]
      }
    },
    {
      "type": "Feature",
      "properties": { 
      "IBGE:COD_UNICO_ENDERECO": "27420755",
      "addr:housenumber": "194",
      "addr:postcode": "48610-568",
      "addr:street": "Rua Sagrada Família",
      "addr:suburb": "Cardeal Brandão Vilela",
      "building": "yes",
      "fixme": "Verificar coordenadas",
      "note": "Sem face no bayface do IBGE 0500-0145P-20-2"
      },
      "geometry": {
         "type": "Point",
         "coordinates": [-38.219108,-9.450354]
      }
    },
    {
      "type": "Feature",
      "properties": { 
      "IBGE:COD_UNICO_ENDERECO": "191723947",
      "addr:housenumber": "510",
      "addr:postcode": "48610-404",
      "addr:street": "Rua Santa Teresinha",
      "addr:suburb": "Cardeal Brandão Vilela",
      "building": "yes"
      },
      "geometry": {
         "type": "Point",
         "coordinates": [-38.2262564,-9.4480203]
      }
    },
    {
      "type": "Feature",
      "properties": { 
      "IBGE:COD_UNICO_ENDERECO": "27420731",
      "addr:housenumber": "54",
      "addr:postcode": "48610-428",
      "addr:street": "Rua Nova Glória",
      "addr:suburb": "Cardeal Brandão Vilela",
      "building": "yes"
      },
      "geometry": {
         "type": "Point",
         "coordinates": [-38.220334,-9.4495198]
      }
    },
    {
      "type": "Feature",
      "properties": { 
      "IBGE:COD_UNICO_ENDERECO": "27420645",
      "addr:housenumber": "109",
      "addr:postcode": "48610-432",
      "addr:street": "Rua São Cristóvão",
      "addr:suburb": "Cardeal Brandão Vilela",
      "building": "yes"
      },
      "geometry": {
         "type": "Point",
         "coordinates": [-38.221146,-9.4487109]
      }
    },
    {
      "type": "Feature",
      "properties": { 
      "IBGE:COD_UNICO_ENDERECO": "191724021",
      "addr:housenumber": "179",
      "addr:postcode": "48610-456",
      "addr:street": "Rua Apolônio Sales",
      "addr:suburb": "Cardeal Brandão Vilela",
      "building": "yes"
      },
      "geometry": {
         "type": "Point",
         "coordinates": [-38.2273268,-9.449044]
      }
    },
    {
      "type": "Feature",
      "properties": { 
      "IBGE:COD_UNICO_ENDERECO": "191724257",
      "addr:housenumber": "360",
      "addr:postcode": "48610-568",
      "addr:street": "Rua Sagrada Família",
      "addr:suburb": "Cardeal Brandão Vilela",
      "building": "yes",
      "fixme": "Verificar coordenadas",
      "note": "Sem face no bayface do IBGE 0500-0145P-20-2"
      },
      "geometry": {
         "type": "Point",
         "coordinates": [-38.218653,-9.451792]
      }
    },
    {
      "type": "Feature",
      "properties": { 
      "IBGE:COD_UNICO_ENDERECO": "191723958",
      "addr:housenumber": "672 B",
      "addr:postcode": "48610-428",
      "addr:street": "Rua Nova Glória",
      "addr:suburb": "Cardeal Brandão Vilela",
      "building": "yes",
      "name": "Luana Presentes",
      "shop": "gift"
      },
      "geometry": {
         "type": "Point",
         "coordinates": [-38.225904346267,-9.4490898000032]
      }
    },
    {
      "type": "Feature",
      "properties": { 
      "IBGE:COD_UNICO_ENDERECO": "27420614",
      "addr:housenumber": "100",
      "addr:postcode": "48610-480",
      "addr:street": "Rua Peró Vaz",
      "addr:suburb": "Cardeal Brandão Vilela",
      "building": "yes"
      },
      "geometry": {
         "type": "Point",
         "coordinates": [-38.22701130812,-9.4493271951224]
      }
    },
    {
      "type": "Feature",
      "properties": { 
      "IBGE:COD_UNICO_ENDERECO": "27420672",
      "addr:housenumber": "23 Térreo",
      "addr:postcode": "48610-412",
      "addr:street": "Rua Wilson Pereira",
      "addr:suburb": "Cardeal Brandão Vilela",
      "building": "yes",
      "name": "Comercial Águas de Belém",
      "shop": "yes"
      },
      "geometry": {
         "type": "Point",
         "coordinates": [-38.2221258,-9.4478622]
      }
    },
    {
      "type": "Feature",
      "properties": { 
      "IBGE:COD_UNICO_ENDERECO": "27420771",
      "addr:housenumber": "55",
      "addr:postcode": "48610-404",
      "addr:street": "Rua Santa Teresinha",
      "addr:suburb": "Cardeal Brandão Vilela",
      "building": "construction"
      },
      "geometry": {
         "type": "Point",
         "coordinates": [-38.2263977,-9.4480861]
      }
    },
    {
      "type": "Feature",
      "properties": { 
      "IBGE:COD_UNICO_ENDERECO": "27420709",
      "addr:housenumber": "85",
      "addr:postcode": "48610-420",
      "addr:street": "Rua São Roque",
      "addr:suburb": "Cardeal Brandão Vilela",
      "building": "yes"
      },
      "geometry": {
         "type": "Point",
         "coordinates": [-38.2209703,-9.4484754]
      }
    },
    {
      "type": "Feature",
      "properties": { 
      "IBGE:COD_UNICO_ENDERECO": "191724040",
      "addr:housenumber": "75",
      "addr:postcode": "48610-456",
      "addr:street": "Rua Apolônio Sales",
      "addr:suburb": "Cardeal Brandão Vilela",
      "building": "yes"
      },
      "geometry": {
         "type": "Point",
         "coordinates": [-38.226429,-9.4486251]
      }
    },
    {
      "type": "Feature",
      "properties": { 
      "IBGE:COD_UNICO_ENDERECO": "27420715",
      "addr:housenumber": "14",
      "addr:postcode": "48610-560",
      "addr:street": "Rua Felipe Camarão",
      "addr:suburb": "Cardeal Brandão Vilela",
      "amenity": "pub",
      "building": "yes",
      "name": "Bar São Benedito"
      },
      "geometry": {
         "type": "Point",
         "coordinates": [-38.2201687,-9.4486424]
      }
    },
    {
      "type": "Feature",
      "properties": { 
      "IBGE:COD_UNICO_ENDERECO": "27420662",
      "addr:housenumber": "176",
      "addr:postcode": "48610-428",
      "addr:street": "Rua Nova Glória",
      "addr:suburb": "Cardeal Brandão Vilela",
      "amenity": "place_of_worship",
      "building": "church",
      "denomination": "pentecostal",
      "name": "Igreja Pentecostal Deus é Amor",
      "religion": "christian"
      },
      "geometry": {
         "type": "Point",
         "coordinates": [-38.221468,-9.4494241]
      }
    },
    {
      "type": "Feature",
      "properties": { 
      "IBGE:COD_UNICO_ENDERECO": "27420781",
      "addr:housenumber": "307",
      "addr:postcode": "48610-560",
      "addr:street": "Rua Felipe Camarão",
      "addr:suburb": "Cardeal Brandão Vilela",
      "building": "yes",
      "fixme": "Verificar coordenadas",
      "note": "Sem dados para mover para dentro da quadra 0500-0145P-20-4"
      },
      "geometry": {
         "type": "Point",
         "coordinates": [-38.2192692,-9.4511154]
      }
    },
    {
      "type": "Feature",
      "properties": { 
      "IBGE:COD_UNICO_ENDERECO": "27420607",
      "addr:housenumber": "650",
      "addr:postcode": "48610-428",
      "addr:street": "Rua Nova Glória",
      "addr:suburb": "Cardeal Brandão Vilela",
      "building": "yes"
      },
      "geometry": {
         "type": "Point",
         "coordinates": [-38.2257129,-9.4490929]
      }
    },
    {
      "type": "Feature",
      "properties": { 
      "IBGE:COD_UNICO_ENDERECO": "27420646",
      "addr:housenumber": "23",
      "addr:postcode": "48610-200",
      "addr:street": "Travessa Wilson Pereira",
      "addr:suburb": "Cardeal Brandão Vilela",
      "building": "yes"
      },
      "geometry": {
         "type": "Point",
         "coordinates": [-38.2232966,-9.4481443]
      }
    },
    {
      "type": "Feature",
      "properties": { 
      "IBGE:COD_UNICO_ENDERECO": "191724224",
      "addr:housenumber": "232",
      "addr:postcode": "48610-568",
      "addr:street": "Rua Sagrada Família",
      "addr:suburb": "Cardeal Brandão Vilela",
      "building": "yes",
      "fixme": "Verificar coordenadas",
      "note": "Sem face no bayface do IBGE 0500-0145P-20-2"
      },
      "geometry": {
         "type": "Point",
         "coordinates": [-38.218973,-9.450672]
      }
    },
    {
      "type": "Feature",
      "properties": { 
      "IBGE:COD_UNICO_ENDERECO": "27420684",
      "addr:housenumber": "236",
      "addr:postcode": "48610-428",
      "addr:street": "Rua Nova Glória",
      "addr:suburb": "Cardeal Brandão Vilela",
      "addr:unit": "Loja",
      "building": "yes"
      },
      "geometry": {
         "type": "Point",
         "coordinates": [-38.222021,-9.4493773]
      }
    },
    {
      "type": "Feature",
      "properties": { 
      "IBGE:COD_UNICO_ENDERECO": "191724217",
      "addr:housenumber": "200",
      "addr:postcode": "48610-568",
      "addr:street": "Rua Sagrada Família",
      "addr:suburb": "Cardeal Brandão Vilela",
      "building": "yes",
      "fixme": "Verificar coordenadas",
      "note": "Sem face no bayface do IBGE 0500-0145P-20-2"
      },
      "geometry": {
         "type": "Point",
         "coordinates": [-38.219112,-9.450442]
      }
    },
    {
      "type": "Feature",
      "properties": { 
      "IBGE:COD_UNICO_ENDERECO": "191723886",
      "addr:housenumber": "90",
      "addr:postcode": "48610-456",
      "addr:street": "Rua Apolônio Sales",
      "addr:suburb": "Cardeal Brandão Vilela",
      "building": "yes"
      },
      "geometry": {
         "type": "Point",
         "coordinates": [-38.2267362,-9.4485601]
      }
    },
    {
      "type": "Feature",
      "properties": { 
      "IBGE:COD_UNICO_ENDERECO": "27420596",
      "addr:housenumber": "11",
      "addr:postcode": "48610-200",
      "addr:street": "Travessa Wilson Pereira",
      "addr:suburb": "Cardeal Brandão Vilela",
      "building": "yes",
      "description": "CNEFE 2022 Sem Nome"
      },
      "geometry": {
         "type": "Point",
         "coordinates": [-38.223334,-9.4480416]
      }
    },
    {
      "type": "Feature",
      "properties": { 
      "IBGE:COD_UNICO_ENDERECO": "27420717",
      "addr:housenumber": "18",
      "addr:postcode": "48610-560",
      "addr:street": "Rua Felipe Camarão",
      "addr:suburb": "Cardeal Brandão Vilela",
      "building": "yes"
      },
      "geometry": {
         "type": "Point",
         "coordinates": [-38.2200495,-9.4489345]
      }
    },
    {
      "type": "Feature",
      "properties": { 
      "IBGE:COD_UNICO_ENDERECO": "27420774",
      "addr:housenumber": "419",
      "addr:postcode": "48610-560",
      "addr:street": "Rua Felipe Camarão",
      "addr:suburb": "Cardeal Brandão Vilela",
      "amenity": "internet_cafe",
      "building": "yes",
      "fixme": "Verificar coordenadas",
      "name": "Lan House Dard Games",
      "note": "Sem dados para mover para dentro da quadra 0500-0145P-20-4"
      },
      "geometry": {
         "type": "Point",
         "coordinates": [-38.2189639,-9.452115]
      }
    },
    {
      "type": "Feature",
      "properties": { 
      "IBGE:COD_UNICO_ENDERECO": "191724202",
      "addr:housenumber": "77 B",
      "addr:postcode": "48610-560",
      "addr:street": "Rua Felipe Camarão",
      "addr:suburb": "Cardeal Brandão Vilela",
      "building": "yes",
      "fixme": "Verificar coordenadas",
      "note": "Sem setor ou quadra no bayface do IBGE 0500-0145P-19-5"
      },
      "geometry": {
         "type": "Point",
         "coordinates": [-38.219842,-9.449111]
      }
    },
    {
      "type": "Feature",
      "properties": { 
      "IBGE:COD_UNICO_ENDERECO": "27420687",
      "addr:housenumber": "257",
      "addr:postcode": "48610-424",
      "addr:street": "Rua Arcoverde",
      "addr:suburb": "Cardeal Brandão Vilela",
      "building": "yes"
      },
      "geometry": {
         "type": "Point",
         "coordinates": [-38.2222412,-9.449196]
      }
    },
    {
      "type": "Feature",
      "properties": { 
      "IBGE:COD_UNICO_ENDERECO": "27420689",
      "addr:housenumber": "20",
      "addr:postcode": "48610-424",
      "addr:street": "Rua Arcoverde",
      "addr:suburb": "Cardeal Brandão Vilela",
      "building": "yes"
      },
      "geometry": {
         "type": "Point",
         "coordinates": [-38.2217963,-9.4490269]
      }
    },
    {
      "type": "Feature",
      "properties": { 
      "IBGE:COD_UNICO_ENDERECO": "27420734",
      "addr:housenumber": "78",
      "addr:postcode": "48610-428",
      "addr:street": "Rua Nova Glória",
      "addr:suburb": "Cardeal Brandão Vilela",
      "building": "yes"
      },
      "geometry": {
         "type": "Point",
         "coordinates": [-38.2206161,-9.449496]
      }
    },
    {
      "type": "Feature",
      "properties": { 
      "IBGE:COD_UNICO_ENDERECO": "191724253",
      "addr:housenumber": "316",
      "addr:postcode": "48610-568",
      "addr:street": "Rua Sagrada Família",
      "addr:suburb": "Cardeal Brandão Vilela",
      "building": "yes",
      "fixme": "Verificar coordenadas",
      "note": "Sem face no bayface do IBGE 0500-0145P-20-2"
      },
      "geometry": {
         "type": "Point",
         "coordinates": [-38.218767,-9.451478]
      }
    },
    {
      "type": "Feature",
      "properties": { 
      "IBGE:COD_UNICO_ENDERECO": "191723935",
      "addr:housenumber": "563",
      "addr:postcode": "48610-404",
      "addr:street": "Rua Santa Teresinha",
      "addr:suburb": "Cardeal Brandão Vilela",
      "building": "yes"
      },
      "geometry": {
         "type": "Point",
         "coordinates": [-38.2268266,-9.4482858]
      }
    },
    {
      "type": "Feature",
      "properties": { 
      "IBGE:COD_UNICO_ENDERECO": "191723992",
      "addr:housenumber": "20",
      "addr:postcode": "48610-480",
      "addr:street": "Rua Peró Vaz",
      "addr:suburb": "Cardeal Brandão Vilela",
      "building": "yes"
      },
      "geometry": {
         "type": "Point",
         "coordinates": [-38.2283051,-9.4498761]
      }
    },
    {
      "type": "Feature",
      "properties": { 
      "IBGE:COD_UNICO_ENDERECO": "27420620",
      "addr:housenumber": "17",
      "addr:postcode": "48610-480",
      "addr:street": "Rua Peró Vaz",
      "addr:suburb": "Cardeal Brandão Vilela",
      "building": "yes"
      },
      "geometry": {
         "type": "Point",
         "coordinates": [-38.2279747,-9.4497358]
      }
    },
    {
      "type": "Feature",
      "properties": { 
      "IBGE:COD_UNICO_ENDERECO": "27420770",
      "addr:housenumber": "497",
      "addr:postcode": "48610-404",
      "addr:street": "Rua Santa Teresinha",
      "addr:suburb": "Cardeal Brandão Vilela",
      "building": "yes",
      "name": "Auto Elétrica Sousa",
      "service:vehicle:electrical": "yes",
      "shop": "car_repair"
      },
      "geometry": {
         "type": "Point",
         "coordinates": [-38.22617,-9.4479801]
      }
    },
    {
      "type": "Feature",
      "properties": { 
      "IBGE:COD_UNICO_ENDERECO": "191723932",
      "addr:housenumber": "583",
      "addr:postcode": "48610-404",
      "addr:street": "Rua Santa Teresinha",
      "addr:suburb": "Cardeal Brandão Vilela",
      "building": "yes"
      },
      "geometry": {
         "type": "Point",
         "coordinates": [-38.22698,-9.4483573]
      }
    },
    {
      "type": "Feature",
      "properties": { 
      "IBGE:COD_UNICO_ENDERECO": "27420668",
      "addr:housenumber": "9",
      "addr:postcode": "48610-412",
      "addr:street": "Rua Wilson Pereira",
      "addr:suburb": "Cardeal Brandão Vilela",
      "disused:building": "yes",
      "disused:shop": "yes",
      "old_name": "Loja Fechada"
      },
      "geometry": {
         "type": "Point",
         "coordinates": [-38.2218045,-9.4477314]
      }
    },
    {
      "type": "Feature",
      "properties": { 
      "IBGE:COD_UNICO_ENDERECO": "27420718",
      "addr:housenumber": "84",
      "addr:postcode": "48610-560",
      "addr:street": "Rua Felipe Camarão",
      "addr:suburb": "Cardeal Brandão Vilela",
      "building": "yes"
      },
      "geometry": {
         "type": "Point",
         "coordinates": [-38.2199705,-9.4492768]
      }
    },
    {
      "type": "Feature",
      "properties": { 
      "IBGE:COD_UNICO_ENDERECO": "27420759",
      "addr:housenumber": "234",
      "addr:postcode": "48610-568",
      "addr:street": "Rua Sagrada Família",
      "addr:suburb": "Cardeal Brandão Vilela",
      "addr:unit": "Casa A",
      "building": "yes",
      "fixme": "Verificar coordenadas",
      "note": "Sem face no bayface do IBGE 0500-0145P-20-2"
      },
      "geometry": {
         "type": "Point",
         "coordinates": [-38.219074,-9.450674]
      }
    },
    {
      "type": "Feature",
      "properties": { 
      "IBGE:COD_UNICO_ENDERECO": "191724235",
      "addr:housenumber": "240",
      "addr:postcode": "48610-568",
      "addr:street": "Rua Sagrada Família",
      "addr:suburb": "Cardeal Brandão Vilela",
      "building": "yes",
      "fixme": "Verificar coordenadas",
      "note": "Sem face no bayface do IBGE 0500-0145P-20-2"
      },
      "geometry": {
         "type": "Point",
         "coordinates": [-38.218978,-9.450749]
      }
    },
    {
      "type": "Feature",
      "properties": { 
      "IBGE:COD_UNICO_ENDERECO": "27420633",
      "addr:housenumber": "173",
      "addr:postcode": "48610-456",
      "addr:street": "Rua Apolônio Sales",
      "addr:suburb": "Cardeal Brandão Vilela",
      "building": "yes"
      },
      "geometry": {
         "type": "Point",
         "coordinates": [-38.2272788,-9.4490216]
      }
    },
    {
      "type": "Feature",
      "properties": { 
      "IBGE:COD_UNICO_ENDERECO": "27420618",
      "addr:housenumber": "108",
      "addr:postcode": "48610-480",
      "addr:street": "Rua Peró Vaz",
      "addr:suburb": "Cardeal Brandão Vilela",
      "building": "yes"
      },
      "geometry": {
         "type": "Point",
         "coordinates": [-38.227190687902,-9.449394422981]
      }
    },
    {
      "type": "Feature",
      "properties": { 
      "IBGE:COD_UNICO_ENDERECO": "27420749",
      "addr:housenumber": "193",
      "addr:postcode": "48610-560",
      "addr:street": "Rua Felipe Camarão",
      "addr:suburb": "Cardeal Brandão Vilela",
      "building": "yes",
      "fixme": "Verificar coordenadas",
      "note": "Sem setor ou quadra no bayface do IBGE 0500-0145P-19-5"
      },
      "geometry": {
         "type": "Point",
         "coordinates": [-38.219555,-9.450099]
      }
    },
    {
      "type": "Feature",
      "properties": { 
      "IBGE:COD_UNICO_ENDERECO": "27420593",
      "addr:housenumber": "599",
      "addr:postcode": "48610-404",
      "addr:street": "Rua Santa Teresinha",
      "addr:suburb": "Cardeal Brandão Vilela",
      "building": "yes"
      },
      "geometry": {
         "type": "Point",
         "coordinates": [-38.2272131,-9.4484658]
      }
    },
    {
      "type": "Feature",
      "properties": { 
      "IBGE:COD_UNICO_ENDERECO": "27420697",
      "addr:housenumber": "115",
      "addr:postcode": "48610-420",
      "addr:street": "Rua São Roque",
      "addr:suburb": "Cardeal Brandão Vilela",
      "building": "yes",
      "name": "Auto Peças",
      "shop": "car_parts"
      },
      "geometry": {
         "type": "Point",
         "coordinates": [-38.221196,-9.4484547]
      }
    },
    {
      "type": "Feature",
      "properties": { 
      "IBGE:COD_UNICO_ENDERECO": "27420592",
      "addr:housenumber": "615",
      "addr:postcode": "48610-404",
      "addr:street": "Rua Santa Teresinha",
      "addr:suburb": "Cardeal Brandão Vilela",
      "building": "yes"
      },
      "geometry": {
         "type": "Point",
         "coordinates": [-38.2273242,-9.4485175]
      }
    },
    {
      "type": "Feature",
      "properties": { 
      "IBGE:COD_UNICO_ENDERECO": "191724290",
      "addr:housenumber": "333",
      "addr:postcode": "48610-560",
      "addr:street": "Rua Felipe Camarão",
      "addr:suburb": "Cardeal Brandão Vilela",
      "amenity": "social_facility",
      "building": "yes",
      "fixme": "Verificar coordenadas",
      "name": "CRAS",
      "note": "Sem dados para mover para dentro da quadra 0500-0145P-20-4",
      "official_name": "Centro de Referência da Assistência Social"
      },
      "geometry": {
         "type": "Point",
         "coordinates": [-38.2191944,-9.4513605]
      }
    },
    {
      "type": "Feature",
      "properties": { 
      "IBGE:COD_UNICO_ENDERECO": "191723915",
      "addr:housenumber": "773 A",
      "addr:postcode": "48610-404",
      "addr:street": "Rua Santa Teresinha",
      "addr:suburb": "Cardeal Brandão Vilela",
      "building": "yes"
      },
      "geometry": {
         "type": "Point",
         "coordinates": [-38.2284665,-9.4490494]
      }
    },
    {
      "type": "Feature",
      "properties": { 
      "IBGE:COD_UNICO_ENDERECO": "27420700",
      "addr:housenumber": "18",
      "addr:postcode": "48610-432",
      "addr:street": "Rua São Cristóvão",
      "addr:suburb": "Cardeal Brandão Vilela",
      "building": "yes"
      },
      "geometry": {
         "type": "Point",
         "coordinates": [-38.2211156,-9.4488353]
      }
    },
    {
      "type": "Feature",
      "properties": { 
      "IBGE:COD_UNICO_ENDERECO": "27420663",
      "addr:housenumber": "1",
      "addr:postcode": "48610-412",
      "addr:street": "Rua Wilson Pereira",
      "addr:suburb": "Cardeal Brandão Vilela",
      "addr:unit": "Loja",
      "building": "yes"
      },
      "geometry": {
         "type": "Point",
         "coordinates": [-38.2214089,-9.4475713]
      }
    },
    {
      "type": "Feature",
      "properties": { 
      "IBGE:COD_UNICO_ENDERECO": "27420613",
      "addr:housenumber": "136",
      "addr:postcode": "48610-480",
      "addr:street": "Rua Peró Vaz",
      "addr:suburb": "Cardeal Brandão Vilela",
      "addr:unit": "Habitação",
      "building": "yes"
      },
      "geometry": {
         "type": "Point",
         "coordinates": [-38.227296,-9.4494485]
      }
    },
    {
      "type": "Feature",
      "properties": { 
      "IBGE:COD_UNICO_ENDERECO": "191724244",
      "addr:housenumber": "292",
      "addr:postcode": "48610-568",
      "addr:street": "Rua Sagrada Família",
      "addr:suburb": "Cardeal Brandão Vilela",
      "building": "yes",
      "fixme": "Verificar coordenadas",
      "note": "Sem face no bayface do IBGE 0500-0145P-20-2"
      },
      "geometry": {
         "type": "Point",
         "coordinates": [-38.218847,-9.451207]
      }
    },
    {
      "type": "Feature",
      "properties": { 
      "IBGE:COD_UNICO_ENDERECO": "191724017",
      "addr:housenumber": "174",
      "addr:postcode": "48610-456",
      "addr:street": "Rua Apolônio Sales",
      "addr:suburb": "Cardeal Brandão Vilela",
      "building": "yes"
      },
      "geometry": {
         "type": "Point",
         "coordinates": [-38.2273221,-9.4490418]
      }
    },
    {
      "type": "Feature",
      "properties": { 
      "IBGE:COD_UNICO_ENDERECO": "27420742",
      "addr:housenumber": "30",
      "addr:postcode": "48610-568",
      "addr:street": "Rua Sagrada Família",
      "addr:suburb": "Cardeal Brandão Vilela",
      "building": "yes",
      "fixme": "Verificar coordenadas",
      "note": "Sem setor ou quadra no bayface do IBGE 0500-0145P-19-2"
      },
      "geometry": {
         "type": "Point",
         "coordinates": [-38.219476,-9.449086]
      }
    },
    {
      "type": "Feature",
      "properties": { 
      "IBGE:COD_UNICO_ENDERECO": "27420580",
      "addr:housenumber": "194",
      "addr:postcode": "48610-456",
      "addr:street": "Rua Apolônio Sales",
      "addr:suburb": "Cardeal Brandão Vilela",
      "building": "yes"
      },
      "geometry": {
         "type": "Point",
         "coordinates": [-38.227414,-9.4488745]
      }
    },
    {
      "type": "Feature",
      "properties": { 
      "IBGE:COD_UNICO_ENDERECO": "191723944",
      "addr:housenumber": "543",
      "addr:postcode": "48610-404",
      "addr:street": "Rua Santa Teresinha",
      "addr:suburb": "Cardeal Brandão Vilela",
      "building": "yes"
      },
      "geometry": {
         "type": "Point",
         "coordinates": [-38.2265717,-9.4481671]
      }
    },
    {
      "type": "Feature",
      "properties": { 
      "IBGE:COD_UNICO_ENDERECO": "27420788",
      "addr:housenumber": "1",
      "addr:postcode": "48610-560",
      "addr:street": "Rua Felipe Camarão",
      "addr:suburb": "Cardeal Brandão Vilela",
      "building": "yes",
      "fixme": "Verificar coordenadas",
      "note": "Sem dados para mover para dentro da quadra 0500-0145P-20-4"
      },
      "geometry": {
         "type": "Point",
         "coordinates": [-38.2194287,-9.4505933]
      }
    },
    {
      "type": "Feature",
      "properties": { 
      "IBGE:COD_UNICO_ENDERECO": "27420601",
      "addr:housenumber": "1846",
      "addr:postcode": "48609-024",
      "addr:street": "Rodovia BA-210",
      "addr:suburb": "Cardeal Brandão Vilela",
      "building": "yes",
      "name": "Sabor do Tempero"
      },
      "geometry": {
         "type": "Point",
         "coordinates": [-38.2210739,-9.4476292]
      }
    },
    {
      "type": "Feature",
      "properties": { 
      "IBGE:COD_UNICO_ENDERECO": "27420680",
      "addr:housenumber": "164 Térreo",
      "addr:postcode": "48608-590",
      "addr:street": "Rua São Cristóvão",
      "addr:suburb": "Cardeal Brandão Vilela",
      "building": "yes"
      },
      "geometry": {
         "type": "Point",
         "coordinates": [-38.2212518,-9.4491936]
      }
    },
    {
      "type": "Feature",
      "properties": { 
      "IBGE:COD_UNICO_ENDERECO": "27420703",
      "addr:housenumber": "23",
      "addr:postcode": "48610-432",
      "addr:street": "Rua São Cristóvão",
      "addr:suburb": "Cardeal Brandão Vilela",
      "building": "yes"
      },
      "geometry": {
         "type": "Point",
         "coordinates": [-38.2213106,-9.4484595]
      }
    },
    {
      "type": "Feature",
      "properties": { 
      "IBGE:COD_UNICO_ENDERECO": "27420605",
      "addr:housenumber": "811",
      "addr:postcode": "48610-404",
      "addr:street": "Rua Santa Teresinha",
      "addr:suburb": "Cardeal Brandão Vilela",
      "building": "yes",
      "name": "Mercadinho Ls",
      "shop": "convenience"
      },
      "geometry": {
         "type": "Point",
         "coordinates": [-38.2286889,-9.449153]
      }
    },
    {
      "type": "Feature",
      "properties": { 
      "IBGE:COD_UNICO_ENDERECO": "27420747",
      "addr:housenumber": "156",
      "addr:postcode": "48610-568",
      "addr:street": "Rua Sagrada Família",
      "addr:suburb": "Cardeal Brandão Vilela",
      "building": "yes",
      "fixme": "Verificar coordenadas",
      "note": "Sem setor ou quadra no bayface do IBGE 0500-0145P-19-2"
      },
      "geometry": {
         "type": "Point",
         "coordinates": [-38.219184,-9.449946]
      }
    },
    {
      "type": "Feature",
      "properties": { 
      "IBGE:COD_UNICO_ENDERECO": "27420581",
      "addr:housenumber": "15",
      "addr:postcode": "48610-408",
      "addr:street": "Rua São Geraldo",
      "addr:suburb": "Cardeal Brandão Vilela",
      "building": "yes",
      "description": "CNEFE 2022 Sem Nome"
      },
      "geometry": {
         "type": "Point",
         "coordinates": [-38.2233146,-9.4479526]
      }
    },
    {
      "type": "Feature",
      "properties": { 
      "IBGE:COD_UNICO_ENDERECO": "27420625",
      "addr:housenumber": "245",
      "addr:postcode": "48610-456",
      "addr:street": "Rua Apolônio Sales",
      "addr:suburb": "Cardeal Brandão Vilela",
      "building": "yes"
      },
      "geometry": {
         "type": "Point",
         "coordinates": [-38.2280275,-9.4493708]
      }
    },
    {
      "type": "Feature",
      "properties": { 
      "IBGE:COD_UNICO_ENDERECO": "27420745",
      "addr:housenumber": "86",
      "addr:postcode": "48610-568",
      "addr:street": "Rua Sagrada Família",
      "addr:suburb": "Cardeal Brandão Vilela",
      "building": "yes",
      "fixme": "Verificar coordenadas",
      "note": "Sem setor ou quadra no bayface do IBGE 0500-0145P-19-2"
      },
      "geometry": {
         "type": "Point",
         "coordinates": [-38.219319,-9.449527]
      }
    },
    {
      "type": "Feature",
      "properties": { 
      "IBGE:COD_UNICO_ENDERECO": "27420789",
      "addr:housenumber": "2",
      "addr:postcode": "48610-560",
      "addr:street": "Rua Felipe Camarão",
      "addr:suburb": "Cardeal Brandão Vilela",
      "building": "yes",
      "fixme": "Verificar coordenadas",
      "note": "Sem dados para mover para dentro da quadra 0500-0145P-20-4"
      },
      "geometry": {
         "type": "Point",
         "coordinates": [-38.2194066,-9.4506654]
      }
    },
    {
      "type": "Feature",
      "properties": { 
      "IBGE:COD_UNICO_ENDERECO": "27420705",
      "addr:housenumber": "115",
      "addr:postcode": "48610-432",
      "addr:street": "Rua São Cristóvão",
      "addr:suburb": "Cardeal Brandão Vilela",
      "building": "yes"
      },
      "geometry": {
         "type": "Point",
         "coordinates": [-38.2212152,-9.44857]
      }
    },
    {
      "type": "Feature",
      "properties": { 
      "IBGE:COD_UNICO_ENDERECO": "191724242",
      "addr:housenumber": "258",
      "addr:postcode": "48610-568",
      "addr:street": "Rua Sagrada Família",
      "addr:suburb": "Cardeal Brandão Vilela",
      "building": "yes",
      "fixme": "Verificar coordenadas",
      "name": "Supermercado Boa Sorte",
      "note": "Sem face no bayface do IBGE 0500-0145P-20-2",
      "shop": "supermarket"
      },
      "geometry": {
         "type": "Point",
         "coordinates": [-38.218939,-9.450891]
      }
    },
    {
      "type": "Feature",
      "properties": { 
      "IBGE:COD_UNICO_ENDERECO": "27420790",
      "addr:housenumber": "3",
      "addr:postcode": "48610-560",
      "addr:street": "Rua Felipe Camarão",
      "addr:suburb": "Cardeal Brandão Vilela",
      "building": "yes",
      "fixme": "Verificar coordenadas",
      "note": "Sem dados para mover para dentro da quadra 0500-0145P-20-4"
      },
      "geometry": {
         "type": "Point",
         "coordinates": [-38.2193884,-9.4507252]
      }
    },
    {
      "type": "Feature",
      "properties": { 
      "IBGE:COD_UNICO_ENDERECO": "27420733",
      "addr:housenumber": "504",
      "addr:postcode": "48610-412",
      "addr:street": "Rua Wilson Pereira",
      "addr:suburb": "Cardeal Brandão Vilela",
      "building": "yes"
      },
      "geometry": {
         "type": "Point",
         "coordinates": [-38.2244696,-9.448969]
      }
    },
    {
      "type": "Feature",
      "properties": { 
      "IBGE:COD_UNICO_ENDERECO": "27420756",
      "addr:housenumber": "298",
      "addr:postcode": "48610-568",
      "addr:street": "Rua Sagrada Família",
      "addr:suburb": "Cardeal Brandão Vilela",
      "building": "yes",
      "fixme": "Verificar coordenadas",
      "note": "Sem face no bayface do IBGE 0500-0145P-20-2"
      },
      "geometry": {
         "type": "Point",
         "coordinates": [-38.218853,-9.451356]
      }
    },
    {
      "type": "Feature",
      "properties": { 
      "IBGE:COD_UNICO_ENDERECO": "191724255",
      "addr:housenumber": "338",
      "addr:postcode": "48610-568",
      "addr:street": "Rua Sagrada Família",
      "addr:suburb": "Cardeal Brandão Vilela",
      "building": "yes",
      "fixme": "Verificar coordenadas",
      "note": "Sem face no bayface do IBGE 0500-0145P-20-2"
      },
      "geometry": {
         "type": "Point",
         "coordinates": [-38.218741,-9.45156]
      }
    },
    {
      "type": "Feature",
      "properties": { 
      "IBGE:COD_UNICO_ENDERECO": "191724220",
      "addr:housenumber": "212",
      "addr:postcode": "48610-568",
      "addr:street": "Rua Sagrada Família",
      "addr:suburb": "Cardeal Brandão Vilela",
      "building": "yes",
      "fixme": "Verificar coordenadas",
      "note": "Sem face no bayface do IBGE 0500-0145P-20-2"
      },
      "geometry": {
         "type": "Point",
         "coordinates": [-38.219049,-9.450547]
      }
    },
    {
      "type": "Feature",
      "properties": { 
      "IBGE:COD_UNICO_ENDERECO": "27420642",
      "addr:housenumber": "442",
      "addr:postcode": "48610-428",
      "addr:street": "Rua Nova Glória",
      "addr:suburb": "Cardeal Brandão Vilela",
      "building": "yes"
      },
      "geometry": {
         "type": "Point",
         "coordinates": [-38.2238359,-9.4492045]
      }
    },
    {
      "type": "Feature",
      "properties": { 
      "IBGE:COD_UNICO_ENDERECO": "27420704",
      "addr:housenumber": "115",
      "addr:postcode": "48610-432",
      "addr:street": "Rua São Cristóvão",
      "addr:suburb": "Cardeal Brandão Vilela",
      "building": "yes",
      "fixme": "Verificar coordenadas",
      "name": "Oficina JK",
      "note": "Fora da área de projeção da face 0500-0145P-17-1"
      },
      "geometry": {
         "type": "Point",
         "coordinates": [-38.221476,-9.448349]
      }
    },
    {
      "type": "Feature",
      "properties": { 
      "IBGE:COD_UNICO_ENDERECO": "27420575",
      "addr:housenumber": "88",
      "addr:postcode": "48610-456",
      "addr:street": "Rua Apolônio Sales",
      "addr:suburb": "Cardeal Brandão Vilela",
      "building": "yes"
      },
      "geometry": {
         "type": "Point",
         "coordinates": [-38.2266309,-9.4485113]
      }
    },
    {
      "type": "Feature",
      "properties": { 
      "IBGE:COD_UNICO_ENDERECO": "27420740",
      "addr:housenumber": "2",
      "addr:postcode": "48609-024",
      "addr:street": "Rodovia BA-210",
      "addr:suburb": "Cardeal Brandão Vilela",
      "addr:unit": "Fundos",
      "building": "construction",
      "fixme": "Verificar coordenadas",
      "note": "Sem setor ou quadra no bayface do IBGE 0500-0145P-19-1"
      },
      "geometry": {
         "type": "Point",
         "coordinates": [-38.219623,-9.448585]
      }
    },
    {
      "type": "Feature",
      "properties": { 
      "IBGE:COD_UNICO_ENDERECO": "27420785",
      "addr:housenumber": "6",
      "addr:postcode": "48610-560",
      "addr:street": "Rua Felipe Camarão",
      "addr:suburb": "Cardeal Brandão Vilela",
      "building": "yes",
      "fixme": "Verificar coordenadas",
      "note": "Sem dados para mover para dentro da quadra 0500-0145P-20-4"
      },
      "geometry": {
         "type": "Point",
         "coordinates": [-38.2194224,-9.450614]
      }
    },
    {
      "type": "Feature",
      "properties": { 
      "IBGE:COD_UNICO_ENDERECO": "27420732",
      "addr:housenumber": "66",
      "addr:postcode": "48610-428",
      "addr:street": "Rua Nova Glória",
      "addr:suburb": "Cardeal Brandão Vilela",
      "building": "yes"
      },
      "geometry": {
         "type": "Point",
         "coordinates": [-38.2204442,-9.4495105]
      }
    },
    {
      "type": "Feature",
      "properties": { 
      "IBGE:COD_UNICO_ENDERECO": "27420572",
      "addr:housenumber": "92",
      "addr:postcode": "48610-428",
      "addr:street": "Rua Nova Glória",
      "addr:suburb": "Cardeal Brandão Vilela",
      "building": "yes"
      },
      "geometry": {
         "type": "Point",
         "coordinates": [-38.2206528,-9.4494929]
      }
    },
    {
      "type": "Feature",
      "properties": { 
      "IBGE:COD_UNICO_ENDERECO": "191723924",
      "addr:housenumber": "733 B",
      "addr:postcode": "48610-404",
      "addr:street": "Rua Santa Teresinha",
      "addr:suburb": "Cardeal Brandão Vilela",
      "building": "yes"
      },
      "geometry": {
         "type": "Point",
         "coordinates": [-38.2281346,-9.4488949]
      }
    },
    {
      "type": "Feature",
      "properties": { 
      "IBGE:COD_UNICO_ENDERECO": "191724045",
      "addr:housenumber": "215 A",
      "addr:postcode": "48610-456",
      "addr:street": "Rua Apolônio Sales",
      "addr:suburb": "Cardeal Brandão Vilela",
      "building": "yes"
      },
      "geometry": {
         "type": "Point",
         "coordinates": [-38.2277021,-9.4492191]
      }
    },
    {
      "type": "Feature",
      "properties": { 
      "IBGE:COD_UNICO_ENDERECO": "191723983",
      "addr:housenumber": "192",
      "addr:postcode": "48610-480",
      "addr:street": "Rua Peró Vaz",
      "addr:suburb": "Cardeal Brandão Vilela",
      "building": "yes"
      },
      "geometry": {
         "type": "Point",
         "coordinates": [-38.2278562,-9.4496856]
      }
    },
    {
      "type": "Feature",
      "properties": { 
      "IBGE:COD_UNICO_ENDERECO": "191724148",
      "addr:housenumber": "11",
      "addr:postcode": "48610-412",
      "addr:street": "Rua Wilson Pereira",
      "addr:suburb": "Cardeal Brandão Vilela",
      "building": "yes",
      "name": "Néo Tech"
      },
      "geometry": {
         "type": "Point",
         "coordinates": [-38.2215536,-9.4477909]
      }
    },
    {
      "type": "Feature",
      "properties": { 
      "IBGE:COD_UNICO_ENDERECO": "27420722",
      "addr:housenumber": "3",
      "addr:postcode": "48610-424",
      "addr:street": "Rua Arcoverde",
      "addr:suburb": "Cardeal Brandão Vilela",
      "addr:unit": "Entrada",
      "building": "yes"
      },
      "geometry": {
         "type": "Point",
         "coordinates": [-38.2208307,-9.4490319]
      }
    },
    {
      "type": "Feature",
      "properties": { 
      "IBGE:COD_UNICO_ENDERECO": "27420744",
      "addr:housenumber": "68",
      "addr:postcode": "48610-568",
      "addr:street": "Rua Sagrada Família",
      "addr:suburb": "Cardeal Brandão Vilela",
      "building": "yes",
      "fixme": "Verificar coordenadas",
      "note": "Sem setor ou quadra no bayface do IBGE 0500-0145P-19-2"
      },
      "geometry": {
         "type": "Point",
         "coordinates": [-38.219438,-9.449401]
      }
    },
    {
      "type": "Feature",
      "properties": { 
      "IBGE:COD_UNICO_ENDERECO": "27420711",
      "addr:housenumber": "75 B",
      "addr:postcode": "48610-420",
      "addr:street": "Rua São Roque",
      "addr:suburb": "Cardeal Brandão Vilela",
      "building": "yes"
      },
      "geometry": {
         "type": "Point",
         "coordinates": [-38.2207769,-9.4484825]
      }
    },
    {
      "type": "Feature",
      "properties": { 
      "IBGE:COD_UNICO_ENDERECO": "27420664",
      "addr:housenumber": "8",
      "addr:postcode": "48610-412",
      "addr:street": "Rua Wilson Pereira",
      "addr:suburb": "Cardeal Brandão Vilela",
      "building": "yes"
      },
      "geometry": {
         "type": "Point",
         "coordinates": [-38.2214233,-9.4475767]
      }
    },
    {
      "type": "Feature",
      "properties": { 
      "IBGE:COD_UNICO_ENDERECO": "27420608",
      "addr:housenumber": "660",
      "addr:postcode": "48610-428",
      "addr:street": "Rua Nova Glória",
      "addr:suburb": "Cardeal Brandão Vilela",
      "building": "yes"
      },
      "geometry": {
         "type": "Point",
         "coordinates": [-38.225804,-9.449089]
      }
    },
    {
      "type": "Feature",
      "properties": { 
      "IBGE:COD_UNICO_ENDERECO": "27420763",
      "addr:housenumber": "258",
      "addr:postcode": "48610-568",
      "addr:street": "Rua Sagrada Família",
      "addr:suburb": "Cardeal Brandão Vilela",
      "building": "yes",
      "fixme": "Verificar coordenadas",
      "note": "Sem face no bayface do IBGE 0500-0145P-20-2"
      },
      "geometry": {
         "type": "Point",
         "coordinates": [-38.219002,-9.450978]
      }
    },
    {
      "type": "Feature",
      "properties": { 
      "IBGE:COD_UNICO_ENDERECO": "27420782",
      "addr:housenumber": "1",
      "addr:postcode": "48610-560",
      "addr:street": "Rua Felipe Camarão",
      "addr:suburb": "Cardeal Brandão Vilela",
      "building": "yes",
      "description": "CNEFE 2022 Sem Nome",
      "fixme": "Verificar coordenadas",
      "note": "Sem dados para mover para dentro da quadra 0500-0145P-20-4"
      },
      "geometry": {
         "type": "Point",
         "coordinates": [-38.2189505,-9.4521589]
      }
    },
    {
      "type": "Feature",
      "properties": { 
      "IBGE:COD_UNICO_ENDERECO": "27420660",
      "addr:housenumber": "63",
      "addr:postcode": "48609-024",
      "addr:street": "Rodovia BA-210",
      "addr:suburb": "Cardeal Brandão Vilela",
      "amenity": "fast_food",
      "building": "yes",
      "name": "Bellos Hamburgueria Artesanal"
      },
      "geometry": {
         "type": "Point",
         "coordinates": [-38.2213924,-9.447523]
      }
    },
    {
      "type": "Feature",
      "properties": { 
      "IBGE:COD_UNICO_ENDERECO": "191724024",
      "addr:housenumber": "352",
      "addr:postcode": "48610-456",
      "addr:street": "Rua Apolônio Sales",
      "addr:suburb": "Cardeal Brandão Vilela",
      "building": "yes",
      "name": "Estúdio de Beleza Mônica Narques",
      "shop": "beauty"
      },
      "geometry": {
         "type": "Point",
         "coordinates": [-38.2271317,-9.448953]
      }
    },
    {
      "type": "Feature",
      "properties": { 
      "IBGE:COD_UNICO_ENDERECO": "27420765",
      "addr:housenumber": "320",
      "addr:postcode": "48610-200",
      "addr:suburb": "Cardeal Brandão Vilela",
      "building": "yes"
      },
      "geometry": {
         "type": "Point",
         "coordinates": [-38.2238576,-9.4490013]
      }
    },
    {
      "type": "Feature",
      "properties": { 
      "IBGE:COD_UNICO_ENDERECO": "27420764",
      "addr:housenumber": "258 Térreo",
      "addr:postcode": "48610-568",
      "addr:street": "Rua Sagrada Família",
      "addr:suburb": "Cardeal Brandão Vilela",
      "building": "yes",
      "fixme": "Verificar coordenadas",
      "name": "Mercadinho Boa Sorte",
      "note": "Sem face no bayface do IBGE 0500-0145P-20-2",
      "shop": "convenience"
      },
      "geometry": {
         "type": "Point",
         "coordinates": [-38.218915,-9.451048]
      }
    },
    {
      "type": "Feature",
      "properties": { 
      "IBGE:COD_UNICO_ENDERECO": "27420702",
      "addr:housenumber": "16",
      "addr:postcode": "48610-432",
      "addr:street": "Rua São Cristóvão",
      "addr:suburb": "Cardeal Brandão Vilela",
      "addr:unit": "Cômodo 1",
      "building": "yes"
      },
      "geometry": {
         "type": "Point",
         "coordinates": [-38.2211205,-9.4488453]
      }
    },
    {
      "type": "Feature",
      "properties": { 
      "IBGE:COD_UNICO_ENDERECO": "191723941",
      "addr:housenumber": "549",
      "addr:postcode": "48610-404",
      "addr:street": "Rua Santa Teresinha",
      "addr:suburb": "Cardeal Brandão Vilela",
      "building": "yes"
      },
      "geometry": {
         "type": "Point",
         "coordinates": [-38.2265488,-9.4481565]
      }
    },
    {
      "type": "Feature",
      "properties": { 
      "IBGE:COD_UNICO_ENDERECO": "27420576",
      "addr:housenumber": "110",
      "addr:postcode": "48610-456",
      "addr:street": "Rua Apolônio Sales",
      "addr:suburb": "Cardeal Brandão Vilela",
      "building": "yes"
      },
      "geometry": {
         "type": "Point",
         "coordinates": [-38.2267493,-9.4485662]
      }
    },
    {
      "type": "Feature",
      "properties": { 
      "IBGE:COD_UNICO_ENDERECO": "27420701",
      "addr:housenumber": "238",
      "addr:postcode": "48610-428",
      "addr:street": "Rua Nova Glória",
      "addr:suburb": "Cardeal Brandão Vilela",
      "building": "yes"
      },
      "geometry": {
         "type": "Point",
         "coordinates": [-38.2221203,-9.4493689]
      }
    },
    {
      "type": "Feature",
      "properties": { 
      "IBGE:COD_UNICO_ENDERECO": "27420641",
      "addr:housenumber": "570",
      "addr:postcode": "48610-412",
      "addr:street": "Rua Wilson Pereira",
      "addr:suburb": "Cardeal Brandão Vilela",
      "building": "yes"
      },
      "geometry": {
         "type": "Point",
         "coordinates": [-38.2247392,-9.4490369]
      }
    },
    {
      "type": "Feature",
      "properties": { 
      "IBGE:COD_UNICO_ENDERECO": "27420750",
      "addr:housenumber": "16",
      "addr:postcode": "48610-560",
      "addr:street": "Rua Felipe Camarão",
      "addr:suburb": "Cardeal Brandão Vilela",
      "building": "construction",
      "fixme": "Verificar coordenadas",
      "note": "Sem setor ou quadra no bayface do IBGE 0500-0145P-19-5"
      },
      "geometry": {
         "type": "Point",
         "coordinates": [-38.219686,-9.449798]
      }
    },
    {
      "type": "Feature",
      "properties": { 
      "IBGE:COD_UNICO_ENDERECO": "27420730",
      "addr:housenumber": "42",
      "addr:postcode": "48610-428",
      "addr:street": "Rua Nova Glória",
      "addr:suburb": "Cardeal Brandão Vilela",
      "addr:unit": "Casa",
      "building": "yes"
      },
      "geometry": {
         "type": "Point",
         "coordinates": [-38.2202155,-9.4495298]
      }
    },
    {
      "type": "Feature",
      "properties": { 
      "IBGE:COD_UNICO_ENDERECO": "27420751",
      "addr:housenumber": "133",
      "addr:postcode": "48610-560",
      "addr:street": "Rua Felipe Camarão",
      "addr:suburb": "Cardeal Brandão Vilela",
      "building": "yes",
      "fixme": "Verificar coordenadas",
      "note": "Sem setor ou quadra no bayface do IBGE 0500-0145P-19-5"
      },
      "geometry": {
         "type": "Point",
         "coordinates": [-38.219815,-9.449518]
      }
    },
    {
      "type": "Feature",
      "properties": { 
      "IBGE:COD_UNICO_ENDERECO": "27420774",
      "addr:housenumber": "419",
      "addr:postcode": "48610-560",
      "addr:street": "Rua Felipe Camarão",
      "addr:suburb": "Cardeal Brandão Vilela",
      "building": "yes",
      "fixme": "Verificar coordenadas",
      "note": "Sem dados para mover para dentro da quadra 0500-0145P-20-4"
      },
      "geometry": {
         "type": "Point",
         "coordinates": [-38.218955658254,-9.4521113955181]
      }
    },
    {
      "type": "Feature",
      "properties": { 
      "IBGE:COD_UNICO_ENDERECO": "27420640",
      "addr:housenumber": "578",
      "addr:postcode": "48610-412",
      "addr:street": "Rua Wilson Pereira",
      "addr:suburb": "Cardeal Brandão Vilela",
      "addr:unit": "Loja",
      "building": "yes"
      },
      "geometry": {
         "type": "Point",
         "coordinates": [-38.2248578,-9.4490753]
      }
    },
    {
      "type": "Feature",
      "properties": { 
      "IBGE:COD_UNICO_ENDERECO": "27420647",
      "addr:housenumber": "210",
      "addr:postcode": "48610-412",
      "addr:street": "Rua Wilson Pereira",
      "addr:suburb": "Cardeal Brandão Vilela",
      "building": "yes"
      },
      "geometry": {
         "type": "Point",
         "coordinates": [-38.2231383,-9.4482579]
      }
    },
    {
      "type": "Feature",
      "properties": { 
      "IBGE:COD_UNICO_ENDERECO": "27420629",
      "addr:housenumber": "213",
      "addr:postcode": "48610-456",
      "addr:street": "Rua Apolônio Sales",
      "addr:suburb": "Cardeal Brandão Vilela",
      "building": "yes"
      },
      "geometry": {
         "type": "Point",
         "coordinates": [-38.227655,-9.4491971]
      }
    },
    {
      "type": "Feature",
      "properties": { 
      "IBGE:COD_UNICO_ENDERECO": "27420775",
      "addr:housenumber": "415",
      "addr:postcode": "48610-560",
      "addr:street": "Rua Felipe Camarão",
      "addr:suburb": "Cardeal Brandão Vilela",
      "building": "yes",
      "fixme": "Verificar coordenadas",
      "name": "Disk Tem",
      "note": "Sem dados para mover para dentro da quadra 0500-0145P-20-4"
      },
      "geometry": {
         "type": "Point",
         "coordinates": [-38.218997645293,-9.4520472579953]
      }
    },
    {
      "type": "Feature",
      "properties": { 
      "IBGE:COD_UNICO_ENDERECO": "191723978",
      "addr:housenumber": "175",
      "addr:postcode": "48610-480",
      "addr:street": "Rua Peró Vaz",
      "addr:suburb": "Cardeal Brandão Vilela",
      "building": "yes"
      },
      "geometry": {
         "type": "Point",
         "coordinates": [-38.2276988,-9.449619]
      }
    },
    {
      "type": "Feature",
      "properties": { 
      "IBGE:COD_UNICO_ENDERECO": "27420630",
      "addr:housenumber": "309 A",
      "addr:postcode": "48610-456",
      "addr:street": "Rua Apolônio Sales",
      "addr:suburb": "Cardeal Brandão Vilela",
      "building": "yes"
      },
      "geometry": {
         "type": "Point",
         "coordinates": [-38.2284296,-9.4495584]
      }
    },
    {
      "type": "Feature",
      "properties": { 
      "IBGE:COD_UNICO_ENDERECO": "191723888",
      "addr:housenumber": "134",
      "addr:postcode": "48610-456",
      "addr:street": "Rua Apolônio Sales",
      "addr:suburb": "Cardeal Brandão Vilela",
      "building": "yes"
      },
      "geometry": {
         "type": "Point",
         "coordinates": [-38.2268687,-9.4486216]
      }
    },
    {
      "type": "Feature",
      "properties": { 
      "IBGE:COD_UNICO_ENDERECO": "27420719",
      "addr:housenumber": "74",
      "addr:postcode": "48610-424",
      "addr:street": "Rua Arcoverde",
      "addr:suburb": "Cardeal Brandão Vilela",
      "building": "yes"
      },
      "geometry": {
         "type": "Point",
         "coordinates": [-38.2206858,-9.4488961]
      }
    },
    {
      "type": "Feature",
      "properties": { 
      "IBGE:COD_UNICO_ENDERECO": "27420654",
      "addr:housenumber": "50",
      "addr:postcode": "48610-408",
      "addr:street": "Rua São Geraldo",
      "addr:suburb": "Cardeal Brandão Vilela",
      "addr:unit": "Loja 2",
      "building": "yes",
      "name": "Movelaria sem Nome",
      "shop": "furniture"
      },
      "geometry": {
         "type": "Point",
         "coordinates": [-38.2219433,-9.4474216]
      }
    },
    {
      "type": "Feature",
      "properties": { 
      "IBGE:COD_UNICO_ENDERECO": "191723972",
      "addr:housenumber": "52 B",
      "addr:postcode": "48610-480",
      "addr:street": "Rua Peró Vaz",
      "addr:suburb": "Cardeal Brandão Vilela",
      "building": "yes"
      },
      "geometry": {
         "type": "Point",
         "coordinates": [-38.2274894,-9.4495303]
      }
    },
    {
      "type": "Feature",
      "properties": { 
      "IBGE:COD_UNICO_ENDERECO": "27420669",
      "addr:housenumber": "13",
      "addr:postcode": "48610-412",
      "addr:street": "Rua Wilson Pereira",
      "addr:suburb": "Cardeal Brandão Vilela",
      "building": "yes",
      "name": "Toda Vaidosa"
      },
      "geometry": {
         "type": "Point",
         "coordinates": [-38.2217936,-9.447727]
      }
    },
    {
      "type": "Feature",
      "properties": { 
      "IBGE:COD_UNICO_ENDERECO": "27420599",
      "addr:housenumber": "7",
      "addr:postcode": "48610-200",
      "addr:street": "Travessa Wilson Pereira",
      "addr:suburb": "Cardeal Brandão Vilela",
      "addr:unit": "Casa A",
      "building": "yes",
      "name": "Adega da Bety",
      "shop": "wine"
      },
      "geometry": {
         "type": "Point",
         "coordinates": [-38.2232814,-9.4481862]
      }
    },
    {
      "type": "Feature",
      "properties": { 
      "IBGE:COD_UNICO_ENDERECO": "27420635",
      "addr:housenumber": "143",
      "addr:postcode": "48610-456",
      "addr:street": "Rua Apolônio Sales",
      "addr:suburb": "Cardeal Brandão Vilela",
      "building": "yes"
      },
      "geometry": {
         "type": "Point",
         "coordinates": [-38.2270474,-9.4489136]
      }
    },
    {
      "type": "Feature",
      "properties": { 
      "IBGE:COD_UNICO_ENDERECO": "27420753",
      "addr:housenumber": "77",
      "addr:postcode": "48610-560",
      "addr:street": "Rua Felipe Camarão",
      "addr:suburb": "Cardeal Brandão Vilela",
      "building": "yes",
      "fixme": "Verificar coordenadas",
      "note": "Sem setor ou quadra no bayface do IBGE 0500-0145P-19-5"
      },
      "geometry": {
         "type": "Point",
         "coordinates": [-38.219849,-9.449181]
      }
    },
    {
      "type": "Feature",
      "properties": { 
      "IBGE:COD_UNICO_ENDERECO": "27420627",
      "addr:housenumber": "235",
      "addr:postcode": "48610-456",
      "addr:street": "Rua Apolônio Sales",
      "addr:suburb": "Cardeal Brandão Vilela",
      "building": "yes"
      },
      "geometry": {
         "type": "Point",
         "coordinates": [-38.2278822,-9.4493031]
      }
    },
    {
      "type": "Feature",
      "properties": { 
      "IBGE:COD_UNICO_ENDERECO": "27420754",
      "addr:housenumber": "77 A",
      "addr:postcode": "48610-560",
      "addr:street": "Rua Felipe Camarão",
      "addr:suburb": "Cardeal Brandão Vilela",
      "building": "yes",
      "fixme": "Verificar coordenadas",
      "note": "Sem setor ou quadra no bayface do IBGE 0500-0145P-19-5"
      },
      "geometry": {
         "type": "Point",
         "coordinates": [-38.219827,-9.448973]
      }
    },
    {
      "type": "Feature",
      "properties": { 
      "IBGE:COD_UNICO_ENDERECO": "27420670",
      "addr:housenumber": "36",
      "addr:postcode": "48610-412",
      "addr:street": "Rua Wilson Pereira",
      "addr:suburb": "Cardeal Brandão Vilela",
      "addr:unit": "Casa",
      "building": "construction"
      },
      "geometry": {
         "type": "Point",
         "coordinates": [-38.2216503,-9.4476687]
      }
    },
    {
      "type": "Feature",
      "properties": { 
      "IBGE:COD_UNICO_ENDERECO": "27420595",
      "addr:housenumber": "10",
      "addr:postcode": "48610-200",
      "addr:street": "Travessa Wilson Pereira",
      "addr:suburb": "Cardeal Brandão Vilela",
      "building": "yes",
      "description": "CNEFE 2022 Sem Nome"
      },
      "geometry": {
         "type": "Point",
         "coordinates": [-38.2233129,-9.4480995]
      }
    },
    {
      "type": "Feature",
      "properties": { 
      "IBGE:COD_UNICO_ENDERECO": "27420737",
      "addr:housenumber": "321",
      "addr:postcode": "48610-200",
      "addr:suburb": "Cardeal Brandão Vilela",
      "building": "yes"
      },
      "geometry": {
         "type": "Point",
         "coordinates": [-38.2238804,-9.4489485]
      }
    },
    {
      "type": "Feature",
      "properties": { 
      "IBGE:COD_UNICO_ENDERECO": "27420573",
      "addr:housenumber": "22",
      "addr:postcode": "48610-456",
      "addr:street": "Rua Apolônio Sales",
      "addr:suburb": "Cardeal Brandão Vilela",
      "building": "yes"
      },
      "geometry": {
         "type": "Point",
         "coordinates": [-38.2285064,-9.4493813]
      }
    },
    {
      "type": "Feature",
      "properties": { 
      "IBGE:COD_UNICO_ENDERECO": "27420658",
      "addr:housenumber": "303",
      "addr:postcode": "48610-408",
      "addr:street": "Rua São Geraldo",
      "addr:suburb": "Cardeal Brandão Vilela",
      "building": "yes",
      "name": "Clubr de Tiro Esportivo"
      },
      "geometry": {
         "type": "Point",
         "coordinates": [-38.2225913,-9.4476811]
      }
    },
    {
      "type": "Feature",
      "properties": { 
      "IBGE:COD_UNICO_ENDERECO": "27420786",
      "addr:housenumber": "5",
      "addr:postcode": "48610-560",
      "addr:street": "Rua Felipe Camarão",
      "addr:suburb": "Cardeal Brandão Vilela",
      "building": "yes",
      "fixme": "Verificar coordenadas",
      "note": "Sem dados para mover para dentro da quadra 0500-0145P-20-4"
      },
      "geometry": {
         "type": "Point",
         "coordinates": [-38.2194099,-9.4506548]
      }
    },
    {
      "type": "Feature",
      "properties": { 
      "IBGE:COD_UNICO_ENDERECO": "27420712",
      "addr:housenumber": "23",
      "addr:postcode": "48610-420",
      "addr:street": "Rua São Roque",
      "addr:suburb": "Cardeal Brandão Vilela",
      "addr:unit": "Fundos",
      "building": "yes",
      "name": "Borracharia Alagoana",
      "repair": "yes",
      "shop": "tyres"
      },
      "geometry": {
         "type": "Point",
         "coordinates": [-38.2203348,-9.4485528]
      }
    },
    {
      "type": "Feature",
      "properties": { 
      "IBGE:COD_UNICO_ENDERECO": "27420617",
      "addr:housenumber": "182",
      "addr:postcode": "48610-480",
      "addr:street": "Rua Peró Vaz",
      "addr:suburb": "Cardeal Brandão Vilela",
      "building": "yes"
      },
      "geometry": {
         "type": "Point",
         "coordinates": [-38.227767,-9.4496479]
      }
    },
    {
      "type": "Feature",
      "properties": { 
      "IBGE:COD_UNICO_ENDERECO": "27420720",
      "addr:housenumber": "12",
      "addr:postcode": "48610-428",
      "addr:street": "Rua Nova Glória",
      "addr:suburb": "Cardeal Brandão Vilela",
      "building": "yes"
      },
      "geometry": {
         "type": "Point",
         "coordinates": [-38.2200515,-9.4495437]
      }
    },
    {
      "type": "Feature",
      "properties": { 
      "IBGE:COD_UNICO_ENDERECO": "27420623",
      "addr:housenumber": "309",
      "addr:postcode": "48610-456",
      "addr:street": "Rua Apolônio Sales",
      "addr:suburb": "Cardeal Brandão Vilela",
      "building": "yes"
      },
      "geometry": {
         "type": "Point",
         "coordinates": [-38.2283041,-9.4494999]
      }
    },
    {
      "type": "Feature",
      "properties": { 
      "IBGE:COD_UNICO_ENDERECO": "27420585",
      "addr:housenumber": "793",
      "addr:postcode": "48610-404",
      "addr:street": "Rua Santa Teresinha",
      "addr:suburb": "Cardeal Brandão Vilela",
      "building": "yes"
      },
      "geometry": {
         "type": "Point",
         "coordinates": [-38.2286482,-9.449134]
      }
    },
    {
      "type": "Feature",
      "properties": { 
      "IBGE:COD_UNICO_ENDERECO": "191723919",
      "addr:housenumber": "705",
      "addr:postcode": "48610-404",
      "addr:street": "Rua Santa Teresinha",
      "addr:suburb": "Cardeal Brandão Vilela",
      "building": "yes"
      },
      "geometry": {
         "type": "Point",
         "coordinates": [-38.2278877,-9.4487799]
      }
    },
    {
      "type": "Feature",
      "properties": { 
      "IBGE:COD_UNICO_ENDERECO": "27420707",
      "addr:housenumber": "99",
      "addr:postcode": "48610-420",
      "addr:street": "Rua São Roque",
      "addr:suburb": "Cardeal Brandão Vilela",
      "building": "yes"
      },
      "geometry": {
         "type": "Point",
         "coordinates": [-38.2211947,-9.4484551]
      }
    },
    {
      "type": "Feature",
      "properties": { 
      "IBGE:COD_UNICO_ENDERECO": "27420647",
      "addr:housenumber": "210",
      "addr:postcode": "48610-412",
      "addr:street": "Rua Wilson Pereira",
      "addr:suburb": "Cardeal Brandão Vilela",
      "amenity": "pub",
      "building": "yes",
      "name": "Bar Familiar"
      },
      "geometry": {
         "type": "Point",
         "coordinates": [-38.223133765998,-9.4482729276867]
      }
    },
    {
      "type": "Feature",
      "properties": { 
      "IBGE:COD_UNICO_ENDERECO": "191723990",
      "addr:housenumber": "332",
      "addr:postcode": "48610-480",
      "addr:street": "Rua Peró Vaz",
      "addr:suburb": "Cardeal Brandão Vilela",
      "building": "yes"
      },
      "geometry": {
         "type": "Point",
         "coordinates": [-38.228375,-9.4499063]
      }
    },
    {
      "type": "Feature",
      "properties": { 
      "IBGE:COD_UNICO_ENDERECO": "27420648",
      "addr:housenumber": "220",
      "addr:postcode": "48610-412",
      "addr:street": "Rua Wilson Pereira",
      "addr:suburb": "Cardeal Brandão Vilela",
      "building": "construction"
      },
      "geometry": {
         "type": "Point",
         "coordinates": [-38.22296,-9.4481908]
      }
    },
    {
      "type": "Feature",
      "properties": { 
      "IBGE:COD_UNICO_ENDERECO": "27420680",
      "addr:housenumber": "164 Térreo",
      "addr:postcode": "48608-590",
      "addr:street": "Rua São Cristóvão",
      "addr:suburb": "Cardeal Brandão Vilela",
      "building": "yes",
      "name": "Mercadinho Padre Cícero",
      "shop": "convenience"
      },
      "geometry": {
         "type": "Point",
         "coordinates": [-38.221254402257,-9.4491904994432]
      }
    },
    {
      "type": "Feature",
      "properties": { 
      "IBGE:COD_UNICO_ENDERECO": "191723917",
      "addr:housenumber": "717",
      "addr:postcode": "48610-404",
      "addr:street": "Rua Santa Teresinha",
      "addr:suburb": "Cardeal Brandão Vilela",
      "building": "yes"
      },
      "geometry": {
         "type": "Point",
         "coordinates": [-38.2279695,-9.448818]
      }
    },
    {
      "type": "Feature",
      "properties": { 
      "IBGE:COD_UNICO_ENDERECO": "191724247",
      "addr:housenumber": "310",
      "addr:postcode": "48610-568",
      "addr:street": "Rua Sagrada Família",
      "addr:suburb": "Cardeal Brandão Vilela",
      "building": "yes",
      "fixme": "Verificar coordenadas",
      "note": "Sem face no bayface do IBGE 0500-0145P-20-2"
      },
      "geometry": {
         "type": "Point",
         "coordinates": [-38.218773,-9.451357]
      }
    },
    {
      "type": "Feature",
      "properties": { 
      "IBGE:COD_UNICO_ENDERECO": "27420735",
      "addr:housenumber": "319",
      "addr:postcode": "48610-412",
      "addr:street": "Rua Wilson Pereira",
      "addr:suburb": "Cardeal Brandão Vilela",
      "building": "yes"
      },
      "geometry": {
         "type": "Point",
         "coordinates": [-38.223969,-9.4487573]
      }
    },
    {
      "type": "Feature",
      "properties": { 
      "IBGE:COD_UNICO_ENDERECO": "27420743",
      "addr:housenumber": "46",
      "addr:postcode": "48610-568",
      "addr:street": "Rua Sagrada Família",
      "addr:suburb": "Cardeal Brandão Vilela",
      "building": "yes",
      "fixme": "Verificar coordenadas",
      "note": "Sem setor ou quadra no bayface do IBGE 0500-0145P-19-2"
      },
      "geometry": {
         "type": "Point",
         "coordinates": [-38.219461376422,-9.4490939347967]
      }
    },
    {
      "type": "Feature",
      "properties": { 
      "IBGE:COD_UNICO_ENDERECO": "27420779",
      "addr:housenumber": "5",
      "addr:postcode": "48610-560",
      "addr:street": "Rua Felipe Camarão",
      "addr:suburb": "Cardeal Brandão Vilela",
      "building": "yes",
      "fixme": "Verificar coordenadas",
      "name": "Estabelecimento sem Nome",
      "note": "Sem dados para mover para dentro da quadra 0500-0145P-20-4"
      },
      "geometry": {
         "type": "Point",
         "coordinates": [-38.2191661,-9.4514531]
      }
    },
    {
      "type": "Feature",
      "properties": { 
      "IBGE:COD_UNICO_ENDERECO": "27420713",
      "addr:housenumber": "1",
      "addr:postcode": "48610-560",
      "addr:street": "Rua Felipe Camarão",
      "addr:suburb": "Cardeal Brandão Vilela",
      "addr:unit": "Fundos",
      "building": "yes",
      "name": "Oficina Alagoana"
      },
      "geometry": {
         "type": "Point",
         "coordinates": [-38.2202047,-9.4485153]
      }
    },
    {
      "type": "Feature",
      "properties": { 
      "IBGE:COD_UNICO_ENDERECO": "27420632",
      "addr:housenumber": "207",
      "addr:postcode": "48610-456",
      "addr:street": "Rua Apolônio Sales",
      "addr:suburb": "Cardeal Brandão Vilela",
      "building": "yes"
      },
      "geometry": {
         "type": "Point",
         "coordinates": [-38.2275499,-9.4491481]
      }
    },
    {
      "type": "Feature",
      "properties": { 
      "IBGE:COD_UNICO_ENDERECO": "191723975",
      "addr:housenumber": "164",
      "addr:postcode": "48610-480",
      "addr:street": "Rua Peró Vaz",
      "addr:suburb": "Cardeal Brandão Vilela",
      "building": "yes"
      },
      "geometry": {
         "type": "Point",
         "coordinates": [-38.2275197,-9.4495432]
      }
    },
    {
      "type": "Feature",
      "properties": { 
      "IBGE:COD_UNICO_ENDERECO": "27420615",
      "addr:housenumber": "142",
      "addr:postcode": "48610-480",
      "addr:street": "Rua Peró Vaz",
      "addr:suburb": "Cardeal Brandão Vilela",
      "building": "yes"
      },
      "geometry": {
         "type": "Point",
         "coordinates": [-38.2273731,-9.4494811]
      }
    },
    {
      "type": "Feature",
      "properties": { 
      "IBGE:COD_UNICO_ENDERECO": "27420621",
      "addr:housenumber": "230",
      "addr:postcode": "48610-480",
      "addr:street": "Rua Peró Vaz",
      "addr:suburb": "Cardeal Brandão Vilela",
      "building": "yes"
      },
      "geometry": {
         "type": "Point",
         "coordinates": [-38.2282153,-9.4498376]
      }
    },
    {
      "type": "Feature",
      "properties": { 
      "IBGE:COD_UNICO_ENDERECO": "191724030",
      "addr:housenumber": "125",
      "addr:postcode": "48610-456",
      "addr:street": "Rua Apolônio Sales",
      "addr:suburb": "Cardeal Brandão Vilela",
      "building": "yes"
      },
      "geometry": {
         "type": "Point",
         "coordinates": [-38.2268578,-9.4488252]
      }
    },
    {
      "type": "Feature",
      "properties": { 
      "IBGE:COD_UNICO_ENDERECO": "27420649",
      "addr:housenumber": "7",
      "addr:postcode": "48610-412",
      "addr:street": "Rua Wilson Pereira",
      "addr:suburb": "Cardeal Brandão Vilela",
      "building": "yes"
      },
      "geometry": {
         "type": "Point",
         "coordinates": [-38.2232105,-9.4482979]
      }
    },
    {
      "type": "Feature",
      "properties": { 
      "IBGE:COD_UNICO_ENDERECO": "27420708",
      "addr:housenumber": "95",
      "addr:postcode": "48610-420",
      "addr:street": "Rua São Roque",
      "addr:suburb": "Cardeal Brandão Vilela",
      "building": "yes"
      },
      "geometry": {
         "type": "Point",
         "coordinates": [-38.2210364,-9.448473]
      }
    },
    {
      "type": "Feature",
      "properties": { 
      "IBGE:COD_UNICO_ENDERECO": "27420590",
      "addr:housenumber": "35",
      "addr:postcode": "48608-590",
      "addr:street": "Rua São Cristóvão",
      "addr:suburb": "Cardeal Brandão Vilela",
      "building": "yes"
      },
      "geometry": {
         "type": "Point",
         "coordinates": [-38.2212583,-9.4494099]
      }
    },
    {
      "type": "Feature",
      "properties": { 
      "IBGE:COD_UNICO_ENDERECO": "27420741",
      "addr:housenumber": "3",
      "addr:postcode": "48609-024",
      "addr:street": "Rodovia BA-210",
      "addr:suburb": "Cardeal Brandão Vilela",
      "addr:unit": "Fundos",
      "building": "construction",
      "fixme": "Verificar coordenadas",
      "note": "Sem setor ou quadra no bayface do IBGE 0500-0145P-19-1"
      },
      "geometry": {
         "type": "Point",
         "coordinates": [-38.219623,-9.448602]
      }
    },
    {
      "type": "Feature",
      "properties": { 
      "IBGE:COD_UNICO_ENDERECO": "27420723",
      "addr:housenumber": "64",
      "addr:postcode": "48610-424",
      "addr:street": "Rua Arcoverde",
      "addr:suburb": "Cardeal Brandão Vilela",
      "building": "construction"
      },
      "geometry": {
         "type": "Point",
         "coordinates": [-38.2205904,-9.4489091]
      }
    },
    {
      "type": "Feature",
      "properties": { 
      "IBGE:COD_UNICO_ENDERECO": "191724281",
      "addr:housenumber": "373",
      "addr:postcode": "48610-560",
      "addr:street": "Rua Felipe Camarão",
      "addr:suburb": "Cardeal Brandão Vilela",
      "building": "yes",
      "fixme": "Verificar coordenadas",
      "note": "Sem dados para mover para dentro da quadra 0500-0145P-20-4"
      },
      "geometry": {
         "type": "Point",
         "coordinates": [-38.2190856,-9.4517164]
      }
    },
    {
      "type": "Feature",
      "properties": { 
      "IBGE:COD_UNICO_ENDERECO": "27420738",
      "addr:housenumber": "136",
      "addr:postcode": "48610-428",
      "addr:street": "Rua Nova Glória",
      "addr:suburb": "Cardeal Brandão Vilela",
      "building": "yes"
      },
      "geometry": {
         "type": "Point",
         "coordinates": [-38.2210926,-9.4494703]
      }
    },
    {
      "type": "Feature",
      "properties": { 
      "IBGE:COD_UNICO_ENDERECO": "27420752",
      "addr:housenumber": "91",
      "addr:postcode": "48610-560",
      "addr:street": "Rua Felipe Camarão",
      "addr:suburb": "Cardeal Brandão Vilela",
      "building": "yes",
      "fixme": "Verificar coordenadas",
      "note": "Sem setor ou quadra no bayface do IBGE 0500-0145P-19-5"
      },
      "geometry": {
         "type": "Point",
         "coordinates": [-38.219804,-9.449303]
      }
    },
    {
      "type": "Feature",
      "properties": { 
      "IBGE:COD_UNICO_ENDERECO": "27420612",
      "addr:housenumber": "102",
      "addr:postcode": "48610-480",
      "addr:street": "Rua Peró Vaz",
      "addr:suburb": "Cardeal Brandão Vilela",
      "building": "yes"
      },
      "geometry": {
         "type": "Point",
         "coordinates": [-38.2267685,-9.4492251]
      }
    },
    {
      "type": "Feature",
      "properties": { 
      "IBGE:COD_UNICO_ENDERECO": "191723988",
      "addr:housenumber": "205",
      "addr:postcode": "48610-480",
      "addr:street": "Rua Peró Vaz",
      "addr:suburb": "Cardeal Brandão Vilela",
      "building": "yes"
      },
      "geometry": {
         "type": "Point",
         "coordinates": [-38.228031,-9.4497596]
      }
    },
    {
      "type": "Feature",
      "properties": { 
      "IBGE:COD_UNICO_ENDERECO": "27420628",
      "addr:housenumber": "215",
      "addr:postcode": "48610-456",
      "addr:street": "Rua Apolônio Sales",
      "addr:suburb": "Cardeal Brandão Vilela",
      "building": "yes"
      },
      "geometry": {
         "type": "Point",
         "coordinates": [-38.2277546,-9.4492435]
      }
    },
    {
      "type": "Feature",
      "properties": { 
      "IBGE:COD_UNICO_ENDERECO": "191723894",
      "addr:housenumber": "16",
      "addr:postcode": "48610-456",
      "addr:street": "Rua Apolônio Sales",
      "addr:suburb": "Cardeal Brandão Vilela",
      "building": "yes"
      },
      "geometry": {
         "type": "Point",
         "coordinates": [-38.2279586,-9.4491272]
      }
    },
    {
      "type": "Feature",
      "properties": { 
      "IBGE:COD_UNICO_ENDERECO": "27420762",
      "addr:housenumber": "39",
      "addr:postcode": "48610-404",
      "addr:street": "Rua Santa Teresinha",
      "addr:suburb": "Cardeal Brandão Vilela",
      "amenity": "fast_food",
      "building": "yes",
      "cuisine": "empanada",
      "name": "Pastelaria Stop"
      },
      "geometry": {
         "type": "Point",
         "coordinates": [-38.2272589,-9.4484871]
      }
    },
    {
      "type": "Feature",
      "properties": { 
      "IBGE:COD_UNICO_ENDERECO": "27420637",
      "addr:housenumber": "115",
      "addr:postcode": "48610-456",
      "addr:street": "Rua Apolônio Sales",
      "addr:suburb": "Cardeal Brandão Vilela",
      "building": "yes"
      },
      "geometry": {
         "type": "Point",
         "coordinates": [-38.2268259,-9.4488103]
      }
    },
    {
      "type": "Feature",
      "properties": { 
      "IBGE:COD_UNICO_ENDERECO": "27420787",
      "addr:housenumber": "4",
      "addr:postcode": "48610-560",
      "addr:street": "Rua Felipe Camarão",
      "addr:suburb": "Cardeal Brandão Vilela",
      "building": "yes",
      "fixme": "Verificar coordenadas",
      "note": "Sem dados para mover para dentro da quadra 0500-0145P-20-4"
      },
      "geometry": {
         "type": "Point",
         "coordinates": [-38.2194104,-9.4506531]
      }
    },
    {
      "type": "Feature",
      "properties": { 
      "IBGE:COD_UNICO_ENDERECO": "27420653",
      "addr:housenumber": "57 A",
      "addr:postcode": "48610-408",
      "addr:street": "Rua São Geraldo",
      "addr:suburb": "Cardeal Brandão Vilela",
      "building": "yes",
      "name": "Oficina Águia Bick"
      },
      "geometry": {
         "type": "Point",
         "coordinates": [-38.221999,-9.4474439]
      }
    },
    {
      "type": "Feature",
      "properties": { 
      "IBGE:COD_UNICO_ENDERECO": "191724035",
      "addr:housenumber": "89",
      "addr:postcode": "48610-456",
      "addr:street": "Rua Apolônio Sales",
      "addr:suburb": "Cardeal Brandão Vilela",
      "building": "yes"
      },
      "geometry": {
         "type": "Point",
         "coordinates": [-38.2266572,-9.4487316]
      }
    },
    {
      "type": "Feature",
      "properties": { 
      "IBGE:COD_UNICO_ENDERECO": "191724283",
      "addr:housenumber": "186",
      "addr:postcode": "48610-560",
      "addr:street": "Rua Felipe Camarão",
      "addr:suburb": "Cardeal Brandão Vilela",
      "building": "yes",
      "description": "CNEFE 2022 Sem Nome",
      "fixme": "Verificar coordenadas",
      "note": "Sem dados para mover para dentro da quadra 0500-0145P-20-4"
      },
      "geometry": {
         "type": "Point",
         "coordinates": [-38.2189574,-9.4521376]
      }
    },
    {
      "type": "Feature",
      "properties": { 
      "IBGE:COD_UNICO_ENDERECO": "27420783",
      "addr:housenumber": "8",
      "addr:postcode": "48610-560",
      "addr:street": "Rua Felipe Camarão",
      "addr:suburb": "Cardeal Brandão Vilela",
      "building": "yes",
      "fixme": "Verificar coordenadas",
      "note": "Sem dados para mover para dentro da quadra 0500-0145P-20-4"
      },
      "geometry": {
         "type": "Point",
         "coordinates": [-38.219402,-9.4506807]
      }
    },
    {
      "type": "Feature",
      "properties": { 
      "IBGE:COD_UNICO_ENDERECO": "27420610",
      "addr:housenumber": "5",
      "addr:postcode": "48610-428",
      "addr:street": "Rua Nova Glória",
      "addr:suburb": "Cardeal Brandão Vilela",
      "addr:unit": "Habitação",
      "building": "construction"
      },
      "geometry": {
         "type": "Point",
         "coordinates": [-38.226015431646,-9.4490882963619]
      }
    }
  ]
}
