{
  "type": "FeatureCollection",
  "source": "IBGE CNEFE + Faces de Logradouros - 2022",
  "generator": "CSV-CNEFE2GeoJSON.lua 1.5.7 - fidelis.assis@gmail.com",
  "date": "2025-02-02T09:05:29-0300",
  "features": [
    {
      "type": "Feature",
      "properties": { 
      "IBGE:COD_UNICO_ENDERECO": "191883913",
      "addr:housenumber": "106",
      "addr:postcode": "48619-899",
      "addr:street": "Povoado Macambira",
      "addr:suburb": "Paulo Afonso Macambira",
      "building": "yes",
      "fixme": "Verificar coordenadas",
      "note": "Sem setor ou quadra no bayface do IBGE 0500-0111P-0-91"
      },
      "geometry": {
         "type": "Point",
         "coordinates": [-38.371508,-9.50923]
      }
    },
    {
      "type": "Feature",
      "properties": { 
      "IBGE:COD_UNICO_ENDERECO": "191883844",
      "addr:housenumber": "55",
      "addr:postcode": "48619-899",
      "addr:street": "Povoado Macambira",
      "addr:suburb": "Paulo Afonso Macambira",
      "building": "yes",
      "fixme": "Verificar coordenadas",
      "name": "Associação de Moradores",
      "note": "Sem setor ou quadra no bayface do IBGE 0500-0111P-0-91",
      "office": "association"
      },
      "geometry": {
         "type": "Point",
         "coordinates": [-38.370299,-9.505821]
      }
    },
    {
      "type": "Feature",
      "properties": { 
      "IBGE:COD_UNICO_ENDERECO": "112581105",
      "addr:housenumber": "44",
      "addr:postcode": "48619-899",
      "addr:street": "Estrada da Macambira",
      "addr:suburb": "Paulo Afonso Macambira",
      "building": "yes",
      "fixme": "Verificar coordenadas",
      "note": "Sem setor ou quadra no bayface do IBGE 0500-0097P-0-56"
      },
      "geometry": {
         "type": "Point",
         "coordinates": [-38.368337,-9.505683]
      }
    },
    {
      "type": "Feature",
      "properties": { 
      "IBGE:COD_UNICO_ENDERECO": "191883880",
      "addr:housenumber": "32",
      "addr:postcode": "48619-899",
      "addr:street": "Povoado Macambira",
      "addr:suburb": "Paulo Afonso Macambira",
      "amenity": "pub",
      "building": "yes",
      "description": "CNEFE 2022 Bar",
      "fixme": "Verificar coordenadas",
      "note": "Sem setor ou quadra no bayface do IBGE 0500-0111P-0-91"
      },
      "geometry": {
         "type": "Point",
         "coordinates": [-38.371104,-9.508157]
      }
    },
    {
      "type": "Feature",
      "properties": { 
      "IBGE:COD_UNICO_ENDERECO": "191883909",
      "addr:housenumber": "6",
      "addr:postcode": "48619-899",
      "addr:street": "Povoado Macambira",
      "addr:suburb": "Paulo Afonso Macambira",
      "building": "yes",
      "fixme": "Verificar coordenadas",
      "note": "Sem setor ou quadra no bayface do IBGE 0500-0111P-0-91"
      },
      "geometry": {
         "type": "Point",
         "coordinates": [-38.371407,-9.50906]
      }
    },
    {
      "type": "Feature",
      "properties": { 
      "IBGE:COD_UNICO_ENDERECO": "191720603",
      "addr:housenumber": "32",
      "addr:postcode": "48619-899",
      "addr:street": "Povoado Macambira",
      "addr:suburb": "Paulo Afonso Macambira",
      "building": "yes",
      "fixme": "Verificar coordenadas",
      "note": "Sem setor ou quadra no bayface do IBGE 0500-0097P-0-54"
      },
      "geometry": {
         "type": "Point",
         "coordinates": [-38.370782,-9.507667]
      }
    },
    {
      "type": "Feature",
      "properties": { 
      "IBGE:COD_UNICO_ENDERECO": "191720609",
      "addr:housenumber": "323",
      "addr:postcode": "48619-899",
      "addr:street": "Povoado Macambira",
      "addr:suburb": "Paulo Afonso Macambira",
      "building": "yes",
      "fixme": "Verificar coordenadas",
      "hairdresser": "barber",
      "name": "Barbearia Seu Danilo",
      "note": "Sem setor ou quadra no bayface do IBGE 0500-0097P-0-54",
      "shop": "hairdresser"
      },
      "geometry": {
         "type": "Point",
         "coordinates": [-38.37055,-9.507007]
      }
    },
    {
      "type": "Feature",
      "properties": { 
      "IBGE:COD_UNICO_ENDERECO": "112587693",
      "addr:housenumber": "222",
      "addr:postcode": "48619-899",
      "addr:street": "Estrada Estrada Serrote Paulo Afonso",
      "addr:suburb": "Paulo Afonso Macambira",
      "building": "yes",
      "fixme": "Verificar coordenadas",
      "note": "Sem setor ou quadra no bayface do IBGE 0500-0111P-0-94"
      },
      "geometry": {
         "type": "Point",
         "coordinates": [-38.384086,-9.520718]
      }
    },
    {
      "type": "Feature",
      "properties": { 
      "IBGE:COD_UNICO_ENDERECO": "191884102",
      "addr:housenumber": "12",
      "addr:postcode": "48610-488",
      "addr:street": "Povoado Macambira",
      "addr:suburb": "Paulo Afonso Macambira",
      "building": "yes",
      "fixme": "Verificar coordenadas",
      "note": "Sem setor ou quadra no bayface do IBGE 0500-0111P-0-125"
      },
      "geometry": {
         "type": "Point",
         "coordinates": [-38.377222,-9.510568]
      }
    },
    {
      "type": "Feature",
      "properties": { 
      "IBGE:COD_UNICO_ENDERECO": "191720616",
      "addr:housenumber": "1094",
      "addr:postcode": "48619-899",
      "addr:street": "Povoado Macambira",
      "addr:suburb": "Paulo Afonso Macambira",
      "addr:unit": "Porteira",
      "building": "yes",
      "fixme": "Verificar coordenadas",
      "note": "Sem setor ou quadra no bayface do IBGE 0500-0097P-0-54"
      },
      "geometry": {
         "type": "Point",
         "coordinates": [-38.368092,-9.493227]
      }
    },
    {
      "type": "Feature",
      "properties": { 
      "IBGE:COD_UNICO_ENDERECO": "191883923",
      "addr:housenumber": "91",
      "addr:postcode": "48619-899",
      "addr:street": "Povoado Macambira",
      "addr:suburb": "Paulo Afonso Macambira",
      "building": "construction",
      "fixme": "Verificar coordenadas",
      "note": "Sem setor ou quadra no bayface do IBGE 0500-0111P-0-91"
      },
      "geometry": {
         "type": "Point",
         "coordinates": [-38.371586,-9.509617]
      }
    },
    {
      "type": "Feature",
      "properties": { 
      "IBGE:COD_UNICO_ENDERECO": "112587648",
      "addr:housenumber": "34343",
      "addr:postcode": "48619-899",
      "addr:street": "Estrada Estrada Serrote Paulo Afonso",
      "addr:suburb": "Paulo Afonso Macambira",
      "building": "yes",
      "fixme": "Verificar coordenadas",
      "note": "Sem setor ou quadra no bayface do IBGE 0500-0111P-0-94"
      },
      "geometry": {
         "type": "Point",
         "coordinates": [-38.368179,-9.493179]
      }
    },
    {
      "type": "Feature",
      "properties": { 
      "IBGE:COD_UNICO_ENDERECO": "27412982",
      "addr:housenumber": "6 Fundos Cobertura Lado Esquerdo",
      "addr:postcode": "48619-899",
      "addr:street": "Povoado Macambira",
      "addr:suburb": "Paulo Afonso Macambira",
      "building": "yes",
      "fixme": "Verificar coordenadas",
      "note": "Sem setor ou quadra no bayface do IBGE 0500-0111P-0-91"
      },
      "geometry": {
         "type": "Point",
         "coordinates": [-38.371637,-9.509835]
      }
    },
    {
      "type": "Feature",
      "properties": { 
      "IBGE:COD_UNICO_ENDERECO": "191883921",
      "addr:housenumber": "9",
      "addr:postcode": "48619-899",
      "addr:street": "Povoado Macambira",
      "addr:suburb": "Paulo Afonso Macambira",
      "amenity": "place_of_worship",
      "building": "yes",
      "description": "CNEFE 2022 Igreja",
      "fixme": "Verificar coordenadas",
      "note": "Sem setor ou quadra no bayface do IBGE 0500-0111P-0-91"
      },
      "geometry": {
         "type": "Point",
         "coordinates": [-38.371578,-9.50952]
      }
    },
    {
      "type": "Feature",
      "properties": { 
      "IBGE:COD_UNICO_ENDERECO": "191883873",
      "addr:housenumber": "4",
      "addr:postcode": "48619-899",
      "addr:street": "Povoado Macambira",
      "addr:suburb": "Paulo Afonso Macambira",
      "building": "yes",
      "fixme": "Verificar coordenadas",
      "note": "Sem setor ou quadra no bayface do IBGE 0500-0111P-0-91"
      },
      "geometry": {
         "type": "Point",
         "coordinates": [-38.370877,-9.507614]
      }
    },
    {
      "type": "Feature",
      "properties": { 
      "IBGE:COD_UNICO_ENDERECO": "191720612",
      "addr:housenumber": "408",
      "addr:postcode": "48619-899",
      "addr:street": "Povoado Macambira",
      "addr:suburb": "Paulo Afonso Macambira",
      "addr:unit": "Cisterna",
      "building": "yes",
      "fixme": "Verificar coordenadas",
      "note": "Sem setor ou quadra no bayface do IBGE 0500-0097P-0-54"
      },
      "geometry": {
         "type": "Point",
         "coordinates": [-38.36844,-9.494703]
      }
    },
    {
      "type": "Feature",
      "properties": { 
      "IBGE:COD_UNICO_ENDERECO": "191720606",
      "addr:housenumber": "322",
      "addr:postcode": "48619-899",
      "addr:street": "Povoado Macambira",
      "addr:suburb": "Paulo Afonso Macambira",
      "building": "yes",
      "fixme": "Verificar coordenadas",
      "note": "Sem setor ou quadra no bayface do IBGE 0500-0097P-0-54"
      },
      "geometry": {
         "type": "Point",
         "coordinates": [-38.370625,-9.507225]
      }
    },
    {
      "type": "Feature",
      "properties": { 
      "IBGE:COD_UNICO_ENDERECO": "27412979;27412989;191883852",
      "addr:housenumber": "1",
      "addr:postcode": "48619-899",
      "addr:street": "Povoado Macambira",
      "addr:suburb": "Paulo Afonso Macambira",
      "building": "yes",
      "fixme": "Verificar coordenadas",
      "note": "Sem setor ou quadra no bayface do IBGE 0500-0111P-0-91"
      },
      "geometry": {
         "type": "Point",
         "coordinates": [-38.371553,-9.5082317]
      }
    },
    {
      "type": "Feature",
      "properties": { 
      "IBGE:COD_UNICO_ENDERECO": "27412985",
      "addr:housenumber": "321",
      "addr:postcode": "48619-899",
      "addr:street": "Povoado Macambira",
      "addr:suburb": "Paulo Afonso Macambira",
      "building": "construction",
      "fixme": "Verificar coordenadas",
      "note": "Sem setor ou quadra no bayface do IBGE 0500-0097P-0-54"
      },
      "geometry": {
         "type": "Point",
         "coordinates": [-38.370827,-9.507607]
      }
    },
    {
      "type": "Feature",
      "properties": { 
      "IBGE:COD_UNICO_ENDERECO": "191883865",
      "addr:housenumber": "3",
      "addr:postcode": "48619-899",
      "addr:street": "Povoado Macambira",
      "addr:suburb": "Paulo Afonso Macambira",
      "building": "yes",
      "fixme": "Verificar coordenadas",
      "note": "Sem setor ou quadra no bayface do IBGE 0500-0111P-0-91"
      },
      "geometry": {
         "type": "Point",
         "coordinates": [-38.370811,-9.50744]
      }
    },
    {
      "type": "Feature",
      "properties": { 
      "IBGE:COD_UNICO_ENDERECO": "112587641",
      "addr:housenumber": "555",
      "addr:postcode": "48619-899",
      "addr:street": "Estrada Estrada Serrote Paulo Afonso",
      "addr:suburb": "Paulo Afonso Macambira",
      "building": "yes",
      "fixme": "Verificar coordenadas",
      "note": "Sem setor ou quadra no bayface do IBGE 0500-0111P-0-94"
      },
      "geometry": {
         "type": "Point",
         "coordinates": [-38.368165,-9.493207]
      }
    },
    {
      "type": "Feature",
      "properties": { 
      "IBGE:COD_UNICO_ENDERECO": "191883917",
      "addr:housenumber": "8",
      "addr:postcode": "48619-899",
      "addr:street": "Povoado Macambira",
      "addr:suburb": "Paulo Afonso Macambira",
      "building": "yes",
      "fixme": "Verificar coordenadas",
      "note": "Sem setor ou quadra no bayface do IBGE 0500-0111P-0-91"
      },
      "geometry": {
         "type": "Point",
         "coordinates": [-38.371513,-9.509294]
      }
    },
    {
      "type": "Feature",
      "properties": { 
      "IBGE:COD_UNICO_ENDERECO": "27412982",
      "addr:housenumber": "6 Fundos Cobertura Lado Esquerdo",
      "addr:postcode": "48619-899",
      "addr:street": "Povoado Macambira",
      "addr:suburb": "Paulo Afonso Macambira",
      "building": "yes",
      "fixme": "Verificar coordenadas",
      "name": "Cobertura para Animais",
      "note": "Sem setor ou quadra no bayface do IBGE 0500-0111P-0-91"
      },
      "geometry": {
         "type": "Point",
         "coordinates": [-38.371636955818,-9.5098351616562]
      }
    },
    {
      "type": "Feature",
      "properties": { 
      "IBGE:COD_UNICO_ENDERECO": "191883886",
      "addr:housenumber": "33",
      "addr:postcode": "48619-899",
      "addr:street": "Povoado Macambira",
      "addr:suburb": "Paulo Afonso Macambira",
      "building": "yes",
      "fixme": "Verificar coordenadas",
      "note": "Sem setor ou quadra no bayface do IBGE 0500-0111P-0-91"
      },
      "geometry": {
         "type": "Point",
         "coordinates": [-38.371188,-9.508278]
      }
    },
    {
      "type": "Feature",
      "properties": { 
      "IBGE:COD_UNICO_ENDERECO": "191883903",
      "addr:housenumber": "5",
      "addr:postcode": "48619-899",
      "addr:street": "Povoado Macambira",
      "addr:suburb": "Paulo Afonso Macambira",
      "building": "yes",
      "fixme": "Verificar coordenadas",
      "note": "Sem setor ou quadra no bayface do IBGE 0500-0111P-0-91"
      },
      "geometry": {
         "type": "Point",
         "coordinates": [-38.371347,-9.508637]
      }
    },
    {
      "type": "Feature",
      "properties": { 
      "IBGE:COD_UNICO_ENDERECO": "112586754",
      "addr:housenumber": "51",
      "addr:postcode": "48619-899",
      "addr:street": "Estrada Estrada Serrote Paulo Afonso",
      "addr:suburb": "Paulo Afonso Macambira",
      "building": "yes",
      "fixme": "Verificar coordenadas",
      "note": "Sem setor ou quadra no bayface do IBGE 0500-0111P-0-94"
      },
      "geometry": {
         "type": "Point",
         "coordinates": [-38.384302,-9.520887]
      }
    },
    {
      "type": "Feature",
      "properties": { 
      "IBGE:COD_UNICO_ENDERECO": "191883898",
      "addr:housenumber": "10",
      "addr:postcode": "48619-899",
      "addr:street": "Povoado Macambira",
      "addr:suburb": "Paulo Afonso Macambira",
      "building": "yes",
      "fixme": "Verificar coordenadas",
      "note": "Sem setor ou quadra no bayface do IBGE 0500-0111P-0-91"
      },
      "geometry": {
         "type": "Point",
         "coordinates": [-38.371615,-9.50826]
      }
    }
  ]
}
