{
  "type": "FeatureCollection",
  "source": "IBGE CNEFE + Faces de Logradouros - 2022",
  "generator": "CSV-CNEFE2GeoJSON.lua 1.5.7 - fidelis.assis@gmail.com",
  "date": "2025-02-02T09:05:13-0300",
  "features": [
    {
      "type": "Feature",
      "properties": { 
      "IBGE:COD_UNICO_ENDERECO": "27410136",
      "addr:housenumber": "33",
      "addr:postcode": "48619-899",
      "addr:street": "Povoado Campos Novos de Baixo",
      "addr:suburb": "Campos Novos",
      "building": "yes",
      "fixme": "Verificar coordenadas",
      "note": "Muito afastado da face: 122m 0500-0177P-1-17"
      },
      "geometry": {
         "type": "Point",
         "coordinates": [-38.320854,-9.447458]
      }
    },
    {
      "type": "Feature",
      "properties": { 
      "IBGE:COD_UNICO_ENDERECO": "27410137",
      "addr:housenumber": "31",
      "addr:postcode": "48619-899",
      "addr:street": "Povoado Campos Novos de Baixo",
      "addr:suburb": "Campos Novos",
      "building": "yes",
      "fixme": "Verificar coordenadas",
      "note": "Muito afastado da face: 98m 0500-0177P-1-17"
      },
      "geometry": {
         "type": "Point",
         "coordinates": [-38.320619,-9.447678]
      }
    },
    {
      "type": "Feature",
      "properties": { 
      "IBGE:COD_UNICO_ENDERECO": "27410137",
      "addr:housenumber": "31",
      "addr:postcode": "48619-899",
      "addr:street": "Povoado Campos Novos de Baixo",
      "addr:suburb": "Campos Novos",
      "amenity": "animal_breeding",
      "animal_breeding": "pig;poultry",
      "building": "sty",
      "fixme": "Verificar coordenadas",
      "name": "Criação Galinha e Porco",
      "note": "Muito afastado da face: 98m 0500-0177P-1-17"
      },
      "geometry": {
         "type": "Point",
         "coordinates": [-38.320618955826,-9.4476781616562]
      }
    },
    {
      "type": "Feature",
      "properties": { 
      "IBGE:COD_UNICO_ENDERECO": "192029697",
      "addr:housenumber": "134",
      "addr:postcode": "48619-899",
      "addr:street": "Povoado Campos Novos de Baixo",
      "addr:suburb": "Campos Novos",
      "building": "yes"
      },
      "geometry": {
         "type": "Point",
         "coordinates": [-38.3196516,-9.4487891]
      }
    },
    {
      "type": "Feature",
      "properties": { 
      "IBGE:COD_UNICO_ENDERECO": "27415292",
      "addr:housenumber": "8",
      "addr:postcode": "48619-899",
      "addr:street": "Povoado Campos Novos de Baixo",
      "addr:suburb": "Campos Novos",
      "building": "yes",
      "fixme": "Verificar coordenadas",
      "note": "Fora da área de projeção da face 0500-0177P-1-23"
      },
      "geometry": {
         "type": "Point",
         "coordinates": [-38.319425,-9.44423]
      }
    },
    {
      "type": "Feature",
      "properties": { 
      "IBGE:COD_UNICO_ENDERECO": "27415275",
      "addr:housenumber": "98",
      "addr:postcode": "48619-899",
      "addr:street": "Povoado Campos Novos de Baixo",
      "addr:suburb": "Campos Novos",
      "building": "yes"
      },
      "geometry": {
         "type": "Point",
         "coordinates": [-38.3212059,-9.4428348]
      }
    },
    {
      "type": "Feature",
      "properties": { 
      "IBGE:COD_UNICO_ENDERECO": "27415290",
      "addr:housenumber": "15",
      "addr:postcode": "48619-899",
      "addr:street": "Povoado Campos Novos de Baixo",
      "addr:suburb": "Campos Novos",
      "building": "warehouse",
      "description": "CNEFE 2022 Depósito de Máquina Agrícola",
      "fixme": "Verificar coordenadas",
      "note": "Fora da área de projeção da face 0500-0177P-1-22"
      },
      "geometry": {
         "type": "Point",
         "coordinates": [-38.319857,-9.443948]
      }
    },
    {
      "type": "Feature",
      "properties": { 
      "IBGE:COD_UNICO_ENDERECO": "27410127",
      "addr:housenumber": "66",
      "addr:postcode": "48619-899",
      "addr:street": "Estrada Sabina A Campos Novos de Baixo",
      "addr:suburb": "Campos Novos",
      "building": "yes"
      },
      "geometry": {
         "type": "Point",
         "coordinates": [-38.327832,-9.4455637]
      }
    },
    {
      "type": "Feature",
      "properties": { 
      "IBGE:COD_UNICO_ENDERECO": "27410123",
      "addr:housenumber": "13",
      "addr:postcode": "48619-899",
      "addr:street": "Estrada Sabina A Campos Novos de Baixo",
      "addr:suburb": "Campos Novos",
      "amenity": "animal_breeding",
      "animal_breeding": "poultry;sheep",
      "fixme": "Verificar coordenadas",
      "landuse": "farmyard",
      "name": "Criação de Galinhas e Ovelhas",
      "note": "Muito afastado da face: 58m 0500-0177P-1-4"
      },
      "geometry": {
         "type": "Point",
         "coordinates": [-38.321905,-9.444783]
      }
    },
    {
      "type": "Feature",
      "properties": { 
      "IBGE:COD_UNICO_ENDERECO": "27410130",
      "addr:housenumber": "38 A",
      "addr:postcode": "48619-899",
      "addr:street": "Povoado Campos Novos de Baixo",
      "addr:suburb": "Campos Novos",
      "building": "yes",
      "fixme": "Verificar coordenadas",
      "note": "Fora da área de projeção da face 0500-0177P-0-3"
      },
      "geometry": {
         "type": "Point",
         "coordinates": [-38.319895,-9.446782]
      }
    },
    {
      "type": "Feature",
      "properties": { 
      "IBGE:COD_UNICO_ENDERECO": "27410124",
      "addr:housenumber": "66",
      "addr:postcode": "48619-899",
      "addr:street": "Estrada Sabina A Campos Novos de Baixo",
      "addr:suburb": "Campos Novos",
      "building": "yes"
      },
      "geometry": {
         "type": "Point",
         "coordinates": [-38.3253216,-9.4453226]
      }
    },
    {
      "type": "Feature",
      "properties": { 
      "IBGE:COD_UNICO_ENDERECO": "27410130",
      "addr:housenumber": "38 A",
      "addr:postcode": "48619-899",
      "addr:street": "Povoado Campos Novos de Baixo",
      "addr:suburb": "Campos Novos",
      "amenity": "pub;restaurant",
      "building": "yes",
      "fixme": "Verificar coordenadas",
      "name": "Bar e Restaurante Recanto do Bode",
      "note": "Fora da área de projeção da face 0500-0177P-0-3"
      },
      "geometry": {
         "type": "Point",
         "coordinates": [-38.31988729855,-9.4467835613881]
      }
    },
    {
      "type": "Feature",
      "properties": { 
      "IBGE:COD_UNICO_ENDERECO": "27415287",
      "addr:housenumber": "49",
      "addr:postcode": "48619-899",
      "addr:street": "Povoado Campos Novos de Baixo",
      "addr:suburb": "Campos Novos",
      "addr:unit": "Fundos",
      "building": "yes"
      },
      "geometry": {
         "type": "Point",
         "coordinates": [-38.3201083,-9.4432413]
      }
    },
    {
      "type": "Feature",
      "properties": { 
      "IBGE:COD_UNICO_ENDERECO": "192029772",
      "addr:housenumber": "10 B",
      "addr:postcode": "48619-899",
      "addr:street": "Povoado Campos Novos de Baixo",
      "addr:suburb": "Campos Novos",
      "building": "yes"
      },
      "geometry": {
         "type": "Point",
         "coordinates": [-38.3198291,-9.448096]
      }
    },
    {
      "type": "Feature",
      "properties": { 
      "IBGE:COD_UNICO_ENDERECO": "27410110",
      "addr:housenumber": "98",
      "addr:postcode": "48619-899",
      "addr:street": "Estrada Sabina A Campos Novos de Baixo",
      "addr:suburb": "Campos Novos",
      "building": "yes",
      "fixme": "Verificar coordenadas",
      "note": "Muito afastado da face: 42m 0500-0177P-0-2"
      },
      "geometry": {
         "type": "Point",
         "coordinates": [-38.328947,-9.44102]
      }
    },
    {
      "type": "Feature",
      "properties": { 
      "IBGE:COD_UNICO_ENDERECO": "27415285",
      "addr:housenumber": "19",
      "addr:postcode": "48619-899",
      "addr:street": "Povoado Campos Novos de Baixo",
      "addr:suburb": "Campos Novos",
      "building": "yes",
      "fixme": "Verificar coordenadas",
      "note": "Muito afastado da face: 46m 0500-0177P-1-19"
      },
      "geometry": {
         "type": "Point",
         "coordinates": [-38.319818,-9.442829]
      }
    },
    {
      "type": "Feature",
      "properties": { 
      "IBGE:COD_UNICO_ENDERECO": "27415277",
      "addr:housenumber": "38",
      "addr:postcode": "48619-899",
      "addr:street": "Povoado Campos Novos de Baixo",
      "addr:suburb": "Campos Novos",
      "building": "yes"
      },
      "geometry": {
         "type": "Point",
         "coordinates": [-38.3210052,-9.4428553]
      }
    },
    {
      "type": "Feature",
      "properties": { 
      "IBGE:COD_UNICO_ENDERECO": "27415300",
      "addr:housenumber": "3",
      "addr:postcode": "48619-899",
      "addr:street": "Povoado Campos Novos de Baixo",
      "addr:suburb": "Campos Novos",
      "building": "yes",
      "fixme": "Verificar coordenadas",
      "note": "Muito afastado da face: 114m 0500-0177P-1-13"
      },
      "geometry": {
         "type": "Point",
         "coordinates": [-38.318062,-9.443933]
      }
    },
    {
      "type": "Feature",
      "properties": { 
      "IBGE:COD_UNICO_ENDERECO": "192029705",
      "addr:housenumber": "12",
      "addr:postcode": "48619-899",
      "addr:street": "Povoado Campos Novos de Baixo",
      "addr:suburb": "Campos Novos",
      "building": "yes",
      "fixme": "Verificar coordenadas",
      "note": "Muito afastado da face: 142m 0500-0177P-1-16"
      },
      "geometry": {
         "type": "Point",
         "coordinates": [-38.318393,-9.447886]
      }
    },
    {
      "type": "Feature",
      "properties": { 
      "IBGE:COD_UNICO_ENDERECO": "192029664",
      "addr:housenumber": "133",
      "addr:postcode": "48619-899",
      "addr:street": "Povoado Campos Novos de Baixo",
      "addr:suburb": "Campos Novos",
      "building": "yes",
      "fixme": "Verificar coordenadas",
      "note": "Muito afastado da face: 95m 0500-0177P-1-16"
      },
      "geometry": {
         "type": "Point",
         "coordinates": [-38.318841,-9.448598]
      }
    },
    {
      "type": "Feature",
      "properties": { 
      "IBGE:COD_UNICO_ENDERECO": "27410133",
      "addr:housenumber": "120",
      "addr:postcode": "48619-899",
      "addr:street": "Povoado Campos Novos de Baixo",
      "addr:suburb": "Campos Novos",
      "building": "yes",
      "fixme": "Verificar coordenadas",
      "note": "Muito afastado da face: 81m 0500-0177P-1-17"
      },
      "geometry": {
         "type": "Point",
         "coordinates": [-38.320476,-9.447499]
      }
    },
    {
      "type": "Feature",
      "properties": { 
      "IBGE:COD_UNICO_ENDERECO": "27410116",
      "addr:housenumber": "11",
      "addr:postcode": "48619-899",
      "addr:street": "Estrada Sabina A Campos Novos de Baixo",
      "addr:suburb": "Campos Novos",
      "building": "yes",
      "fixme": "Verificar coordenadas",
      "note": "Muito afastado da face: 401m 0500-0177P-1-2"
      },
      "geometry": {
         "type": "Point",
         "coordinates": [-38.33399,-9.443383]
      }
    },
    {
      "type": "Feature",
      "properties": { 
      "IBGE:COD_UNICO_ENDERECO": "27415265",
      "addr:housenumber": "569479",
      "addr:postcode": "48619-899",
      "addr:street": "Povoado Campos Novos",
      "addr:suburb": "Campos Novos",
      "addr:unit": "Cisterna",
      "building": "yes"
      },
      "geometry": {
         "type": "Point",
         "coordinates": [-38.3290821,-9.4402972]
      }
    },
    {
      "type": "Feature",
      "properties": { 
      "IBGE:COD_UNICO_ENDERECO": "27415293",
      "addr:housenumber": "42",
      "addr:postcode": "48619-899",
      "addr:street": "Povoado Campos Novos de Baixo",
      "addr:suburb": "Campos Novos",
      "building": "yes"
      },
      "geometry": {
         "type": "Point",
         "coordinates": [-38.3196705,-9.4447539]
      }
    },
    {
      "type": "Feature",
      "properties": { 
      "IBGE:COD_UNICO_ENDERECO": "192029527",
      "addr:housenumber": "10 A",
      "addr:postcode": "48619-899",
      "addr:street": "Estrada Sabina A Campos Novos de Baixo",
      "addr:suburb": "Campos Novos",
      "building": "yes",
      "fixme": "Verificar coordenadas",
      "note": "Fora da área de projeção da face 0500-0177P-1-2"
      },
      "geometry": {
         "type": "Point",
         "coordinates": [-38.334428,-9.444334]
      }
    },
    {
      "type": "Feature",
      "properties": { 
      "IBGE:COD_UNICO_ENDERECO": "27410134",
      "addr:housenumber": "32",
      "addr:postcode": "48619-899",
      "addr:street": "Povoado Campos Novos de Baixo",
      "addr:suburb": "Campos Novos",
      "building": "yes",
      "fixme": "Verificar coordenadas",
      "note": "Muito afastado da face: 89m 0500-0177P-1-17"
      },
      "geometry": {
         "type": "Point",
         "coordinates": [-38.320545,-9.447695]
      }
    },
    {
      "type": "Feature",
      "properties": { 
      "IBGE:COD_UNICO_ENDERECO": "27410118",
      "addr:housenumber": "69",
      "addr:postcode": "48619-899",
      "addr:street": "Estrada Sabina A Campos Novos de Baixo",
      "addr:suburb": "Campos Novos",
      "building": "yes",
      "description": "CNEFE 2022 Borracharia",
      "repair": "yes",
      "shop": "tyres"
      },
      "geometry": {
         "type": "Point",
         "coordinates": [-38.3293446,-9.4402273]
      }
    },
    {
      "type": "Feature",
      "properties": { 
      "IBGE:COD_UNICO_ENDERECO": "27410132",
      "addr:housenumber": "36",
      "addr:postcode": "48619-899",
      "addr:street": "Povoado Campos Novos de Baixo",
      "addr:suburb": "Campos Novos",
      "amenity": "pub",
      "building": "yes",
      "name": "Bar Intenacional Campos Novos"
      },
      "geometry": {
         "type": "Point",
         "coordinates": [-38.3198134,-9.4471633]
      }
    },
    {
      "type": "Feature",
      "properties": { 
      "IBGE:COD_UNICO_ENDERECO": "192029682",
      "addr:housenumber": "7149 Em",
      "addr:postcode": "48619-899",
      "addr:street": "Povoado Campos Novos de Baixo",
      "addr:suburb": "Campos Novos",
      "building": "yes",
      "fixme": "Verificar coordenadas",
      "note": "Muito afastado da face: 183m 0500-0177P-1-16"
      },
      "geometry": {
         "type": "Point",
         "coordinates": [-38.317999,-9.447529]
      }
    },
    {
      "type": "Feature",
      "properties": { 
      "IBGE:COD_UNICO_ENDERECO": "112585224",
      "addr:housenumber": "48",
      "addr:postcode": "48619-899",
      "addr:street": "Estrada Paul 0 Afonso Juá Via Campos no",
      "addr:suburb": "Campos Novos",
      "building": "yes",
      "fixme": "Verificar coordenadas",
      "note": "Sem setor ou quadra no bayface do IBGE 0500-0122P-0-9"
      },
      "geometry": {
         "type": "Point",
         "coordinates": [-38.333435,-9.442485]
      }
    },
    {
      "type": "Feature",
      "properties": { 
      "IBGE:COD_UNICO_ENDERECO": "27415266",
      "addr:housenumber": "25 B",
      "addr:postcode": "48619-899",
      "addr:street": "Povoado Campos Novos",
      "addr:suburb": "Campos Novos",
      "building": "yes"
      },
      "geometry": {
         "type": "Point",
         "coordinates": [-38.3287856,-9.4405529]
      }
    },
    {
      "type": "Feature",
      "properties": { 
      "IBGE:COD_UNICO_ENDERECO": "27410148",
      "addr:housenumber": "109",
      "addr:postcode": "48619-899",
      "addr:street": "Povoado Campos Novos de Baixo",
      "addr:suburb": "Campos Novos",
      "building": "yes",
      "fixme": "Verificar coordenadas",
      "note": "Muito afastado da face: 68m 0500-0177P-1-5"
      },
      "geometry": {
         "type": "Point",
         "coordinates": [-38.320845,-9.445333]
      }
    },
    {
      "type": "Feature",
      "properties": { 
      "IBGE:COD_UNICO_ENDERECO": "27415279",
      "addr:housenumber": "76",
      "addr:postcode": "48619-899",
      "addr:street": "Povoado Campos Novos de Baixo",
      "addr:suburb": "Campos Novos",
      "building": "yes",
      "fixme": "Verificar coordenadas",
      "note": "Muito afastado da face: 42m 0500-0177P-1-7"
      },
      "geometry": {
         "type": "Point",
         "coordinates": [-38.320994,-9.442255]
      }
    },
    {
      "type": "Feature",
      "properties": { 
      "IBGE:COD_UNICO_ENDERECO": "27415260",
      "addr:housenumber": "84",
      "addr:postcode": "48619-899",
      "addr:street": "Povoado Campos Novos",
      "addr:suburb": "Campos Novos",
      "addr:unit": "Fundos",
      "building": "yes",
      "fixme": "Verificar coordenadas",
      "note": "Muito afastado da face: 143m 0500-0177P-0-1"
      },
      "geometry": {
         "type": "Point",
         "coordinates": [-38.325273,-9.441093]
      }
    },
    {
      "type": "Feature",
      "properties": { 
      "IBGE:COD_UNICO_ENDERECO": "192029758",
      "addr:housenumber": "36",
      "addr:postcode": "48619-899",
      "addr:street": "Povoado Campos Novos de Baixo",
      "addr:suburb": "Campos Novos",
      "building": "yes",
      "fixme": "Verificar coordenadas",
      "note": "Muito afastado da face: 103m 0500-0177P-1-17"
      },
      "geometry": {
         "type": "Point",
         "coordinates": [-38.320667,-9.44767]
      }
    },
    {
      "type": "Feature",
      "properties": { 
      "IBGE:COD_UNICO_ENDERECO": "192029627",
      "addr:housenumber": "6",
      "addr:postcode": "48619-899",
      "addr:street": "Povoado Campos Novos de Baixo",
      "addr:suburb": "Campos Novos",
      "addr:unit": "Fundos",
      "building": "yes",
      "fixme": "Verificar coordenadas",
      "note": "Muito afastado da face: 131m 0500-0177P-1-12"
      },
      "geometry": {
         "type": "Point",
         "coordinates": [-38.31958,-9.446456]
      }
    },
    {
      "type": "Feature",
      "properties": { 
      "IBGE:COD_UNICO_ENDERECO": "192029394",
      "addr:housenumber": "10 AB",
      "addr:postcode": "48619-899",
      "addr:street": "Povoado Campos Novos",
      "addr:suburb": "Campos Novos",
      "building": "yes"
      },
      "geometry": {
         "type": "Point",
         "coordinates": [-38.327933,-9.4410047]
      }
    },
    {
      "type": "Feature",
      "properties": { 
      "IBGE:COD_UNICO_ENDERECO": "192029638",
      "addr:housenumber": "23",
      "addr:postcode": "48619-899",
      "addr:street": "Povoado Campos Novos de Baixo",
      "addr:suburb": "Campos Novos",
      "building": "yes"
      },
      "geometry": {
         "type": "Point",
         "coordinates": [-38.3172724,-9.444729]
      }
    },
    {
      "type": "Feature",
      "properties": { 
      "IBGE:COD_UNICO_ENDERECO": "192029576",
      "addr:housenumber": "19650 B",
      "addr:postcode": "48619-899",
      "addr:street": "Estrada Sabina A Campos Novos de Baixo",
      "addr:suburb": "Campos Novos",
      "amenity": "animal_breeding",
      "animal_breeding": "sheep",
      "fixme": "Verificar coordenadas",
      "landuse": "farmyard",
      "name": "Criação de Ovelha",
      "note": "Muito afastado da face: 89m 0500-0177P-1-4"
      },
      "geometry": {
         "type": "Point",
         "coordinates": [-38.321861,-9.445154]
      }
    },
    {
      "type": "Feature",
      "properties": { 
      "IBGE:COD_UNICO_ENDERECO": "192029750",
      "addr:housenumber": "5",
      "addr:postcode": "48619-899",
      "addr:street": "Povoado Campos Novos de Baixo",
      "addr:suburb": "Campos Novos",
      "building": "yes"
      },
      "geometry": {
         "type": "Point",
         "coordinates": [-38.3197954,-9.4474195]
      }
    },
    {
      "type": "Feature",
      "properties": { 
      "IBGE:COD_UNICO_ENDERECO": "192029421",
      "addr:housenumber": "569438",
      "addr:postcode": "48619-899",
      "addr:street": "Estrada Sabina A Campos Novos de Baixo",
      "addr:suburb": "Campos Novos",
      "addr:unit": "Cisterna",
      "building": "yes"
      },
      "geometry": {
         "type": "Point",
         "coordinates": [-38.3241444,-9.4434841]
      }
    },
    {
      "type": "Feature",
      "properties": { 
      "IBGE:COD_UNICO_ENDERECO": "27410131",
      "addr:housenumber": "7",
      "addr:postcode": "48619-899",
      "addr:street": "Povoado Campos Novos de Baixo",
      "addr:suburb": "Campos Novos",
      "amenity": "pub",
      "building": "yes",
      "name": "Bar 2 Irmãos"
      },
      "geometry": {
         "type": "Point",
         "coordinates": [-38.3197819,-9.4477036]
      }
    },
    {
      "type": "Feature",
      "properties": { 
      "IBGE:COD_UNICO_ENDERECO": "27415298",
      "addr:housenumber": "103",
      "addr:postcode": "48619-899",
      "addr:street": "Povoado Campos Novos de Baixo",
      "addr:suburb": "Campos Novos",
      "amenity": "school",
      "building": "yes",
      "name": "Escola Municipal Antônio Domingos Teixeira"
      },
      "geometry": {
         "type": "Point",
         "coordinates": [-38.3202301,-9.444303]
      }
    },
    {
      "type": "Feature",
      "properties": { 
      "IBGE:COD_UNICO_ENDERECO": "27415291",
      "addr:housenumber": "44",
      "addr:postcode": "48619-899",
      "addr:street": "Povoado Campos Novos de Baixo",
      "addr:suburb": "Campos Novos",
      "building": "yes",
      "fixme": "Verificar coordenadas",
      "note": "Fora da área de projeção da face 0500-0177P-1-22"
      },
      "geometry": {
         "type": "Point",
         "coordinates": [-38.319762,-9.44408]
      }
    },
    {
      "type": "Feature",
      "properties": { 
      "IBGE:COD_UNICO_ENDERECO": "192029779",
      "addr:housenumber": "13 B",
      "addr:postcode": "48619-899",
      "addr:street": "Povoado Campos Novos de Baixo",
      "addr:suburb": "Campos Novos",
      "building": "yes"
      },
      "geometry": {
         "type": "Point",
         "coordinates": [-38.3198265,-9.4480739]
      }
    },
    {
      "type": "Feature",
      "properties": { 
      "IBGE:COD_UNICO_ENDERECO": "27410146",
      "addr:housenumber": "11",
      "addr:postcode": "48619-899",
      "addr:street": "Povoado Campos Novos de Baixo",
      "addr:suburb": "Campos Novos",
      "building": "yes",
      "fixme": "Verificar coordenadas",
      "name": "Clube do Valdinho",
      "note": "Muito afastado da face: 73m 0500-0177P-1-16"
      },
      "geometry": {
         "type": "Point",
         "coordinates": [-38.319041,-9.448012]
      }
    },
    {
      "type": "Feature",
      "properties": { 
      "IBGE:COD_UNICO_ENDERECO": "27415270",
      "addr:housenumber": "73",
      "addr:postcode": "48619-899",
      "addr:street": "Povoado Campos Novos",
      "addr:suburb": "Campos Novos",
      "building": "yes"
      },
      "geometry": {
         "type": "Point",
         "coordinates": [-38.3261572,-9.4419784]
      }
    },
    {
      "type": "Feature",
      "properties": { 
      "IBGE:COD_UNICO_ENDERECO": "27410251",
      "addr:housenumber": "10",
      "addr:postcode": "48619-899",
      "addr:street": "Povoado Campos Novos de Baixo",
      "addr:suburb": "Campos Novos",
      "building": "yes",
      "fixme": "Verificar coordenadas",
      "name": "Fazenda Toré",
      "note": "Fora da área de projeção da face 0500-0177P-1-18",
      "place": "farm"
      },
      "geometry": {
         "type": "Point",
         "coordinates": [-38.319813,-9.448281]
      }
    },
    {
      "type": "Feature",
      "properties": { 
      "IBGE:COD_UNICO_ENDERECO": "192029611",
      "addr:housenumber": "45",
      "addr:postcode": "48619-899",
      "addr:street": "Povoado Campos Novos de Baixo",
      "addr:suburb": "Campos Novos",
      "addr:unit": "Fundos",
      "building": "yes"
      },
      "geometry": {
         "type": "Point",
         "coordinates": [-38.3201827,-9.4446247]
      }
    },
    {
      "type": "Feature",
      "properties": { 
      "IBGE:COD_UNICO_ENDERECO": "192029600",
      "addr:housenumber": "74 B",
      "addr:postcode": "48619-899",
      "addr:street": "Povoado Campos Novos de Baixo",
      "addr:suburb": "Campos Novos",
      "building": "yes"
      },
      "geometry": {
         "type": "Point",
         "coordinates": [-38.3215828,-9.4419812]
      }
    },
    {
      "type": "Feature",
      "properties": { 
      "IBGE:COD_UNICO_ENDERECO": "192029821",
      "addr:housenumber": "7144",
      "addr:postcode": "48619-899",
      "addr:street": "Povoado Campos Novos de Baixo",
      "addr:suburb": "Campos Novos",
      "addr:unit": "Caixa de",
      "building": "yes"
      },
      "geometry": {
         "type": "Point",
         "coordinates": [-38.3197793,-9.4440045]
      }
    },
    {
      "type": "Feature",
      "properties": { 
      "IBGE:COD_UNICO_ENDERECO": "27415284",
      "addr:housenumber": "20",
      "addr:postcode": "48619-899",
      "addr:street": "Povoado Campos Novos de Baixo",
      "addr:suburb": "Campos Novos",
      "addr:unit": "Fundos",
      "building": "yes",
      "fixme": "Verificar coordenadas",
      "note": "Muito afastado da face: 55m 0500-0177P-1-19"
      },
      "geometry": {
         "type": "Point",
         "coordinates": [-38.319733,-9.442682]
      }
    },
    {
      "type": "Feature",
      "properties": { 
      "IBGE:COD_UNICO_ENDERECO": "27410138",
      "addr:housenumber": "30",
      "addr:postcode": "48619-899",
      "addr:street": "Povoado Campos Novos de Baixo",
      "addr:suburb": "Campos Novos",
      "building": "yes",
      "fixme": "Verificar coordenadas",
      "note": "Muito afastado da face: 49m 0500-0177P-1-17"
      },
      "geometry": {
         "type": "Point",
         "coordinates": [-38.320207,-9.447966]
      }
    },
    {
      "type": "Feature",
      "properties": { 
      "IBGE:COD_UNICO_ENDERECO": "27415292",
      "addr:housenumber": "8",
      "addr:postcode": "48619-899",
      "addr:street": "Povoado Campos Novos de Baixo",
      "addr:suburb": "Campos Novos",
      "amenity": "animal_breeding",
      "animal_breeding": "sheep",
      "fixme": "Verificar coordenadas",
      "landuse": "farmyard",
      "name": "Criação de Ovelhas",
      "note": "Fora da área de projeção da face 0500-0177P-1-23"
      },
      "geometry": {
         "type": "Point",
         "coordinates": [-38.319426746242,-9.4442349000032]
      }
    },
    {
      "type": "Feature",
      "properties": { 
      "IBGE:COD_UNICO_ENDERECO": "27415267",
      "addr:housenumber": "89",
      "addr:postcode": "48619-899",
      "addr:street": "Povoado Campos Novos",
      "addr:suburb": "Campos Novos",
      "building": "yes"
      },
      "geometry": {
         "type": "Point",
         "coordinates": [-38.3282309,-9.440905]
      }
    },
    {
      "type": "Feature",
      "properties": { 
      "IBGE:COD_UNICO_ENDERECO": "192029653",
      "addr:housenumber": "136",
      "addr:postcode": "48619-899",
      "addr:street": "Povoado Campos Novos de Baixo",
      "addr:suburb": "Campos Novos",
      "building": "yes",
      "fixme": "Verificar coordenadas",
      "note": "Muito afastado da face: 63m 0500-0177P-1-16"
      },
      "geometry": {
         "type": "Point",
         "coordinates": [-38.319127,-9.448661]
      }
    },
    {
      "type": "Feature",
      "properties": { 
      "IBGE:COD_UNICO_ENDERECO": "27410145",
      "addr:housenumber": "9",
      "addr:postcode": "48619-899",
      "addr:street": "Povoado Campos Novos de Baixo",
      "addr:suburb": "Campos Novos",
      "addr:unit": "Fundos",
      "amenity": "place_of_worship",
      "building": "church",
      "denomination": "catholic",
      "description": "CNEFE 2022 Igreja Católica",
      "fixme": "Verificar coordenadas",
      "note": "Muito afastado da face: 53m 0500-0177P-1-16",
      "religion": "christian"
      },
      "geometry": {
         "type": "Point",
         "coordinates": [-38.319238,-9.448137]
      }
    },
    {
      "type": "Feature",
      "properties": { 
      "IBGE:COD_UNICO_ENDERECO": "192029511",
      "addr:housenumber": "30 A",
      "addr:postcode": "48619-899",
      "addr:street": "Estrada Sabina A Campos Novos de Baixo",
      "addr:suburb": "Campos Novos",
      "building": "yes"
      },
      "geometry": {
         "type": "Point",
         "coordinates": [-38.3280118,-9.4455909]
      }
    },
    {
      "type": "Feature",
      "properties": { 
      "IBGE:COD_UNICO_ENDERECO": "27410134",
      "addr:housenumber": "32",
      "addr:postcode": "48619-899",
      "addr:street": "Povoado Campos Novos de Baixo",
      "addr:suburb": "Campos Novos",
      "building": "yes",
      "fixme": "Verificar coordenadas",
      "name": "Roça Própria",
      "note": "Muito afastado da face: 89m 0500-0177P-1-17"
      },
      "geometry": {
         "type": "Point",
         "coordinates": [-38.320548508104,-9.4476957951224]
      }
    },
    {
      "type": "Feature",
      "properties": { 
      "IBGE:COD_UNICO_ENDERECO": "27410147",
      "addr:housenumber": "25",
      "addr:postcode": "48619-899",
      "addr:street": "Povoado Campos Novos de Baixo",
      "addr:suburb": "Campos Novos",
      "building": "yes"
      },
      "geometry": {
         "type": "Point",
         "coordinates": [-38.319812,-9.4486599]
      }
    },
    {
      "type": "Feature",
      "properties": { 
      "IBGE:COD_UNICO_ENDERECO": "27415297",
      "addr:housenumber": "41",
      "addr:postcode": "48619-899",
      "addr:street": "Povoado Campos Novos de Baixo",
      "addr:suburb": "Campos Novos",
      "building": "yes",
      "fixme": "Verificar coordenadas",
      "note": "Muito afastado da face: 62m 0500-0177P-1-21"
      },
      "geometry": {
         "type": "Point",
         "coordinates": [-38.319558,-9.444515]
      }
    },
    {
      "type": "Feature",
      "properties": { 
      "IBGE:COD_UNICO_ENDERECO": "27410129;192029765",
      "addr:housenumber": "39",
      "addr:postcode": "48619-899",
      "addr:street": "Povoado Campos Novos de Baixo",
      "addr:suburb": "Campos Novos",
      "building": "yes",
      "fixme": "Verificar coordenadas",
      "note": "Muito afastado da face: 56m 0500-0177P-1-17"
      },
      "geometry": {
         "type": "Point",
         "coordinates": [-38.320271,-9.447101]
      }
    },
    {
      "type": "Feature",
      "properties": { 
      "IBGE:COD_UNICO_ENDERECO": "192029642",
      "addr:housenumber": "14",
      "addr:postcode": "48619-899",
      "addr:street": "Povoado Campos Novos de Baixo",
      "addr:suburb": "Campos Novos",
      "building": "yes"
      },
      "geometry": {
         "type": "Point",
         "coordinates": [-38.3200485,-9.4447366]
      }
    },
    {
      "type": "Feature",
      "properties": { 
      "IBGE:COD_UNICO_ENDERECO": "191722512",
      "addr:housenumber": "9",
      "addr:postcode": "48619-899",
      "addr:street": "Estrada Paul 0 Afonso Juá Via Campos no",
      "addr:suburb": "Campos Novos",
      "building": "yes",
      "fixme": "Verificar coordenadas",
      "note": "Sem setor ou quadra no bayface do IBGE 0500-0122P-0-9"
      },
      "geometry": {
         "type": "Point",
         "coordinates": [-38.33449,-9.441465]
      }
    },
    {
      "type": "Feature",
      "properties": { 
      "IBGE:COD_UNICO_ENDERECO": "27410111",
      "addr:housenumber": "95",
      "addr:postcode": "48619-899",
      "addr:street": "Estrada Sabina A Campos Novos de Baixo",
      "addr:suburb": "Campos Novos",
      "building": "yes"
      },
      "geometry": {
         "type": "Point",
         "coordinates": [-38.326828,-9.4417131]
      }
    },
    {
      "type": "Feature",
      "properties": { 
      "IBGE:COD_UNICO_ENDERECO": "192029506",
      "addr:housenumber": "20 A",
      "addr:postcode": "48619-899",
      "addr:street": "Estrada Sabina A Campos Novos de Baixo",
      "addr:suburb": "Campos Novos",
      "building": "yes"
      },
      "geometry": {
         "type": "Point",
         "coordinates": [-38.327956,-9.4455825]
      }
    },
    {
      "type": "Feature",
      "properties": { 
      "IBGE:COD_UNICO_ENDERECO": "192029388",
      "addr:housenumber": "569481",
      "addr:postcode": "48619-899",
      "addr:street": "Povoado Campos Novos",
      "addr:suburb": "Campos Novos",
      "addr:unit": "Cisterna",
      "building": "yes"
      },
      "geometry": {
         "type": "Point",
         "coordinates": [-38.3288615,-9.4405052]
      }
    },
    {
      "type": "Feature",
      "properties": { 
      "IBGE:COD_UNICO_ENDERECO": "27410114",
      "addr:housenumber": "94",
      "addr:postcode": "48619-899",
      "addr:street": "Estrada Sabina A Campos Novos de Baixo",
      "addr:suburb": "Campos Novos",
      "building": "yes"
      },
      "geometry": {
         "type": "Point",
         "coordinates": [-38.3264975,-9.4419315]
      }
    },
    {
      "type": "Feature",
      "properties": { 
      "IBGE:COD_UNICO_ENDERECO": "27415301",
      "addr:housenumber": "22",
      "addr:postcode": "48619-899",
      "addr:street": "Povoado Campos Novos de Baixo",
      "addr:suburb": "Campos Novos",
      "building": "yes"
      },
      "geometry": {
         "type": "Point",
         "coordinates": [-38.3174727,-9.4447827]
      }
    },
    {
      "type": "Feature",
      "properties": { 
      "IBGE:COD_UNICO_ENDERECO": "192029621",
      "addr:housenumber": "160531",
      "addr:postcode": "48619-899",
      "addr:street": "Povoado Campos Novos de Baixo",
      "addr:suburb": "Campos Novos",
      "addr:unit": "Hidrômetro da",
      "building": "yes",
      "fixme": "Verificar coordenadas",
      "note": "Muito afastado da face: 168m 0500-0177P-1-12"
      },
      "geometry": {
         "type": "Point",
         "coordinates": [-38.318369,-9.446587]
      }
    },
    {
      "type": "Feature",
      "properties": { 
      "IBGE:COD_UNICO_ENDERECO": "27415262",
      "addr:housenumber": "7",
      "addr:postcode": "48619-899",
      "addr:street": "Povoado Campos Novos",
      "addr:suburb": "Campos Novos",
      "building": "yes"
      },
      "geometry": {
         "type": "Point",
         "coordinates": [-38.3242586,-9.4432153]
      }
    },
    {
      "type": "Feature",
      "properties": { 
      "IBGE:COD_UNICO_ENDERECO": "192029576",
      "addr:housenumber": "19650 B",
      "addr:postcode": "48619-899",
      "addr:street": "Estrada Sabina A Campos Novos de Baixo",
      "addr:suburb": "Campos Novos",
      "building": "yes",
      "fixme": "Verificar coordenadas",
      "note": "Muito afastado da face: 89m 0500-0177P-1-4"
      },
      "geometry": {
         "type": "Point",
         "coordinates": [-38.321865787843,-9.445146622981]
      }
    },
    {
      "type": "Feature",
      "properties": { 
      "IBGE:COD_UNICO_ENDERECO": "192029372",
      "addr:housenumber": "85",
      "addr:postcode": "48619-899",
      "addr:street": "Povoado Campos Novos",
      "addr:suburb": "Campos Novos",
      "building": "yes"
      },
      "geometry": {
         "type": "Point",
         "coordinates": [-38.3269229,-9.4414634]
      }
    },
    {
      "type": "Feature",
      "properties": { 
      "IBGE:COD_UNICO_ENDERECO": "27415299",
      "addr:housenumber": "569505",
      "addr:postcode": "48619-899",
      "addr:street": "Povoado Campos Novos de Baixo",
      "addr:suburb": "Campos Novos",
      "addr:unit": "Cisterna no Terreno",
      "building": "yes"
      },
      "geometry": {
         "type": "Point",
         "coordinates": [-38.317811,-9.4448732]
      }
    },
    {
      "type": "Feature",
      "properties": { 
      "IBGE:COD_UNICO_ENDERECO": "27415295",
      "addr:housenumber": "5",
      "addr:postcode": "48619-899",
      "addr:street": "Povoado Campos Novos de Baixo",
      "addr:suburb": "Campos Novos",
      "building": "yes"
      },
      "geometry": {
         "type": "Point",
         "coordinates": [-38.3197198,-9.4451366]
      }
    },
    {
      "type": "Feature",
      "properties": { 
      "IBGE:COD_UNICO_ENDERECO": "27410143",
      "addr:housenumber": "7",
      "addr:postcode": "48619-899",
      "addr:street": "Povoado Campos Novos de Baixo",
      "addr:suburb": "Campos Novos",
      "amenity": "pub",
      "building": "yes",
      "name": "Bar Dois Irmãos"
      },
      "geometry": {
         "type": "Point",
         "coordinates": [-38.3197836,-9.4477175]
      }
    },
    {
      "type": "Feature",
      "properties": { 
      "IBGE:COD_UNICO_ENDERECO": "27410143",
      "addr:housenumber": "7",
      "addr:postcode": "48619-899",
      "addr:street": "Povoado Campos Novos de Baixo",
      "addr:suburb": "Campos Novos",
      "building": "yes"
      },
      "geometry": {
         "type": "Point",
         "coordinates": [-38.31977535836,-9.4477138955181]
      }
    },
    {
      "type": "Feature",
      "properties": { 
      "IBGE:COD_UNICO_ENDERECO": "192029517",
      "addr:housenumber": "3",
      "addr:postcode": "48619-899",
      "addr:street": "Estrada Sabina A Campos Novos de Baixo",
      "addr:suburb": "Campos Novos",
      "addr:unit": "Fundos",
      "building": "yes"
      },
      "geometry": {
         "type": "Point",
         "coordinates": [-38.3287012,-9.4456269]
      }
    },
    {
      "type": "Feature",
      "properties": { 
      "IBGE:COD_UNICO_ENDERECO": "27414876",
      "addr:housenumber": "1",
      "addr:postcode": "48619-899",
      "addr:street": "Estrada Campos Novos para O Salgado",
      "addr:suburb": "Campos Novos",
      "building": "yes",
      "fixme": "Verificar coordenadas",
      "note": "Sem setor ou quadra no bayface do IBGE 0500-0122P-0-10"
      },
      "geometry": {
         "type": "Point",
         "coordinates": [-38.330917,-9.438247]
      }
    },
    {
      "type": "Feature",
      "properties": { 
      "IBGE:COD_UNICO_ENDERECO": "27415273",
      "addr:housenumber": "57",
      "addr:postcode": "48619-899",
      "addr:street": "Povoado Campos Novos de Baixo",
      "addr:suburb": "Campos Novos",
      "building": "yes"
      },
      "geometry": {
         "type": "Point",
         "coordinates": [-38.3210662,-9.4430567]
      }
    },
    {
      "type": "Feature",
      "properties": { 
      "IBGE:COD_UNICO_ENDERECO": "27410135",
      "addr:housenumber": "34",
      "addr:postcode": "48619-899",
      "addr:street": "Povoado Campos Novos de Baixo",
      "addr:suburb": "Campos Novos",
      "building": "yes",
      "fixme": "Verificar coordenadas",
      "note": "Muito afastado da face: 129m 0500-0177P-1-17"
      },
      "geometry": {
         "type": "Point",
         "coordinates": [-38.320927,-9.447347]
      }
    },
    {
      "type": "Feature",
      "properties": { 
      "IBGE:COD_UNICO_ENDERECO": "27415272",
      "addr:housenumber": "47",
      "addr:postcode": "48619-899",
      "addr:street": "Povoado Campos Novos de Baixo",
      "addr:suburb": "Campos Novos",
      "addr:unit": "Fundos",
      "building": "yes",
      "fixme": "Verificar coordenadas",
      "note": "Fora da área de projeção da face 0500-0177P-1-26"
      },
      "geometry": {
         "type": "Point",
         "coordinates": [-38.320369,-9.444342]
      }
    },
    {
      "type": "Feature",
      "properties": { 
      "IBGE:COD_UNICO_ENDERECO": "27410113;27410117",
      "addr:housenumber": "60",
      "addr:postcode": "48619-899",
      "addr:street": "Estrada Sabina A Campos Novos de Baixo",
      "addr:suburb": "Campos Novos",
      "building": "yes"
      },
      "geometry": {
         "type": "Point",
         "coordinates": [-38.3248749,-9.4429903]
      }
    },
    {
      "type": "Feature",
      "properties": { 
      "IBGE:COD_UNICO_ENDERECO": "27410121",
      "addr:housenumber": "39",
      "addr:postcode": "48619-899",
      "addr:street": "Estrada Sabina A Campos Novos de Baixo",
      "addr:suburb": "Campos Novos",
      "building": "yes",
      "description": "CNEFE 2022 Mercearia",
      "fixme": "Verificar coordenadas",
      "note": "Muito afastado da face: 45m 0500-0177P-0-2",
      "shop": "convenience"
      },
      "geometry": {
         "type": "Point",
         "coordinates": [-38.329226,-9.440889]
      }
    },
    {
      "type": "Feature",
      "properties": { 
      "IBGE:COD_UNICO_ENDERECO": "27414888",
      "addr:housenumber": "110",
      "addr:postcode": "48619-899",
      "addr:street": "Estrada Juá para Campos Novos",
      "addr:suburb": "Campos Novos",
      "addr:unit": "Fundos",
      "building": "yes",
      "fixme": "Verificar coordenadas",
      "note": "Sem setor ou quadra no bayface do IBGE 0500-0122P-0-8"
      },
      "geometry": {
         "type": "Point",
         "coordinates": [-38.349998,-9.447177]
      }
    },
    {
      "type": "Feature",
      "properties": { 
      "IBGE:COD_UNICO_ENDERECO": "27410122",
      "addr:housenumber": "22",
      "addr:postcode": "48619-899",
      "addr:street": "Estrada Sabina A Campos Novos de Baixo",
      "addr:suburb": "Campos Novos",
      "building": "yes"
      },
      "geometry": {
         "type": "Point",
         "coordinates": [-38.322533,-9.444783]
      }
    },
    {
      "type": "Feature",
      "properties": { 
      "IBGE:COD_UNICO_ENDERECO": "27415257",
      "addr:housenumber": "82",
      "addr:postcode": "48619-899",
      "addr:street": "Estrada Sabina A Campos Novos de Baixo",
      "addr:suburb": "Campos Novos",
      "building": "yes"
      },
      "geometry": {
         "type": "Point",
         "coordinates": [-38.3281655,-9.4456142]
      }
    },
    {
      "type": "Feature",
      "properties": { 
      "IBGE:COD_UNICO_ENDERECO": "27410121",
      "addr:housenumber": "39",
      "addr:postcode": "48619-899",
      "addr:street": "Estrada Sabina A Campos Novos de Baixo",
      "addr:suburb": "Campos Novos",
      "building": "yes",
      "fixme": "Verificar coordenadas",
      "note": "Muito afastado da face: 45m 0500-0177P-0-2"
      },
      "geometry": {
         "type": "Point",
         "coordinates": [-38.329239744848,-9.4408868579953]
      }
    },
    {
      "type": "Feature",
      "properties": { 
      "IBGE:COD_UNICO_ENDERECO": "27415259",
      "addr:housenumber": "91",
      "addr:postcode": "48619-899",
      "addr:street": "Povoado Campos Novos",
      "addr:suburb": "Campos Novos",
      "addr:unit": "Fundos",
      "building": "yes",
      "fixme": "Verificar coordenadas",
      "note": "Fora da área de projeção da face 0500-0177P-0-1"
      },
      "geometry": {
         "type": "Point",
         "coordinates": [-38.326459,-9.439722]
      }
    },
    {
      "type": "Feature",
      "properties": { 
      "IBGE:COD_UNICO_ENDERECO": "192029548",
      "addr:housenumber": "31",
      "addr:postcode": "48619-899",
      "addr:street": "Estrada Sabina A Campos Novos de Baixo",
      "addr:suburb": "Campos Novos",
      "building": "yes",
      "fixme": "Verificar coordenadas",
      "note": "Fora da área de projeção da face 0500-0177P-1-2"
      },
      "geometry": {
         "type": "Point",
         "coordinates": [-38.334481,-9.443478]
      }
    },
    {
      "type": "Feature",
      "properties": { 
      "IBGE:COD_UNICO_ENDERECO": "192029380",
      "addr:housenumber": "91 B",
      "addr:postcode": "48619-899",
      "addr:street": "Povoado Campos Novos",
      "addr:suburb": "Campos Novos",
      "building": "yes",
      "fixme": "Verificar coordenadas",
      "note": "Muito afastado da face: 183m 0500-0177P-0-1"
      },
      "geometry": {
         "type": "Point",
         "coordinates": [-38.326394,-9.439907]
      }
    },
    {
      "type": "Feature",
      "properties": { 
      "IBGE:COD_UNICO_ENDERECO": "27410112",
      "addr:housenumber": "97",
      "addr:postcode": "48619-899",
      "addr:street": "Estrada Sabina A Campos Novos de Baixo",
      "addr:suburb": "Campos Novos",
      "building": "yes"
      },
      "geometry": {
         "type": "Point",
         "coordinates": [-38.3270355,-9.4415791]
      }
    },
    {
      "type": "Feature",
      "properties": { 
      "IBGE:COD_UNICO_ENDERECO": "27415289",
      "addr:housenumber": "45",
      "addr:postcode": "48619-899",
      "addr:street": "Povoado Campos Novos de Baixo",
      "addr:suburb": "Campos Novos",
      "building": "yes"
      },
      "geometry": {
         "type": "Point",
         "coordinates": [-38.3203197,-9.4432918]
      }
    },
    {
      "type": "Feature",
      "properties": { 
      "IBGE:COD_UNICO_ENDERECO": "192029676",
      "addr:housenumber": "15",
      "addr:postcode": "48619-899",
      "addr:street": "Povoado Campos Novos de Baixo",
      "addr:suburb": "Campos Novos",
      "building": "yes",
      "fixme": "Verificar coordenadas",
      "note": "Fora da área de projeção da face 0500-0177P-1-16"
      },
      "geometry": {
         "type": "Point",
         "coordinates": [-38.317487,-9.447719]
      }
    },
    {
      "type": "Feature",
      "properties": { 
      "IBGE:COD_UNICO_ENDERECO": "27414873",
      "addr:housenumber": "4",
      "addr:postcode": "48619-899",
      "addr:street": "Estrada Campos Novos para O Salgado",
      "addr:suburb": "Campos Novos",
      "building": "yes",
      "fixme": "Verificar coordenadas",
      "note": "Sem setor ou quadra no bayface do IBGE 0500-0122P-0-10"
      },
      "geometry": {
         "type": "Point",
         "coordinates": [-38.332367,-9.441655]
      }
    },
    {
      "type": "Feature",
      "properties": { 
      "IBGE:COD_UNICO_ENDERECO": "191722523",
      "addr:housenumber": "7",
      "addr:postcode": "48619-899",
      "addr:street": "Estrada Paul 0 Afonso Juá Via Campos no",
      "addr:suburb": "Campos Novos",
      "building": "yes",
      "fixme": "Verificar coordenadas",
      "note": "Sem setor ou quadra no bayface do IBGE 0500-0122P-0-9"
      },
      "geometry": {
         "type": "Point",
         "coordinates": [-38.330037,-9.439337]
      }
    },
    {
      "type": "Feature",
      "properties": { 
      "IBGE:COD_UNICO_ENDERECO": "27410133",
      "addr:housenumber": "120",
      "addr:postcode": "48619-899",
      "addr:street": "Povoado Campos Novos de Baixo",
      "addr:suburb": "Campos Novos",
      "amenity": "animal_breeding",
      "animal_breeding": "goat;sheep",
      "fixme": "Verificar coordenadas",
      "landuse": "farmyard",
      "name": "Criação Cabras e Ovelhas",
      "note": "Muito afastado da face: 81m 0500-0177P-1-17"
      },
      "geometry": {
         "type": "Point",
         "coordinates": [-38.320471466008,-9.4475140276867]
      }
    },
    {
      "type": "Feature",
      "properties": { 
      "IBGE:COD_UNICO_ENDERECO": "27410140",
      "addr:housenumber": "28",
      "addr:postcode": "48619-899",
      "addr:street": "Povoado Campos Novos de Baixo",
      "addr:suburb": "Campos Novos",
      "building": "yes"
      },
      "geometry": {
         "type": "Point",
         "coordinates": [-38.3198332,-9.4481301]
      }
    },
    {
      "type": "Feature",
      "properties": { 
      "IBGE:COD_UNICO_ENDERECO": "192029554",
      "addr:housenumber": "9 A",
      "addr:postcode": "48619-899",
      "addr:street": "Estrada Sabina A Campos Novos de Baixo",
      "addr:suburb": "Campos Novos",
      "building": "yes",
      "fixme": "Verificar coordenadas",
      "note": "Fora da área de projeção da face 0500-0177P-1-2"
      },
      "geometry": {
         "type": "Point",
         "coordinates": [-38.33383,-9.444148]
      }
    },
    {
      "type": "Feature",
      "properties": { 
      "IBGE:COD_UNICO_ENDERECO": "27410128",
      "addr:housenumber": "69",
      "addr:postcode": "48619-899",
      "addr:street": "Estrada Sabina A Campos Novos de Baixo",
      "addr:suburb": "Campos Novos",
      "building": "yes"
      },
      "geometry": {
         "type": "Point",
         "coordinates": [-38.3281734,-9.4456154]
      }
    },
    {
      "type": "Feature",
      "properties": { 
      "IBGE:COD_UNICO_ENDERECO": "27415271",
      "addr:housenumber": "47",
      "addr:postcode": "48619-899",
      "addr:street": "Povoado Campos Novos de Baixo",
      "addr:suburb": "Campos Novos",
      "building": "yes"
      },
      "geometry": {
         "type": "Point",
         "coordinates": [-38.3202025,-9.4443348]
      }
    },
    {
      "type": "Feature",
      "properties": { 
      "IBGE:COD_UNICO_ENDERECO": "27415296",
      "addr:housenumber": "40",
      "addr:postcode": "48619-899",
      "addr:street": "Povoado Campos Novos de Baixo",
      "addr:suburb": "Campos Novos",
      "building": "yes"
      },
      "geometry": {
         "type": "Point",
         "coordinates": [-38.3196598,-9.4448307]
      }
    },
    {
      "type": "Feature",
      "properties": { 
      "IBGE:COD_UNICO_ENDERECO": "192029583",
      "addr:housenumber": "10 A",
      "addr:postcode": "48619-899",
      "addr:street": "Estrada Sabina A Campos Novos de Baixo",
      "addr:suburb": "Campos Novos",
      "building": "yes",
      "fixme": "Verificar coordenadas",
      "note": "Fora da área de projeção da face 0500-0177P-1-4"
      },
      "geometry": {
         "type": "Point",
         "coordinates": [-38.321253,-9.444745]
      }
    },
    {
      "type": "Feature",
      "properties": { 
      "IBGE:COD_UNICO_ENDERECO": "27410142",
      "addr:housenumber": "26",
      "addr:postcode": "48619-899",
      "addr:street": "Povoado Campos Novos de Baixo",
      "addr:suburb": "Campos Novos",
      "building": "yes"
      },
      "geometry": {
         "type": "Point",
         "coordinates": [-38.3198403,-9.448189]
      }
    },
    {
      "type": "Feature",
      "properties": { 
      "IBGE:COD_UNICO_ENDERECO": "192029669",
      "addr:housenumber": "135",
      "addr:postcode": "48619-899",
      "addr:street": "Povoado Campos Novos de Baixo",
      "addr:suburb": "Campos Novos",
      "addr:unit": "Fundos",
      "building": "yes",
      "fixme": "Verificar coordenadas",
      "note": "Muito afastado da face: 73m 0500-0177P-1-16"
      },
      "geometry": {
         "type": "Point",
         "coordinates": [-38.319038,-9.448619]
      }
    },
    {
      "type": "Feature",
      "properties": { 
      "IBGE:COD_UNICO_ENDERECO": "27415283",
      "addr:housenumber": "21",
      "addr:postcode": "48619-899",
      "addr:street": "Povoado Campos Novos de Baixo",
      "addr:suburb": "Campos Novos",
      "addr:unit": "Fundos",
      "building": "yes",
      "fixme": "Verificar coordenadas",
      "note": "Muito afastado da face: 48m 0500-0177P-1-19"
      },
      "geometry": {
         "type": "Point",
         "coordinates": [-38.319793,-9.442674]
      }
    },
    {
      "type": "Feature",
      "properties": { 
      "IBGE:COD_UNICO_ENDERECO": "27415294",
      "addr:housenumber": "569495",
      "addr:postcode": "48619-899",
      "addr:street": "Povoado Campos Novos de Baixo",
      "addr:suburb": "Campos Novos",
      "addr:unit": "Cisterna",
      "building": "yes",
      "fixme": "Verificar coordenadas",
      "note": "Muito afastado da face: 52m 0500-0177P-1-20"
      },
      "geometry": {
         "type": "Point",
         "coordinates": [-38.319229,-9.444833]
      }
    },
    {
      "type": "Feature",
      "properties": { 
      "IBGE:COD_UNICO_ENDERECO": "27410123",
      "addr:housenumber": "13",
      "addr:postcode": "48619-899",
      "addr:street": "Estrada Sabina A Campos Novos de Baixo",
      "addr:suburb": "Campos Novos",
      "building": "yes",
      "fixme": "Verificar coordenadas",
      "note": "Muito afastado da face: 58m 0500-0177P-1-4"
      },
      "geometry": {
         "type": "Point",
         "coordinates": [-38.321907602224,-9.4447798994432]
      }
    },
    {
      "type": "Feature",
      "properties": { 
      "IBGE:COD_UNICO_ENDERECO": "27415282",
      "addr:housenumber": "56",
      "addr:postcode": "48619-899",
      "addr:street": "Povoado Campos Novos de Baixo",
      "addr:suburb": "Campos Novos",
      "building": "yes",
      "fixme": "Verificar coordenadas",
      "note": "Muito afastado da face: 46m 0500-0177P-1-7"
      },
      "geometry": {
         "type": "Point",
         "coordinates": [-38.320946,-9.442269]
      }
    },
    {
      "type": "Feature",
      "properties": { 
      "IBGE:COD_UNICO_ENDERECO": "27415288",
      "addr:housenumber": "49",
      "addr:postcode": "48619-899",
      "addr:street": "Povoado Campos Novos de Baixo",
      "addr:suburb": "Campos Novos",
      "amenity": "clinic",
      "building": "yes",
      "healthcare": "yes",
      "name": "Posto de Saúde Campos Novos"
      },
      "geometry": {
         "type": "Point",
         "coordinates": [-38.3204113,-9.4438857]
      }
    },
    {
      "type": "Feature",
      "properties": { 
      "IBGE:COD_UNICO_ENDERECO": "192029720",
      "addr:housenumber": "10",
      "addr:postcode": "48619-899",
      "addr:street": "Povoado Campos Novos de Baixo",
      "addr:suburb": "Campos Novos",
      "building": "yes",
      "fixme": "Verificar coordenadas",
      "note": "Muito afastado da face: 82m 0500-0177P-1-16"
      },
      "geometry": {
         "type": "Point",
         "coordinates": [-38.318921,-9.447688]
      }
    },
    {
      "type": "Feature",
      "properties": { 
      "IBGE:COD_UNICO_ENDERECO": "27410120",
      "addr:housenumber": "102",
      "addr:postcode": "48619-899",
      "addr:street": "Povoado Campos Novos de Baixo",
      "addr:suburb": "Campos Novos",
      "building": "yes",
      "fixme": "Verificar coordenadas",
      "note": "Fora da área de projeção da face 0500-0177P-0-3"
      },
      "geometry": {
         "type": "Point",
         "coordinates": [-38.329271,-9.440426]
      }
    },
    {
      "type": "Feature",
      "properties": { 
      "IBGE:COD_UNICO_ENDERECO": "192029438",
      "addr:housenumber": "569503",
      "addr:postcode": "48619-899",
      "addr:street": "Povoado Campos Novos de Baixo",
      "addr:suburb": "Campos Novos",
      "addr:unit": "Cisterna Sr Pedro",
      "building": "yes",
      "fixme": "Verificar coordenadas",
      "note": "Muito afastado da face: 158m 0500-0177P-0-3"
      },
      "geometry": {
         "type": "Point",
         "coordinates": [-38.316681,-9.44618]
      }
    },
    {
      "type": "Feature",
      "properties": { 
      "IBGE:COD_UNICO_ENDERECO": "192029658;192029713",
      "addr:housenumber": "17",
      "addr:postcode": "48619-899",
      "addr:street": "Povoado Campos Novos de Baixo",
      "addr:suburb": "Campos Novos",
      "building": "yes",
      "fixme": "Verificar coordenadas",
      "note": "Muito afastado da face: 205m 0500-0177P-1-16"
      },
      "geometry": {
         "type": "Point",
         "coordinates": [-38.3178345,-9.4485275]
      }
    },
    {
      "type": "Feature",
      "properties": { 
      "IBGE:COD_UNICO_ENDERECO": "27415263",
      "addr:housenumber": "59",
      "addr:postcode": "48619-899",
      "addr:street": "Povoado Campos Novos",
      "addr:suburb": "Campos Novos",
      "building": "yes"
      },
      "geometry": {
         "type": "Point",
         "coordinates": [-38.3236443,-9.4435667]
      }
    },
    {
      "type": "Feature",
      "properties": { 
      "IBGE:COD_UNICO_ENDERECO": "27410125",
      "addr:housenumber": "67",
      "addr:postcode": "48619-899",
      "addr:street": "Estrada Sabina A Campos Novos de Baixo",
      "addr:suburb": "Campos Novos",
      "building": "yes"
      },
      "geometry": {
         "type": "Point",
         "coordinates": [-38.325783,-9.4453934]
      }
    },
    {
      "type": "Feature",
      "properties": { 
      "IBGE:COD_UNICO_ENDERECO": "192029799",
      "addr:housenumber": "19",
      "addr:postcode": "48619-899",
      "addr:street": "Povoado Campos Novos de Baixo",
      "addr:suburb": "Campos Novos",
      "addr:unit": "Fundos",
      "building": "yes",
      "fixme": "Verificar coordenadas",
      "note": "Muito afastado da face: 59m 0500-0177P-1-19"
      },
      "geometry": {
         "type": "Point",
         "coordinates": [-38.319697,-9.442767]
      }
    },
    {
      "type": "Feature",
      "properties": { 
      "IBGE:COD_UNICO_ENDERECO": "27410115",
      "addr:housenumber": "569452",
      "addr:postcode": "48619-899",
      "addr:street": "Estrada Sabina A Campos Novos de Baixo",
      "addr:suburb": "Campos Novos",
      "addr:unit": "Cisterna do Domicílio",
      "building": "yes"
      },
      "geometry": {
         "type": "Point",
         "coordinates": [-38.3264473,-9.4419671]
      }
    },
    {
      "type": "Feature",
      "properties": { 
      "IBGE:COD_UNICO_ENDERECO": "27410144",
      "addr:housenumber": "8",
      "addr:postcode": "48619-899",
      "addr:street": "Povoado Campos Novos de Baixo",
      "addr:suburb": "Campos Novos",
      "amenity": "community_centre",
      "building": "civic",
      "name": "Associação Comunitária de Moradores",
      "office": "association"
      },
      "geometry": {
         "type": "Point",
         "coordinates": [-38.3196583,-9.4480138]
      }
    },
    {
      "type": "Feature",
      "properties": { 
      "IBGE:COD_UNICO_ENDERECO": "27410126",
      "addr:housenumber": "70",
      "addr:postcode": "48619-899",
      "addr:street": "Estrada Sabina A Campos Novos de Baixo",
      "addr:suburb": "Campos Novos",
      "building": "yes"
      },
      "geometry": {
         "type": "Point",
         "coordinates": [-38.3285383,-9.4456643]
      }
    },
    {
      "type": "Feature",
      "properties": { 
      "IBGE:COD_UNICO_ENDERECO": "27410141",
      "addr:housenumber": "27",
      "addr:postcode": "48619-899",
      "addr:street": "Povoado Campos Novos de Baixo",
      "addr:suburb": "Campos Novos",
      "building": "yes"
      },
      "geometry": {
         "type": "Point",
         "coordinates": [-38.3198345,-9.4481407]
      }
    },
    {
      "type": "Feature",
      "properties": { 
      "IBGE:COD_UNICO_ENDERECO": "27415261",
      "addr:housenumber": "8",
      "addr:postcode": "48619-899",
      "addr:street": "Povoado Campos Novos",
      "addr:suburb": "Campos Novos",
      "building": "yes",
      "fixme": "Verificar coordenadas",
      "note": "Muito afastado da face: 111m 0500-0177P-0-1"
      },
      "geometry": {
         "type": "Point",
         "coordinates": [-38.324184,-9.442122]
      }
    },
    {
      "type": "Feature",
      "properties": { 
      "IBGE:COD_UNICO_ENDERECO": "27415276",
      "addr:housenumber": "74",
      "addr:postcode": "48619-899",
      "addr:street": "Povoado Campos Novos de Baixo",
      "addr:suburb": "Campos Novos",
      "building": "yes"
      },
      "geometry": {
         "type": "Point",
         "coordinates": [-38.3214677,-9.4423673]
      }
    },
    {
      "type": "Feature",
      "properties": { 
      "IBGE:COD_UNICO_ENDERECO": "27410139",
      "addr:housenumber": "29",
      "addr:postcode": "48619-899",
      "addr:street": "Povoado Campos Novos de Baixo",
      "addr:suburb": "Campos Novos",
      "building": "yes"
      },
      "geometry": {
         "type": "Point",
         "coordinates": [-38.3198234,-9.4480485]
      }
    },
    {
      "type": "Feature",
      "properties": { 
      "IBGE:COD_UNICO_ENDERECO": "112585231",
      "addr:housenumber": "44",
      "addr:postcode": "48619-899",
      "addr:street": "Estrada Paul 0 Afonso Juá Via Campos no",
      "addr:suburb": "Campos Novos",
      "building": "yes",
      "fixme": "Verificar coordenadas",
      "note": "Sem setor ou quadra no bayface do IBGE 0500-0122P-0-9"
      },
      "geometry": {
         "type": "Point",
         "coordinates": [-38.329658,-9.439893]
      }
    },
    {
      "type": "Feature",
      "properties": { 
      "IBGE:COD_UNICO_ENDERECO": "192029596",
      "addr:housenumber": "96",
      "addr:postcode": "48619-899",
      "addr:street": "Povoado Campos Novos de Baixo",
      "addr:suburb": "Campos Novos",
      "building": "yes"
      },
      "geometry": {
         "type": "Point",
         "coordinates": [-38.3203984,-9.4442691]
      }
    },
    {
      "type": "Feature",
      "properties": { 
      "IBGE:COD_UNICO_ENDERECO": "27415268",
      "addr:housenumber": "88",
      "addr:postcode": "48619-899",
      "addr:street": "Povoado Campos Novos",
      "addr:suburb": "Campos Novos",
      "building": "yes"
      },
      "geometry": {
         "type": "Point",
         "coordinates": [-38.3272734,-9.4412423]
      }
    },
    {
      "type": "Feature",
      "properties": { 
      "IBGE:COD_UNICO_ENDERECO": "27415286",
      "addr:housenumber": "50",
      "addr:postcode": "48619-899",
      "addr:street": "Povoado Campos Novos de Baixo",
      "addr:suburb": "Campos Novos",
      "building": "yes",
      "fixme": "Verificar coordenadas",
      "note": "Muito afastado da face: 56m 0500-0177P-1-19"
      },
      "geometry": {
         "type": "Point",
         "coordinates": [-38.31972,-9.443012]
      }
    },
    {
      "type": "Feature",
      "properties": { 
      "IBGE:COD_UNICO_ENDERECO": "27415264",
      "addr:housenumber": "81",
      "addr:postcode": "48619-899",
      "addr:street": "Povoado Campos Novos",
      "addr:suburb": "Campos Novos",
      "building": "yes",
      "fixme": "Verificar coordenadas",
      "note": "Muito afastado da face: 51m 0500-0177P-0-1"
      },
      "geometry": {
         "type": "Point",
         "coordinates": [-38.328772,-9.44003]
      }
    },
    {
      "type": "Feature",
      "properties": { 
      "IBGE:COD_UNICO_ENDERECO": "27415269",
      "addr:housenumber": "74",
      "addr:postcode": "48619-899",
      "addr:street": "Povoado Campos Novos",
      "addr:suburb": "Campos Novos",
      "building": "yes"
      },
      "geometry": {
         "type": "Point",
         "coordinates": [-38.326506,-9.4417332]
      }
    }
  ]
}
